{
"type": "FeatureCollection",
"name": "route_3",
"xy_coordinate_resolution": 1e-07,
"features": [
{"type":"Feature","properties":{"@id":"way/43027286","highway":"primary","oneway":"yes","surface":"asphalt"},"geometry":{"type":"LineString","coordinates":[[34.1368863,44.9302119],[34.1370298,44.9298702],[34.1370477,44.9298253],[34.137149,44.9295516],[34.1372208,44.9293735]]}},
{"type":"Feature","properties":{"@id":"way/73949471","highway":"primary","oneway":"yes","surface":"asphalt"},"geometry":{"type":"LineString","coordinates":[[34.1408384,44.9660625],[34.1404117,44.9664769],[34.1403501,44.9665538],[34.1402488,44.9666804],[34.1401601,44.9668121],[34.1400857,44.9669391],[34.1400294,44.9670878],[34.1399409,44.9673807],[34.1398972,44.9676598],[34.1398688,44.9678646],[34.1398626,44.9679095],[34.139862,44.9679345],[34.1398536,44.9682866],[34.1398519,44.9683555],[34.1398431,44.9684864],[34.1398253,44.9689098],[34.139813,44.9692025],[34.1397808,44.969563],[34.1396646,44.9701077],[34.1396221,44.9702781],[34.1395853,44.970361],[34.1395366,44.9704804],[34.1394695,44.9706267],[34.1393834,44.9707982],[34.1392608,44.9710193],[34.1390953,44.9713435],[34.1388295,44.9717425],[34.1385301,44.9721594],[34.138248,44.9725795],[34.1377474,44.9733136],[34.1372802,44.973994],[34.1370381,44.9743481]]}},
{"type":"Feature","properties":{"@id":"way/86296661","highway":"primary","oneway":"yes","surface":"asphalt"},"geometry":{"type":"LineString","coordinates":[[34.0762411,44.9851864],[34.0771576,44.9854799]]}},
{"type":"Feature","properties":{"@id":"way/86296665","highway":"primary","oneway":"yes","surface":"asphalt"},"geometry":{"type":"LineString","coordinates":[[34.0862797,44.9885751],[34.0860699,44.9885034],[34.0849922,44.9881351],[34.0824568,44.987307]]}},
{"type":"Feature","properties":{"@id":"way/86296734","highway":"primary","oneway":"yes","surface":"asphalt"},"geometry":{"type":"LineString","coordinates":[[34.0770844,44.985566],[34.0761864,44.9852702]]}},
{"type":"Feature","properties":{"@id":"way/86296735","highway":"primary","oneway":"yes","surface":"asphalt"},"geometry":{"type":"LineString","coordinates":[[34.0775544,44.9856132],[34.0790193,44.986072],[34.0809681,44.9867143]]}},
{"type":"Feature","properties":{"@id":"way/86296736","highway":"primary","oneway":"yes","surface":"asphalt"},"geometry":{"type":"LineString","coordinates":[[34.0811501,44.9867761],[34.082329,44.9871347]]}},
{"type":"Feature","properties":{"@id":"way/86296737","highway":"primary","oneway":"yes","surface":"asphalt"},"geometry":{"type":"LineString","coordinates":[[34.082329,44.9871347],[34.0830438,44.9873654],[34.0850663,44.9880184]]}},
{"type":"Feature","properties":{"@id":"way/86296738","highway":"primary","oneway":"yes","surface":"asphalt"},"geometry":{"type":"LineString","coordinates":[[34.0810672,44.9868491],[34.0791746,44.9862345],[34.0788529,44.9861264],[34.0770844,44.985566]]}},
{"type":"Feature","properties":{"@id":"way/86296739","highway":"primary","oneway":"yes","surface":"asphalt"},"geometry":{"type":"LineString","coordinates":[[34.0822006,44.9872131],[34.0810672,44.9868491]]}},
{"type":"Feature","properties":{"@id":"way/86379329","highway":"primary","oneway":null,"surface":"asphalt"},"geometry":{"type":"LineString","coordinates":[[34.0690397,44.9792579],[34.0690428,44.9795543]]}},
{"type":"Feature","properties":{"@id":"way/86380457","highway":"primary","oneway":"yes","surface":"asphalt"},"geometry":{"type":"LineString","coordinates":[[34.0850663,44.9880184],[34.0862091,44.9883843],[34.0866185,44.9885153],[34.0870127,44.9886317],[34.0874836,44.9887418],[34.0878606,44.988822],[34.087992,44.9888355],[34.088094,44.9888507]]}},
{"type":"Feature","properties":{"@id":"way/87927920","highway":"primary","oneway":null,"surface":"asphalt"},"geometry":{"type":"LineString","coordinates":[[34.1469272,44.9588872],[34.1474167,44.9587354],[34.1475984,44.9586868],[34.1480205,44.9585684],[34.1485268,44.9584334],[34.1492216,44.9582471],[34.1500285,44.9580257],[34.1512053,44.9577023],[34.151737,44.9575586],[34.1518181,44.9575329]]}},
{"type":"Feature","properties":{"@id":"way/88172293","highway":"primary","oneway":"yes","surface":"asphalt"},"geometry":{"type":"LineString","coordinates":[[34.0900045,44.9891825],[34.0889996,44.9891044],[34.0879672,44.9889821],[34.0871992,44.9888307]]}},
{"type":"Feature","properties":{"@id":"way/88172297","highway":"primary","oneway":"yes","surface":"asphalt"},"geometry":{"type":"LineString","coordinates":[[34.088094,44.9888507],[34.0884461,44.9888952],[34.0891374,44.9889346],[34.0893002,44.9889429],[34.0899759,44.9889858]]}},
{"type":"Feature","properties":{"@id":"way/88172299","highway":"primary","oneway":"yes","surface":"asphalt"},"geometry":{"type":"LineString","coordinates":[[34.1093759,44.9896868],[34.1101025,44.9897033],[34.1113189,44.9896576],[34.1116669,44.9896297],[34.112115,44.9895747],[34.1126241,44.9895016],[34.113095,44.9894104],[34.1138705,44.9892446],[34.1158394,44.9887697],[34.1181137,44.9882317],[34.1192425,44.9879648],[34.1200774,44.9877828]]}},
{"type":"Feature","properties":{"@id":"way/91641319","highway":"primary","oneway":null,"surface":"asphalt"},"geometry":{"type":"LineString","coordinates":[[34.0342106,44.9414198],[34.0343367,44.9416584],[34.034469,44.9418959],[34.0346432,44.94217],[34.0348683,44.9424638],[34.0353686,44.9429962],[34.0359243,44.9434787],[34.0360904,44.9436111],[34.0362645,44.943732],[34.0366835,44.9439983],[34.0371496,44.9442516],[34.0376361,44.9444618],[34.0379774,44.9446082],[34.0387639,44.9449013],[34.0394846,44.9451682],[34.0402665,44.9454379],[34.0412495,44.9457811],[34.0416361,44.9459105],[34.0420507,44.9460184],[34.0429914,44.9462319],[34.0434143,44.9463203],[34.0440018,44.9464144],[34.0445747,44.9464797],[34.0450651,44.9465331],[34.045183,44.946544],[34.0459667,44.9466169],[34.0466021,44.9466739],[34.0471815,44.9467263],[34.0476755,44.94677],[34.0484632,44.9468339],[34.0492253,44.9469037],[34.0501692,44.9469848],[34.0507855,44.9470398],[34.0512697,44.947089],[34.0519095,44.9471788],[34.0524395,44.947283],[34.0529511,44.947417],[34.0534952,44.9476],[34.0541281,44.9478414]]}},
{"type":"Feature","properties":{"@id":"way/91711878","highway":"primary","oneway":null,"surface":"asphalt"},"geometry":{"type":"LineString","coordinates":[[34.066781,44.9715422],[34.067026,44.9719241],[34.0672582,44.9723441],[34.0674347,44.97264],[34.0675909,44.9729086],[34.0677975,44.9732719],[34.0679716,44.9736006],[34.0681367,44.9739497],[34.0682735,44.9743002],[34.0683656,44.974521],[34.0685129,44.97495],[34.0686348,44.975346],[34.0687341,44.9756884],[34.0688694,44.9763249],[34.068954,44.9768512],[34.069015,44.9774476],[34.0690344,44.978031],[34.069033,44.9785005],[34.0690335,44.9786422],[34.0690356,44.9789637],[34.0690397,44.9792579]]}},
{"type":"Feature","properties":{"@id":"way/91842968","highway":"primary","oneway":null,"surface":"asphalt"},"geometry":{"type":"LineString","coordinates":[[34.0541281,44.9478414],[34.054508,44.948017],[34.0548741,44.9481987],[34.0552895,44.9484553],[34.0555805,44.9486516],[34.0559077,44.9489063],[34.056223,44.9491829],[34.0564469,44.9493972],[34.0567776,44.9497754],[34.0570757,44.9501795],[34.0572551,44.9504652],[34.0573332,44.9506198],[34.0574629,44.9508545],[34.0575608,44.9510587],[34.0577717,44.951546],[34.0582508,44.952629]]}},
{"type":"Feature","properties":{"@id":"way/97138703","highway":"primary","oneway":null,"surface":"asphalt"},"geometry":{"type":"LineString","coordinates":[[34.0690428,44.9795543],[34.0690437,44.9801083],[34.0690521,44.9806459],[34.0690537,44.9810202],[34.0690675,44.9813831],[34.0690904,44.9815725],[34.0691153,44.9817418],[34.0692044,44.9820548]]}},
{"type":"Feature","properties":{"@id":"way/97138756","highway":"primary","oneway":null,"surface":"asphalt"},"geometry":{"type":"LineString","coordinates":[[34.0692044,44.9820548],[34.0692672,44.9822229],[34.0693251,44.982331]]}},
{"type":"Feature","properties":{"@id":"way/97138759","highway":"primary","oneway":"yes","surface":"asphalt"},"geometry":{"type":"LineString","coordinates":[[34.0693251,44.982331],[34.0695397,44.9825877],[34.0696173,44.9827065]]}},
{"type":"Feature","properties":{"@id":"way/127622859","highway":"primary","oneway":"yes","surface":"asphalt"},"geometry":{"type":"LineString","coordinates":[[34.1369238,44.9743042],[34.137164,44.9739601],[34.1377971,44.9730362],[34.1381571,44.9725002],[34.1383934,44.9721672],[34.1388881,44.9714011],[34.138972,44.9712749],[34.1392038,44.9708653],[34.1393698,44.970549],[34.1394364,44.9703825],[34.1394818,44.9702574],[34.1395401,44.9700966],[34.1395911,44.9698424],[34.1396351,44.9694043],[34.1396753,44.9690045],[34.1396905,44.9686167],[34.139693,44.9685518],[34.1397032,44.9682974],[34.1397142,44.9680277],[34.1397499,44.9677291],[34.1397736,44.9675932],[34.139789,44.9675047],[34.1398557,44.9672774],[34.1399503,44.9670001],[34.1399532,44.9669915],[34.1401608,44.9666224],[34.1404086,44.9663437],[34.140758,44.966016],[34.1411308,44.9656945],[34.1412538,44.9655959],[34.1413522,44.9655164],[34.141598,44.965298],[34.1419942,44.9649581],[34.142211,44.9647707],[34.1424304,44.9645783],[34.1429719,44.9640754],[34.1431285,44.9638857],[34.1431964,44.963794],[34.143331,44.96359],[34.1435337,44.9632434],[34.1437643,44.9628206],[34.1440432,44.9624144]]}},
{"type":"Feature","properties":{"@id":"way/127622860","highway":"primary","oneway":"yes","surface":"asphalt"},"geometry":{"type":"LineString","coordinates":[[34.1270419,44.9861927],[34.1264668,44.9863622],[34.1257147,44.9865334],[34.124948,44.9867135],[34.123064,44.9871562],[34.1199655,44.9878878],[34.1197443,44.9879385],[34.1189168,44.9881338],[34.1146984,44.9891298],[34.113051,44.9895049],[34.112153,44.9896812],[34.1117076,44.9897284],[34.111337,44.9897628],[34.1107009,44.9897855],[34.1100172,44.9897981],[34.1078336,44.9897254],[34.1075378,44.9897156],[34.1072053,44.989709],[34.1069317,44.9897045],[34.1050926,44.9896372],[34.1010993,44.9894925],[34.1006138,44.9894713],[34.099765,44.9894398],[34.0997068,44.9894376],[34.0985864,44.9893959],[34.0978151,44.9893672],[34.0970224,44.9893378],[34.0965284,44.9893194],[34.0921713,44.9891578],[34.0916991,44.9891473],[34.0913181,44.9891525],[34.0904992,44.9891853],[34.090213,44.9891871],[34.0900045,44.9891825]]}},
{"type":"Feature","properties":{"@id":"way/127622862","highway":"primary","oneway":null,"surface":"asphalt"},"geometry":{"type":"LineString","coordinates":[[34.1428801,44.9418544],[34.1426763,44.9417333],[34.1422343,44.9414705]]}},
{"type":"Feature","properties":{"@id":"way/160005334","highway":"primary","oneway":"yes","surface":"asphalt"},"geometry":{"type":"LineString","coordinates":[[34.0809681,44.9867143],[34.0811501,44.9867761]]}},
{"type":"Feature","properties":{"@id":"way/189085244","highway":"primary","oneway":null,"surface":"asphalt"},"geometry":{"type":"LineString","coordinates":[[34.1378538,44.9388579],[34.1377979,44.9388242],[34.1377333,44.9387838],[34.1375926,44.9386957],[34.1373546,44.9385365],[34.1373192,44.9385067],[34.1372144,44.9384185],[34.1371134,44.9383307],[34.1370828,44.9382981],[34.1369507,44.9381573],[34.1368175,44.9379913],[34.1366955,44.9377933],[34.1366217,44.9376173],[34.1365762,44.9374939],[34.1365674,44.9374701],[34.1365358,44.9373182],[34.1365326,44.9372857],[34.1365232,44.9371892]]}},
{"type":"Feature","properties":{"@id":"way/189085245","highway":"primary","oneway":null,"surface":"asphalt"},"geometry":{"type":"LineString","coordinates":[[34.1381335,44.9390264],[34.1378538,44.9388579]]}},
{"type":"Feature","properties":{"@id":"way/386360125","highway":"primary","oneway":null,"surface":"asphalt"},"geometry":{"type":"LineString","coordinates":[[34.1481672,44.9184522],[34.1483144,44.9182677],[34.1486799,44.9178577],[34.1487025,44.9178298]]}},
{"type":"Feature","properties":{"@id":"way/386360128","highway":"primary","oneway":null,"surface":"asphalt"},"geometry":{"type":"LineString","coordinates":[[34.1487025,44.9178298],[34.1489192,44.9175647],[34.1492441,44.9171674],[34.1495302,44.9168174],[34.1498643,44.9164488],[34.1502847,44.915822],[34.151235,44.9146253],[34.1513087,44.9145321],[34.1515849,44.9141828],[34.1528496,44.9125173],[34.153356,44.9118228],[34.1536556,44.9115019],[34.1538184,44.9113583]]}},
{"type":"Feature","properties":{"@id":"way/402445101","highway":"primary","oneway":null,"surface":"asphalt"},"geometry":{"type":"LineString","coordinates":[[34.1365232,44.9371892],[34.1365254,44.9370173],[34.1365271,44.9368806],[34.136532,44.9368392],[34.1365579,44.9366196],[34.1366121,44.9364373],[34.1366172,44.9364203],[34.1366243,44.9363964],[34.1367238,44.9361992],[34.136735,44.9361771],[34.1368771,44.9359455],[34.1369063,44.9359023],[34.1371927,44.935479],[34.1373839,44.9351964],[34.13743,44.9351295],[34.1378195,44.9345635],[34.1380679,44.9341665],[34.1381004,44.9340754]]}},
{"type":"Feature","properties":{"@id":"way/402445103","highway":"primary","oneway":"yes","surface":"asphalt"},"geometry":{"type":"LineString","coordinates":[[34.1381776,44.9338204],[34.1381749,44.9336927],[34.138174,44.9336715],[34.1381689,44.9335553],[34.1381484,44.9334126],[34.138146,44.9333957],[34.1381178,44.9332221],[34.1380987,44.9331501],[34.1380788,44.9330751],[34.1380186,44.9329114],[34.1379995,44.9328594],[34.1379226,44.9326702],[34.1378464,44.9324826],[34.1377614,44.9323056],[34.1377239,44.9322274],[34.1376238,44.9320058],[34.1374437,44.9316069],[34.1372549,44.9311887],[34.1372037,44.9310643],[34.1370802,44.9307641],[34.137053,44.930698],[34.1369867,44.9305437],[34.1369137,44.9303319]]}},
{"type":"Feature","properties":{"@id":"way/405083276","highway":"primary","oneway":null,"surface":"asphalt"},"geometry":{"type":"LineString","coordinates":[[34.1440432,44.9624144],[34.1440947,44.9623123],[34.1443385,44.9618295]]}},
{"type":"Feature","properties":{"@id":"way/444394349","highway":"primary","oneway":"yes","surface":"asphalt"},"geometry":{"type":"LineString","coordinates":[[34.0871992,44.9888307],[34.0867908,44.9887198],[34.0862797,44.9885751]]}},
{"type":"Feature","properties":{"@id":"way/615015957","highway":"primary","oneway":"yes","surface":"asphalt"},"geometry":{"type":"LineString","coordinates":[[34.1361246,44.9754835],[34.1361962,44.9753843],[34.1368851,44.974359],[34.1369238,44.9743042]]}},
{"type":"Feature","properties":{"@id":"way/615015958","highway":"primary","oneway":"yes","surface":"asphalt"},"geometry":{"type":"LineString","coordinates":[[34.1271648,44.986051],[34.1272308,44.9860268],[34.1274622,44.9859422],[34.1280495,44.9856843],[34.1283563,44.9855223],[34.1288906,44.985201],[34.1294256,44.9848251],[34.129873,44.9844496],[34.1301837,44.9841334],[34.1304926,44.9837447],[34.1311459,44.9827848],[34.1315019,44.9822655],[34.1318604,44.981739],[34.1335744,44.979222],[34.1345818,44.9777824],[34.1353304,44.9766385],[34.1357452,44.976034],[34.1361246,44.9754835]]}},
{"type":"Feature","properties":{"@id":"way/615015959","highway":"primary","oneway":"yes","surface":"asphalt"},"geometry":{"type":"LineString","coordinates":[[34.1362367,44.9755235],[34.1358649,44.9760702],[34.1354984,44.9766069],[34.1351213,44.977164],[34.1347561,44.9777104],[34.1345186,44.9780463],[34.1339982,44.9788102],[34.133878,44.9789784],[34.1335948,44.9794039],[34.133393,44.9797072],[34.1332206,44.9799571],[34.1331162,44.9801085],[34.132755,44.9806388],[34.1322743,44.9813379],[34.1319773,44.9817689],[34.1316141,44.9823116],[34.1314422,44.9825735],[34.1308403,44.9834399],[34.13061,44.9838028],[34.1305384,44.9838942],[34.1301775,44.9843106],[34.1297235,44.9847312],[34.12951,44.984906],[34.1291237,44.9851794],[34.128895,44.9853309],[34.1286343,44.9854867],[34.1283147,44.9856587],[34.128083,44.9857707],[34.1279049,44.9858494],[34.1277765,44.9859056],[34.1275188,44.986013],[34.1272866,44.9861121],[34.1270419,44.9861927]]}},
{"type":"Feature","properties":{"@id":"way/615015960","highway":"primary","oneway":"yes","surface":"asphalt"},"geometry":{"type":"LineString","coordinates":[[34.1370381,44.9743481],[34.1370028,44.9743962],[34.1363064,44.9754178],[34.1362367,44.9755235]]}},
{"type":"Feature","properties":{"@id":"way/626826029","highway":"primary","oneway":"yes","surface":"asphalt"},"geometry":{"type":"LineString","coordinates":[[34.1440432,44.9624144],[34.1438959,44.9627431],[34.1438532,44.9628385],[34.1437824,44.9629687],[34.1436373,44.9632466],[34.143432,44.9635997],[34.143385,44.9636722],[34.1431949,44.9639653],[34.1429098,44.9642731],[34.1426384,44.9645191],[34.1422917,44.9648248],[34.1419465,44.9651155],[34.1412218,44.965734],[34.1408384,44.9660625]]}},
{"type":"Feature","properties":{"@id":"way/680739835","highway":"primary","oneway":"yes","surface":"asphalt"},"geometry":{"type":"LineString","coordinates":[[34.0760262,44.9852168],[34.0754315,44.985037],[34.0751031,44.984945],[34.0747599,44.9848679],[34.0742723,44.9847749],[34.0738928,44.9847117],[34.0735052,44.9846514]]}},
{"type":"Feature","properties":{"@id":"way/680739836","highway":"primary","oneway":"yes","surface":"asphalt"},"geometry":{"type":"LineString","coordinates":[[34.0701294,44.9833847],[34.0699564,44.983238],[34.069795,44.983071],[34.0695504,44.9827836],[34.0694489,44.9826191],[34.0693251,44.982331]]}},
{"type":"Feature","properties":{"@id":"way/680739837","highway":"primary","oneway":"yes","surface":"asphalt"},"geometry":{"type":"LineString","coordinates":[[34.069854,44.9829613],[34.0700292,44.9831361],[34.0702594,44.9833383],[34.0705243,44.9835282],[34.0708198,44.9837174],[34.0710284,44.9838283],[34.0712105,44.983919],[34.0713476,44.9839857],[34.0715335,44.9840553],[34.0717636,44.9841463],[34.0719767,44.9842237],[34.0720284,44.9842383]]}},
{"type":"Feature","properties":{"@id":"way/680739841","highway":"primary","oneway":"yes","surface":"asphalt"},"geometry":{"type":"LineString","coordinates":[[34.0727287,44.9844083],[34.0727802,44.9844163],[34.0730449,44.984462],[34.073308,44.9845038],[34.0735341,44.9845436]]}},
{"type":"Feature","properties":{"@id":"way/680739842","highway":"primary","oneway":"yes","surface":"asphalt"},"geometry":{"type":"LineString","coordinates":[[34.0735052,44.9846514],[34.0732677,44.9846143],[34.0729893,44.9845735],[34.0727343,44.9845305]]}},
{"type":"Feature","properties":{"@id":"way/680977915","highway":"primary","oneway":"yes","surface":null},"geometry":{"type":"LineString","coordinates":[[34.0727343,44.9845305],[34.0721634,44.9843898],[34.0717693,44.9842592],[34.0715704,44.9841826],[34.0713182,44.9840868],[34.0710628,44.983967],[34.0707949,44.9838308],[34.0704784,44.9836344],[34.0701294,44.9833847]]}},
{"type":"Feature","properties":{"@id":"way/680977916","highway":"primary","oneway":"yes","surface":"asphalt"},"geometry":{"type":"LineString","coordinates":[[34.0735341,44.9845436],[34.0742671,44.9846723],[34.0748179,44.9847743],[34.0753047,44.9849001],[34.0761045,44.9851437],[34.0762411,44.9851864]]}},
{"type":"Feature","properties":{"@id":"way/690938705","highway":"primary","oneway":"yes","surface":"asphalt"},"geometry":{"type":"LineString","coordinates":[[34.1372208,44.9293735],[34.1371624,44.9295984],[34.1370918,44.9298843]]}},
{"type":"Feature","properties":{"@id":"way/711294676","highway":"primary","oneway":null,"surface":"asphalt"},"geometry":{"type":"LineString","coordinates":[[34.06554,44.9697812],[34.0656373,44.9699228],[34.0659492,44.9703959],[34.066781,44.9715422]]}},
{"type":"Feature","properties":{"@id":"way/717289619","highway":"primary","oneway":"yes","surface":"asphalt"},"geometry":{"type":"LineString","coordinates":[[34.1071577,44.9896025],[34.1089464,44.9896682],[34.1093759,44.9896868]]}},
{"type":"Feature","properties":{"@id":"way/717289620","highway":"primary","oneway":"yes","surface":"asphalt"},"geometry":{"type":"LineString","coordinates":[[34.0899759,44.9889858],[34.0910441,44.9890191],[34.0913899,44.9890339],[34.0922345,44.98907],[34.0953542,44.9891807],[34.0986061,44.9892893],[34.0988647,44.9892979],[34.0995573,44.9893211],[34.1011984,44.9893843],[34.1037075,44.9894786],[34.1052271,44.9895364],[34.1068201,44.9895926],[34.1071577,44.9896025]]}},
{"type":"Feature","properties":{"@id":"way/717289621","highway":"primary","oneway":"yes","surface":"asphalt"},"geometry":{"type":"LineString","coordinates":[[34.1238674,44.9868652],[34.1245277,44.986711],[34.1258782,44.9864027]]}},
{"type":"Feature","properties":{"@id":"way/717289622","highway":"primary","oneway":"yes","surface":"asphalt"},"geometry":{"type":"LineString","coordinates":[[34.1258782,44.9864027],[34.1261428,44.9863356],[34.1266454,44.9862025],[34.126909,44.9861256],[34.1270927,44.986072],[34.1271648,44.986051]]}},
{"type":"Feature","properties":{"@id":"way/758302976","highway":"primary","oneway":null,"surface":"asphalt"},"geometry":{"type":"LineString","coordinates":[[34.15317,44.9536739],[34.1528524,44.9531559],[34.1528293,44.9531182],[34.1528142,44.9530947],[34.152637,44.9528413]]}},
{"type":"Feature","properties":{"@id":"way/763291725","highway":"primary","oneway":null,"surface":"asphalt"},"geometry":{"type":"LineString","coordinates":[[34.1509373,44.9501768],[34.1508143,44.9499855],[34.1506844,44.9497836]]}},
{"type":"Feature","properties":{"@id":"way/825809652","highway":"primary","oneway":null,"surface":"asphalt"},"geometry":{"type":"LineString","coordinates":[[34.1532503,44.9568729],[34.1533375,44.9567928],[34.153541,44.9566056],[34.1536068,44.9565451],[34.1536944,44.9564465],[34.1538295,44.9562559],[34.1539556,44.9559186],[34.1539908,44.9557175],[34.1539976,44.9555202],[34.1539828,44.9552353],[34.1539761,44.9552079],[34.1539238,44.9549953],[34.1539002,44.9549353],[34.1538634,44.9548418],[34.1538351,44.9547699],[34.1537499,44.954605],[34.1536786,44.9544671],[34.1535967,44.9543393]]}},
{"type":"Feature","properties":{"@id":"way/923266918","highway":"primary","oneway":null,"surface":"asphalt"},"geometry":{"type":"LineString","coordinates":[[34.1523185,44.9573707],[34.1524279,44.9573334],[34.1525666,44.9572787],[34.1526797,44.9572301],[34.1528281,44.9571572]]}},
{"type":"Feature","properties":{"@id":"way/923266919","highway":"primary","oneway":null,"surface":"asphalt"},"geometry":{"type":"LineString","coordinates":[[34.1528281,44.9571572],[34.1529824,44.9570553],[34.1531355,44.9569566],[34.1532503,44.9568729]]}},
{"type":"Feature","properties":{"@id":"way/935845331","highway":"primary","oneway":null,"surface":"asphalt"},"geometry":{"type":"LineString","coordinates":[[34.1396252,44.9399194],[34.1395767,44.9398904]]}},
{"type":"Feature","properties":{"@id":"way/935845332","highway":"primary","oneway":null,"surface":"asphalt"},"geometry":{"type":"LineString","coordinates":[[34.1401809,44.9402498],[34.1399635,44.9401205]]}},
{"type":"Feature","properties":{"@id":"way/935845333","highway":"primary","oneway":null,"surface":"asphalt"},"geometry":{"type":"LineString","coordinates":[[34.1399635,44.9401205],[34.1398325,44.9400426],[34.1396252,44.9399194]]}},
{"type":"Feature","properties":{"@id":"way/935845335","highway":"primary","oneway":null,"surface":"asphalt"},"geometry":{"type":"LineString","coordinates":[[34.1422343,44.9414705],[34.1419621,44.9413086],[34.1411741,44.9408402]]}},
{"type":"Feature","properties":{"@id":"way/947192131","highway":"primary","oneway":"yes","surface":"asphalt"},"geometry":{"type":"LineString","coordinates":[[34.0771576,44.9854799],[34.0775544,44.9856132]]}},
{"type":"Feature","properties":{"@id":"way/947199441","highway":"primary","oneway":"yes","surface":null},"geometry":{"type":"LineString","coordinates":[[34.0761864,44.9852702],[34.0760262,44.9852168]]}},
{"type":"Feature","properties":{"@id":"way/947199442","highway":"primary","oneway":"yes","surface":"asphalt"},"geometry":{"type":"LineString","coordinates":[[34.0824568,44.987307],[34.0822006,44.9872131]]}},
{"type":"Feature","properties":{"@id":"way/952313537","highway":"primary","oneway":null,"surface":"asphalt"},"geometry":{"type":"LineString","coordinates":[[34.1381004,44.9340754],[34.1381346,44.9339918],[34.1381627,44.9338999]]}},
{"type":"Feature","properties":{"@id":"way/952313538","highway":"primary","oneway":null,"surface":"asphalt"},"geometry":{"type":"LineString","coordinates":[[34.1381627,44.9338999],[34.1381742,44.9338386],[34.1381776,44.9338204]]}},
{"type":"Feature","properties":{"@id":"way/955249022","highway":"primary","oneway":null,"surface":"asphalt"},"geometry":{"type":"LineString","coordinates":[[34.1443997,44.9617053],[34.1444974,44.9615285]]}},
{"type":"Feature","properties":{"@id":"way/955249023","highway":"primary","oneway":null,"surface":"asphalt"},"geometry":{"type":"LineString","coordinates":[[34.1443385,44.9618295],[34.1443997,44.9617053]]}},
{"type":"Feature","properties":{"@id":"way/988029294","highway":"primary","oneway":null,"surface":"asphalt"},"geometry":{"type":"LineString","coordinates":[[34.1391656,44.9253586],[34.1391905,44.9253412],[34.1393767,44.9252345],[34.1396166,44.9251149],[34.1397412,44.9250607]]}},
{"type":"Feature","properties":{"@id":"way/988029295","highway":"primary","oneway":null,"surface":"asphalt"},"geometry":{"type":"LineString","coordinates":[[34.1397412,44.9250607],[34.1405704,44.9246999],[34.1405982,44.9246883],[34.14087,44.9245748],[34.1410067,44.9245143],[34.1410221,44.9245078],[34.1422191,44.9239997],[34.1433875,44.9234497],[34.1437616,44.9232573]]}},
{"type":"Feature","properties":{"@id":"way/1080241128","highway":"primary","oneway":"yes","surface":"asphalt"},"geometry":{"type":"LineString","coordinates":[[34.1214337,44.9874427],[34.1230202,44.9870647],[34.1231249,44.9870411],[34.1238674,44.9868652]]}},
{"type":"Feature","properties":{"@id":"way/1080241129","highway":"primary","oneway":"yes","surface":"asphalt"},"geometry":{"type":"LineString","coordinates":[[34.1200774,44.9877828],[34.1214337,44.9874427]]}},
{"type":"Feature","properties":{"@id":"way/1080241130","highway":"primary","oneway":null,"surface":"asphalt"},"geometry":{"type":"LineString","coordinates":[[34.0634277,44.96368],[34.0634805,44.963903],[34.0635049,44.9641001],[34.0635768,44.9647467],[34.0636122,44.9653674],[34.0636325,44.9656065],[34.0636524,44.9657039],[34.0636843,44.9659481],[34.0637935,44.9664338],[34.0638867,44.9667366],[34.0640215,44.9670441],[34.0645242,44.9680117],[34.0648107,44.968503],[34.0650952,44.9689914],[34.0652741,44.9693389],[34.0654158,44.9695746],[34.06554,44.9697812]]}},
{"type":"Feature","properties":{"@id":"way/1080241131","highway":"primary","oneway":null,"surface":"asphalt"},"geometry":{"type":"LineString","coordinates":[[34.0633901,44.9635217],[34.0634277,44.96368]]}},
{"type":"Feature","properties":{"@id":"way/1080262291","highway":"primary","oneway":null,"surface":"asphalt"},"geometry":{"type":"LineString","coordinates":[[34.1518181,44.9575329],[34.1523185,44.9573707]]}},
{"type":"Feature","properties":{"@id":"way/1083805993","highway":"primary","oneway":null,"surface":"asphalt"},"geometry":{"type":"LineString","coordinates":[[34.1372208,44.9293735],[34.1372992,44.9290996],[34.1379731,44.9272325]]}},
{"type":"Feature","properties":{"@id":"way/1083805994","highway":"primary","oneway":"yes","surface":"asphalt"},"geometry":{"type":"LineString","coordinates":[[34.1370918,44.9298843],[34.1370651,44.9300225],[34.1370499,44.9301593],[34.1370482,44.9303096],[34.1370599,44.9304404],[34.1370865,44.930566],[34.1371241,44.9306665],[34.1371913,44.9308245],[34.1374712,44.9314524],[34.1379402,44.9325462],[34.1380637,44.9328446],[34.1381066,44.932951],[34.1381415,44.9330555],[34.1381711,44.9331619],[34.1381952,44.9332702],[34.1382131,44.9334039],[34.1382172,44.9335422],[34.1382097,44.9336412],[34.1381776,44.9338204]]}},
{"type":"Feature","properties":{"@id":"way/1083805995","highway":"primary","oneway":null,"surface":"asphalt"},"geometry":{"type":"LineString","coordinates":[[34.1379731,44.9272325],[34.1380583,44.9269832],[34.1380822,44.9269133],[34.1380893,44.9268943],[34.1382045,44.9265811],[34.138249,44.9264601],[34.1382794,44.9263725],[34.1383207,44.9262783],[34.1383724,44.9261864],[34.1384761,44.926031],[34.1386196,44.9258518]]}},
{"type":"Feature","properties":{"@id":"way/1083805996","highway":"primary","oneway":null,"surface":"asphalt"},"geometry":{"type":"LineString","coordinates":[[34.1386196,44.9258518],[34.1387163,44.9257511]]}},
{"type":"Feature","properties":{"@id":"way/1083805997","highway":"primary","oneway":null,"surface":"asphalt"},"geometry":{"type":"LineString","coordinates":[[34.1387163,44.9257511],[34.1388323,44.9256215],[34.138986,44.9254846],[34.1391656,44.9253586]]}},
{"type":"Feature","properties":{"@id":"way/1118834524","highway":"primary","oneway":null,"surface":"asphalt"},"geometry":{"type":"LineString","coordinates":[[34.1386348,44.9393264],[34.1385396,44.9392693],[34.1384088,44.9391908]]}},
{"type":"Feature","properties":{"@id":"way/1177562089","highway":"primary","oneway":null,"surface":"asphalt"},"geometry":{"type":"LineString","coordinates":[[34.1437616,44.9232573],[34.1440832,44.9230746],[34.1443882,44.9228547],[34.1445775,44.9226758],[34.144986,44.9222715],[34.1452462,44.9219843],[34.1455109,44.9216535],[34.1455884,44.9215567],[34.1456291,44.9215079],[34.1468822,44.9200059],[34.1470607,44.9197901],[34.1481672,44.9184522]]}},
{"type":"Feature","properties":{"@id":"way/1207367127","highway":"primary","oneway":null,"surface":"asphalt"},"geometry":{"type":"LineString","coordinates":[[34.1411741,44.9408402],[34.1410157,44.9407384],[34.1403949,44.940377],[34.1401809,44.9402498]]}},
{"type":"Feature","properties":{"@id":"way/1207367128","highway":"primary","oneway":null,"surface":"asphalt"},"geometry":{"type":"LineString","coordinates":[[34.1506844,44.9497836],[34.1506209,44.9496849],[34.1505643,44.949597],[34.1504602,44.9494175],[34.1501338,44.9489066],[34.1497117,44.9482219],[34.1493264,44.9476916],[34.1493069,44.9476709],[34.1486597,44.9469824],[34.1486058,44.9469251],[34.148092,44.9464314],[34.1474494,44.9458139],[34.1467557,44.9451473],[34.146291,44.9447008],[34.1460634,44.9444843],[34.1453836,44.9438379],[34.1449016,44.9433795],[34.1442296,44.9427798],[34.1441569,44.9427149],[34.1435993,44.9422893],[34.1430073,44.9419371],[34.1428801,44.9418544]]}},
{"type":"Feature","properties":{"@id":"way/1287082553","highway":"primary","oneway":null,"surface":"asphalt"},"geometry":{"type":"LineString","coordinates":[[34.0621545,44.9610001],[34.0622643,44.9611991],[34.0627158,44.9620994],[34.0629538,44.9625726],[34.0631532,44.9629925],[34.0633901,44.9635217]]}},
{"type":"Feature","properties":{"@id":"way/1497347581","highway":"primary","oneway":"yes","surface":"asphalt"},"geometry":{"type":"LineString","coordinates":[[34.1369137,44.9303319],[34.1368863,44.9302119]]}},
{"type":"Feature","properties":{"@id":"way/1500732833","highway":"primary","oneway":null,"surface":"asphalt"},"geometry":{"type":"LineString","coordinates":[[34.1453279,44.9601],[34.1455539,44.959729],[34.14579,44.9594741]]}},
{"type":"Feature","properties":{"@id":"way/1500732834","highway":"primary","oneway":null,"surface":"asphalt"},"geometry":{"type":"LineString","coordinates":[[34.14579,44.9594741],[34.145971,44.959345],[34.1464291,44.9590885],[34.1469272,44.9588872]]}},
{"type":"Feature","properties":{"@id":"way/1500732835","highway":"primary","oneway":null,"surface":"asphalt"},"geometry":{"type":"LineString","coordinates":[[34.1444974,44.9615285],[34.1446008,44.9613219],[34.1447188,44.9610997],[34.1447959,44.9609731],[34.1453279,44.9601]]}},
{"type":"Feature","properties":{"@id":"way/1500732837","highway":"primary","oneway":null,"surface":"asphalt"},"geometry":{"type":"LineString","coordinates":[[34.0586278,44.9534732],[34.0589733,44.9542298],[34.0593925,44.9551754]]}},
{"type":"Feature","properties":{"@id":"way/1500732838","highway":"primary","oneway":null,"surface":"asphalt"},"geometry":{"type":"LineString","coordinates":[[34.0582508,44.952629],[34.0584692,44.9531226],[34.0586278,44.9534732]]}},
{"type":"Feature","properties":{"@id":"way/1500732844","highway":"primary","oneway":null,"surface":"asphalt"},"geometry":{"type":"LineString","coordinates":[[34.0593925,44.9551754],[34.0595687,44.9555696],[34.0597902,44.9560527],[34.060502,44.9576008],[34.0607161,44.9580352],[34.0611926,44.9590334],[34.061457,44.9596072],[34.0617377,44.9601525],[34.0619972,44.9606682],[34.0621545,44.9610001]]}},
{"type":"Feature","properties":{"@id":"way/1500732847","highway":"primary","oneway":null,"surface":"asphalt"},"geometry":{"type":"LineString","coordinates":[[34.1395767,44.9398904],[34.1391663,44.9396446],[34.1386348,44.9393264]]}},
{"type":"Feature","properties":{"@id":"way/1500732848","highway":"primary","oneway":null,"surface":"asphalt"},"geometry":{"type":"LineString","coordinates":[[34.1535967,44.9543393],[34.1532438,44.953789],[34.15317,44.9536739]]}},
{"type":"Feature","properties":{"@id":"way/1500732849","highway":"primary","oneway":null,"surface":"asphalt"},"geometry":{"type":"LineString","coordinates":[[34.152637,44.9528413],[34.1524041,44.9524762],[34.1519181,44.9517092]]}},
{"type":"Feature","properties":{"@id":"way/1500732850","highway":"primary","oneway":null,"surface":"asphalt"},"geometry":{"type":"LineString","coordinates":[[34.1519181,44.9517092],[34.1514606,44.9509971],[34.1509932,44.9502645],[34.1509373,44.9501768]]}},
{"type":"Feature","properties":{"@id":"way/1500732865","highway":"primary","oneway":"yes","surface":"asphalt"},"geometry":{"type":"LineString","coordinates":[[34.0720284,44.9842383],[34.0723486,44.984329],[34.0727287,44.9844083]]}},
{"type":"Feature","properties":{"@id":"way/1500732866","highway":"primary","oneway":"yes","surface":"asphalt"},"geometry":{"type":"LineString","coordinates":[[34.0696173,44.9827065],[34.069854,44.9829613]]}},
{"type":"Feature","properties":{"@id":"way/1519527209","highway":"primary","oneway":null,"surface":"asphalt"},"geometry":{"type":"LineString","coordinates":[[34.1384088,44.9391908],[34.1383589,44.9391609],[34.1382384,44.9390896],[34.1381335,44.9390264]]}}
]
}
