{
"type": "FeatureCollection",
"name": "route_4",
"xy_coordinate_resolution": 1e-07,
"features": [
{"type":"Feature","properties":{"@id":"way/32805579","highway":"primary","oneway":"yes","surface":"asphalt"},"geometry":{"type":"LineString","coordinates":[[34.0832724,44.9688616],[34.0829708,44.9693763],[34.0826874,44.9698147],[34.0824483,44.9701643],[34.08237,44.9702642],[34.0822916,44.9703583],[34.0821831,44.9704565],[34.0819806,44.9705804],[34.0816615,44.9707513],[34.0813402,44.9708662],[34.0809844,44.9709916],[34.0804038,44.9711924],[34.0801616,44.9712986],[34.0799754,44.9713988],[34.0798784,44.9714491],[34.0796433,44.9715654],[34.0793727,44.9716877],[34.0791,44.9717565],[34.0788575,44.9717901],[34.0787069,44.9718009],[34.0786094,44.9718015],[34.0785164,44.9717895],[34.0784041,44.9717642]]}},
{"type":"Feature","properties":{"@id":"way/36781533","highway":"primary","oneway":"yes","surface":"asphalt"},"geometry":{"type":"LineString","coordinates":[[34.0801444,44.9681221],[34.0805026,44.9682045],[34.0806543,44.9682394],[34.0808338,44.9682814],[34.0818632,44.9685222],[34.0830002,44.968795]]}},
{"type":"Feature","properties":{"@id":"way/66318332","highway":"primary","oneway":"yes","surface":"asphalt"},"geometry":{"type":"LineString","coordinates":[[34.0728799,44.984461],[34.0729343,44.9843182],[34.072986,44.9841827],[34.073039,44.9840265],[34.0730792,44.9839063],[34.0731461,44.9836631],[34.0735599,44.9823953],[34.073807,44.9816994]]}},
{"type":"Feature","properties":{"@id":"way/66318350","highway":"primary","oneway":"yes","surface":"asphalt"},"geometry":{"type":"LineString","coordinates":[[34.0717633,44.9858558],[34.07191,44.9857299],[34.0719876,44.9856539],[34.0721518,44.9854947],[34.0723764,44.9852488],[34.0724889,44.9851088],[34.0726966,44.9847999],[34.0727386,44.9847228]]}},
{"type":"Feature","properties":{"@id":"way/66318353","highway":"primary","oneway":"yes","surface":"asphalt"},"geometry":{"type":"LineString","coordinates":[[34.0741345,44.9809269],[34.0741384,44.9810613],[34.07404,44.9814669],[34.0739594,44.9817993]]}},
{"type":"Feature","properties":{"@id":"way/87024084","highway":"primary","oneway":"yes","surface":"asphalt"},"geometry":{"type":"LineString","coordinates":[[34.0718529,44.9860291],[34.071255,44.9864766],[34.070916,44.9866962],[34.0699776,44.9873374],[34.0693005,44.9878001],[34.0676263,44.9889966],[34.0668633,44.9895418],[34.0659579,44.9902004],[34.0657455,44.9903469],[34.0653147,44.9906539],[34.0607687,44.9938935],[34.0606133,44.9940043],[34.0594722,44.9948261],[34.0592879,44.994961],[34.0588317,44.9952948],[34.0579873,44.9959108],[34.0574168,44.9963129]]}},
{"type":"Feature","properties":{"@id":"way/132128827","highway":"primary","oneway":"yes","surface":"asphalt"},"geometry":{"type":"LineString","coordinates":[[34.0573175,44.9962333],[34.0587548,44.9951694],[34.0594039,44.9947112],[34.0607249,44.993761],[34.0616666,44.9930776],[34.0620285,44.992815],[34.0641368,44.9913047],[34.0655546,44.9902772],[34.0656384,44.9902263],[34.066226,44.9898062],[34.0667246,44.9894498],[34.0674813,44.9889022],[34.0681234,44.9884643],[34.0691671,44.9877047],[34.069468,44.9874957],[34.0704462,44.9868161],[34.070912,44.9864828],[34.0716552,44.9859429],[34.0717633,44.9858558]]}},
{"type":"Feature","properties":{"@id":"way/306122088","highway":"primary","oneway":"yes","surface":"asphalt"},"geometry":{"type":"LineString","coordinates":[[34.0738412,44.9824808],[34.0733057,44.9840587],[34.0732249,44.9842616],[34.0731427,44.9844492],[34.073108,44.9845414],[34.073099,44.9845644],[34.072953,44.9848411]]}},
{"type":"Feature","properties":{"@id":"way/306122090","highway":"primary","oneway":"yes","surface":"asphalt"},"geometry":{"type":"LineString","coordinates":[[34.073807,44.9816994],[34.0739313,44.9813492],[34.0740387,44.9810468],[34.0741345,44.9809269]]}},
{"type":"Feature","properties":{"@id":"way/392619331","highway":"primary","oneway":null,"surface":"asphalt"},"geometry":{"type":"LineString","coordinates":[[34.0801444,44.9681221],[34.0799533,44.9685221]]}},
{"type":"Feature","properties":{"@id":"way/403583259","highway":"primary","oneway":"yes","surface":"asphalt"},"geometry":{"type":"LineString","coordinates":[[34.0724027,44.9855363],[34.072172,44.9857428],[34.0718529,44.9860291]]}},
{"type":"Feature","properties":{"@id":"way/636036661","highway":"primary","oneway":"no","surface":"asphalt"},"geometry":{"type":"LineString","coordinates":[[34.0842278,44.9669528],[34.0843163,44.9667564],[34.0843671,44.9666395],[34.0844432,44.9664631],[34.0845818,44.9662139],[34.0847088,44.9660704],[34.084857,44.9659413],[34.0849784,44.9658683],[34.0855541,44.9655573]]}},
{"type":"Feature","properties":{"@id":"way/636036663","highway":"primary","oneway":"no","surface":"asphalt"},"geometry":{"type":"LineString","coordinates":[[34.0855541,44.9655573],[34.0860816,44.9652284]]}},
{"type":"Feature","properties":{"@id":"way/636036666","highway":"primary","oneway":"yes","surface":"asphalt"},"geometry":{"type":"LineString","coordinates":[[34.0830002,44.968795],[34.0832724,44.9688616]]}},
{"type":"Feature","properties":{"@id":"way/694636638","highway":"primary","oneway":null,"surface":"asphalt"},"geometry":{"type":"LineString","coordinates":[[34.0793513,44.969782],[34.0792568,44.9699798]]}},
{"type":"Feature","properties":{"@id":"way/694636715","highway":"primary","oneway":null,"surface":"asphalt"},"geometry":{"type":"LineString","coordinates":[[34.0783143,44.971952],[34.0782346,44.9721188],[34.0780392,44.9725278],[34.0779733,44.9726657],[34.0778347,44.9729558],[34.0775572,44.9735365],[34.0767437,44.9752387],[34.0764881,44.9757735],[34.0762332,44.976307],[34.0760853,44.9766165]]}},
{"type":"Feature","properties":{"@id":"way/694636716","highway":"primary","oneway":null,"surface":"asphalt"},"geometry":{"type":"LineString","coordinates":[[34.0784041,44.9717642],[34.0783143,44.971952]]}},
{"type":"Feature","properties":{"@id":"way/694636738","highway":"primary","oneway":null,"surface":"asphalt"},"geometry":{"type":"LineString","coordinates":[[34.078801,44.9709335],[34.0787597,44.9710199],[34.0784041,44.9717642]]}},
{"type":"Feature","properties":{"@id":"way/694637546","highway":"primary","oneway":"yes","surface":"asphalt"},"geometry":{"type":"LineString","coordinates":[[34.088909,44.9659857],[34.0889097,44.9659862]]}},
{"type":"Feature","properties":{"@id":"way/701317701","highway":"primary","oneway":null,"surface":"asphalt"},"geometry":{"type":"LineString","coordinates":[[34.0797111,44.969029],[34.0795126,44.9694444]]}},
{"type":"Feature","properties":{"@id":"way/947192130","highway":"primary","oneway":"yes","surface":"asphalt"},"geometry":{"type":"LineString","coordinates":[[34.0727386,44.9847228],[34.0728062,44.9846003],[34.0728551,44.9845099],[34.0728799,44.984461]]}},
{"type":"Feature","properties":{"@id":"way/952313555","highway":"primary","oneway":"no","surface":"asphalt"},"geometry":{"type":"LineString","coordinates":[[34.0832724,44.9688616],[34.08345,44.9685136],[34.0836118,44.9681965]]}},
{"type":"Feature","properties":{"@id":"way/952313556","highway":"primary","oneway":null,"surface":"asphalt"},"geometry":{"type":"LineString","coordinates":[[34.0795126,44.9694444],[34.0794508,44.9695737],[34.0793513,44.969782]]}},
{"type":"Feature","properties":{"@id":"way/952313557","highway":"primary","oneway":"no","surface":"asphalt"},"geometry":{"type":"LineString","coordinates":[[34.0836118,44.9681965],[34.0838931,44.9676127],[34.0839413,44.9675127],[34.0840995,44.9672035],[34.0842278,44.9669528]]}},
{"type":"Feature","properties":{"@id":"way/953491854","highway":"primary","oneway":null,"surface":"asphalt"},"geometry":{"type":"LineString","coordinates":[[34.0755177,44.9777795],[34.0754727,44.9778754],[34.0753983,44.9780338],[34.0752392,44.9783725],[34.0752219,44.9784093]]}},
{"type":"Feature","properties":{"@id":"way/953491855","highway":"primary","oneway":null,"surface":"asphalt"},"geometry":{"type":"LineString","coordinates":[[34.0757691,44.977278],[34.0755177,44.9777795]]}},
{"type":"Feature","properties":{"@id":"way/1046166570","highway":"primary","oneway":null,"surface":"asphalt"},"geometry":{"type":"LineString","coordinates":[[34.0760853,44.9766165],[34.0757691,44.977278]]}},
{"type":"Feature","properties":{"@id":"way/1071081227","highway":"primary","oneway":null,"surface":"asphalt"},"geometry":{"type":"LineString","coordinates":[[34.0792568,44.9699798],[34.0790248,44.9704652],[34.078801,44.9709335]]}},
{"type":"Feature","properties":{"@id":"way/1132277520","highway":"primary","oneway":null,"surface":"asphalt"},"geometry":{"type":"LineString","coordinates":[[34.0799533,44.9685221],[34.0798975,44.9686388],[34.0797111,44.969029]]}},
{"type":"Feature","properties":{"@id":"way/1158443285","highway":"primary","oneway":"yes","surface":"asphalt"},"geometry":{"type":"LineString","coordinates":[[34.0888326,44.9660288],[34.0888322,44.9660284]]}},
{"type":"Feature","properties":{"@id":"way/1500732868","highway":"primary","oneway":"yes","surface":"asphalt"},"geometry":{"type":"LineString","coordinates":[[34.0739594,44.9817993],[34.0739095,44.9820051],[34.0738412,44.9824808]]}},
{"type":"Feature","properties":{"@id":"way/1500732869","highway":"primary","oneway":"yes","surface":"asphalt"},"geometry":{"type":"LineString","coordinates":[[34.072953,44.9848411],[34.0728974,44.9849281],[34.0727434,44.9851389],[34.0724027,44.9855363]]}},
{"type":"Feature","properties":{"@id":"way/1507711573","highway":"primary","oneway":null,"surface":"asphalt"},"geometry":{"type":"LineString","coordinates":[[34.0752219,44.9784093],[34.075002,44.9788774],[34.0743438,44.9802787],[34.074205,44.9806167],[34.0741345,44.9809269]]}}
]
}
