{
"type": "FeatureCollection",
"name": "route_1",
"xy_coordinate_resolution": 1e-07,
"features": [
{"type":"Feature","properties":{"@id":"way/24732276","highway":"primary","oneway":null,"surface":"asphalt"},"geometry":{"type":"LineString","coordinates":[[34.0913358,44.9364633],[34.0910862,44.9361858]]}},
{"type":"Feature","properties":{"@id":"way/28133122","highway":"primary","oneway":"yes","surface":"asphalt"},"geometry":{"type":"LineString","coordinates":[[34.1012811,44.9498605],[34.1007492,44.9494334],[34.1003352,44.9491009],[34.1001004,44.9489127],[34.1000404,44.9488646],[34.0996707,44.9485605]]}},
{"type":"Feature","properties":{"@id":"way/36651992","highway":"primary","oneway":null,"surface":"asphalt"},"geometry":{"type":"LineString","coordinates":[[34.1031202,44.9537467],[34.1029699,44.9534228]]}},
{"type":"Feature","properties":{"@id":"way/39188412","highway":"primary","oneway":"yes","surface":"asphalt"},"geometry":{"type":"LineString","coordinates":[[34.1360134,44.974607],[34.1359651,44.9744844],[34.1358953,44.9743779],[34.1352016,44.973787],[34.1349899,44.9736152],[34.1347558,44.9734252]]}},
{"type":"Feature","properties":{"@id":"way/60961486","highway":"primary","oneway":"yes","surface":"asphalt"},"geometry":{"type":"LineString","coordinates":[[34.0943375,44.9446415],[34.0942381,44.9446506],[34.0941422,44.944643]]}},
{"type":"Feature","properties":{"@id":"way/71660558","highway":"primary_link","oneway":"no","surface":"asphalt"},"geometry":{"type":"LineString","coordinates":[[34.1174097,44.9612192],[34.1173143,44.9613493]]}},
{"type":"Feature","properties":{"@id":"way/76157024","highway":"primary","oneway":null,"surface":"asphalt"},"geometry":{"type":"LineString","coordinates":[[34.1012811,44.9498605],[34.10164,44.9505945]]}},
{"type":"Feature","properties":{"@id":"way/76157027","highway":"primary","oneway":"yes","surface":"asphalt"},"geometry":{"type":"LineString","coordinates":[[34.0959318,44.9416306],[34.0960186,44.9417306],[34.0961445,44.9418745],[34.0963976,44.9421644],[34.0965333,44.9423152],[34.0967191,44.9425231],[34.0972954,44.943172]]}},
{"type":"Feature","properties":{"@id":"way/76157029","highway":"primary","oneway":"yes","surface":"asphalt"},"geometry":{"type":"LineString","coordinates":[[34.0939684,44.9440192],[34.0941905,44.9437455],[34.0945518,44.9433109],[34.0948027,44.9430091],[34.0951345,44.9426373]]}},
{"type":"Feature","properties":{"@id":"way/76157031","highway":"primary","oneway":null,"surface":"asphalt"},"geometry":{"type":"LineString","coordinates":[[34.0959318,44.9416306],[34.0957882,44.9417671],[34.0951345,44.9426373]]}},
{"type":"Feature","properties":{"@id":"way/77190592","highway":"primary","oneway":"yes","surface":"asphalt"},"geometry":{"type":"LineString","coordinates":[[34.1173143,44.9613493],[34.1166296,44.9611386],[34.116404,44.9610692],[34.1155545,44.9607916],[34.1152499,44.9606892]]}},
{"type":"Feature","properties":{"@id":"way/94930016","highway":"primary","oneway":"no","surface":"asphalt"},"geometry":{"type":"LineString","coordinates":[[34.0972954,44.943172],[34.0975985,44.9435056]]}},
{"type":"Feature","properties":{"@id":"way/94930019","highway":"primary","oneway":"yes","surface":"asphalt"},"geometry":{"type":"LineString","coordinates":[[34.098712,44.9447848],[34.0988694,44.9450076],[34.0988998,44.9450652],[34.099555,44.9462998],[34.099633,44.9464383]]}},
{"type":"Feature","properties":{"@id":"way/95383657","highway":"primary","oneway":null,"surface":"asphalt"},"geometry":{"type":"LineString","coordinates":[[34.1031202,44.9537467],[34.1033617,44.9542096]]}},
{"type":"Feature","properties":{"@id":"way/95775491","highway":"primary","oneway":null,"surface":"asphalt"},"geometry":{"type":"LineString","coordinates":[[34.0913358,44.9364633],[34.0917344,44.9369458]]}},
{"type":"Feature","properties":{"@id":"way/95775492","highway":"primary","oneway":null,"surface":"asphalt"},"geometry":{"type":"LineString","coordinates":[[34.0935624,44.9389958],[34.0936542,44.9391071],[34.093822,44.939301]]}},
{"type":"Feature","properties":{"@id":"way/97508014","highway":"primary","oneway":"yes","surface":"asphalt"},"geometry":{"type":"LineString","coordinates":[[34.1285334,44.9680076],[34.1285376,44.9680624],[34.1285281,44.9681071],[34.1284952,44.9681386],[34.1284573,44.9681523],[34.1284154,44.9681554],[34.128356,44.9681543],[34.1282912,44.9681408]]}},
{"type":"Feature","properties":{"@id":"way/97508019","highway":"primary_link","oneway":"yes","surface":"asphalt"},"geometry":{"type":"LineString","coordinates":[[34.1211915,44.9624208],[34.1212455,44.9624618],[34.1212692,44.9624907],[34.1212714,44.9625103],[34.1212614,44.962529],[34.1212346,44.9625429],[34.1211786,44.962557],[34.1210952,44.9625617]]}},
{"type":"Feature","properties":{"@id":"way/97508025","highway":"primary_link","oneway":null,"surface":"asphalt"},"geometry":{"type":"LineString","coordinates":[[34.1152499,44.9606892],[34.1153427,44.9605607]]}},
{"type":"Feature","properties":{"@id":"way/97508691","highway":"primary","oneway":"yes","surface":"asphalt"},"geometry":{"type":"LineString","coordinates":[[34.1347558,44.9734252],[34.133569,44.9724223],[34.1323762,44.971483]]}},
{"type":"Feature","properties":{"@id":"way/97508692","highway":"primary","oneway":"yes","surface":"asphalt"},"geometry":{"type":"LineString","coordinates":[[34.1108405,44.9589139],[34.1105159,44.9587287],[34.1104481,44.9587056],[34.1103935,44.9586979],[34.1103368,44.9586975],[34.1102625,44.958709],[34.1102033,44.9587178]]}},
{"type":"Feature","properties":{"@id":"way/97509100","highway":"primary","oneway":"yes","surface":"asphalt"},"geometry":{"type":"LineString","coordinates":[[34.1373553,44.9754532],[34.1372077,44.9754009],[34.1370981,44.9753668],[34.1369952,44.9753542],[34.1368686,44.9753528]]}},
{"type":"Feature","properties":{"@id":"way/97837393","highway":"primary","oneway":"yes","surface":"asphalt"},"geometry":{"type":"LineString","coordinates":[[34.1254541,44.964985],[34.1252505,44.9647863]]}},
{"type":"Feature","properties":{"@id":"way/97837395","highway":"primary","oneway":"yes","surface":"asphalt"},"geometry":{"type":"LineString","coordinates":[[34.1252505,44.9647863],[34.1246272,44.9642163],[34.1242831,44.9639481],[34.1239946,44.9637441],[34.1233927,44.9634051],[34.1229144,44.9631914],[34.1225649,44.9630476]]}},
{"type":"Feature","properties":{"@id":"way/97837396","highway":"primary","oneway":"yes","surface":"asphalt"},"geometry":{"type":"LineString","coordinates":[[34.1255984,44.9649148],[34.1260517,44.9653762],[34.1261339,44.9654467],[34.1263708,44.96567],[34.1265295,44.9658435],[34.1266964,44.965998],[34.1268602,44.9661968],[34.1270006,44.9663914],[34.1272045,44.9666997],[34.1272706,44.9667932],[34.1273905,44.9669444],[34.1275244,44.9670965],[34.1277384,44.9673157],[34.1278969,44.9674576],[34.1280554,44.9675905],[34.1285334,44.9680076],[34.1289572,44.9683736],[34.1291494,44.9685345],[34.129735,44.9690248],[34.1311358,44.9701305],[34.1319078,44.9707808],[34.1321369,44.9709738],[34.1321483,44.9709837],[34.1323682,44.9711738]]}},
{"type":"Feature","properties":{"@id":"way/97837397","highway":"primary","oneway":"yes","surface":"asphalt"},"geometry":{"type":"LineString","coordinates":[[34.1253858,44.9647069],[34.1255984,44.9649148]]}},
{"type":"Feature","properties":{"@id":"way/107269782","highway":"primary","oneway":"yes","surface":"asphalt"},"geometry":{"type":"LineString","coordinates":[[34.1174097,44.9612192],[34.1188076,44.9616657],[34.1188913,44.9616911],[34.1202994,44.9621384],[34.1205132,44.9622024],[34.1211915,44.9624208],[34.121985,44.9626695],[34.1220942,44.9627037],[34.1226553,44.9628792]]}},
{"type":"Feature","properties":{"@id":"way/125759860","highway":"primary","oneway":"yes","surface":"asphalt"},"geometry":{"type":"LineString","coordinates":[[34.0966028,44.9461406],[34.0965288,44.9460842],[34.0961869,44.9458234],[34.0958638,44.9455768],[34.0951152,44.9450056]]}},
{"type":"Feature","properties":{"@id":"way/125759861","highway":"primary","oneway":"yes","surface":"asphalt"},"geometry":{"type":"LineString","coordinates":[[34.0996707,44.9485605],[34.0992167,44.9481871],[34.0988288,44.947868],[34.0985637,44.9476746],[34.0981782,44.9473942],[34.0980739,44.9473183]]}},
{"type":"Feature","properties":{"@id":"way/127854308","highway":"primary","oneway":"yes","surface":"asphalt"},"geometry":{"type":"LineString","coordinates":[[34.1003025,44.947499],[34.1007396,44.9478557],[34.100827,44.9479302],[34.1019852,44.948873]]}},
{"type":"Feature","properties":{"@id":"way/127854309","highway":"primary","oneway":null,"surface":"asphalt"},"geometry":{"type":"LineString","coordinates":[[34.099633,44.9464383],[34.0997136,44.946568],[34.0998919,44.9468552],[34.100103,44.9472555],[34.1002205,44.9474068],[34.1003025,44.947499]]}},
{"type":"Feature","properties":{"@id":"way/183987750","highway":"primary","oneway":"yes","surface":"asphalt"},"geometry":{"type":"LineString","coordinates":[[34.0946676,44.9444036],[34.0947552,44.9446721]]}},
{"type":"Feature","properties":{"@id":"way/183988490","highway":"primary","oneway":"yes","surface":"asphalt"},"geometry":{"type":"LineString","coordinates":[[34.0951345,44.9426373],[34.0950387,44.9430927],[34.0948111,44.943895]]}},
{"type":"Feature","properties":{"@id":"way/183988491","highway":"primary_link","oneway":"yes","surface":"asphalt"},"geometry":{"type":"LineString","coordinates":[[34.0948027,44.9430091],[34.0948738,44.9430063],[34.094942,44.9430208],[34.0949992,44.9430507],[34.0950387,44.9430927]]}},
{"type":"Feature","properties":{"@id":"way/184808334","highway":"primary","oneway":"yes","surface":"asphalt"},"geometry":{"type":"LineString","coordinates":[[34.0948111,44.943895],[34.0947901,44.9439725],[34.0947377,44.9441661]]}},
{"type":"Feature","properties":{"@id":"way/238081976","highway":"primary","oneway":null,"surface":"asphalt"},"geometry":{"type":"LineString","coordinates":[[34.1400792,44.9773607],[34.1404487,44.9775921]]}},
{"type":"Feature","properties":{"@id":"way/264416874","highway":"primary","oneway":"yes","surface":"asphalt"},"geometry":{"type":"LineString","coordinates":[[34.0939022,44.944099],[34.0939684,44.9440192]]}},
{"type":"Feature","properties":{"@id":"way/264416875","highway":"primary","oneway":"yes","surface":"asphalt"},"geometry":{"type":"LineString","coordinates":[[34.0938445,44.9442134],[34.0939022,44.944099]]}},
{"type":"Feature","properties":{"@id":"way/264416876","highway":"primary","oneway":"yes","surface":"asphalt"},"geometry":{"type":"LineString","coordinates":[[34.0946676,44.9444036],[34.0946053,44.9444896],[34.0945372,44.9445504],[34.0944466,44.9446059],[34.0943375,44.9446415]]}},
{"type":"Feature","properties":{"@id":"way/264416877","highway":"primary","oneway":"yes","surface":"asphalt"},"geometry":{"type":"LineString","coordinates":[[34.0947377,44.9441661],[34.0947182,44.9442781],[34.0946676,44.9444036]]}},
{"type":"Feature","properties":{"@id":"way/264416880","highway":"primary","oneway":"yes","surface":"asphalt"},"geometry":{"type":"LineString","coordinates":[[34.0941422,44.944643],[34.0940234,44.9445997],[34.0939199,44.9445144],[34.0938635,44.944429],[34.0938367,44.9443487],[34.0938358,44.9442624],[34.0938445,44.9442134]]}},
{"type":"Feature","properties":{"@id":"way/264416882","highway":"primary","oneway":"yes","surface":"asphalt"},"geometry":{"type":"LineString","coordinates":[[34.0939684,44.9440192],[34.0941701,44.9439098],[34.0942665,44.9438651],[34.0943684,44.9438529],[34.0944873,44.9438638],[34.0945962,44.9439111],[34.0946831,44.9440027],[34.0947377,44.9441661]]}},
{"type":"Feature","properties":{"@id":"way/264416885","highway":"primary","oneway":"yes","surface":"asphalt"},"geometry":{"type":"LineString","coordinates":[[34.0947931,44.9447598],[34.0943375,44.9446415]]}},
{"type":"Feature","properties":{"@id":"way/264416887","highway":"primary","oneway":null,"surface":"asphalt"},"geometry":{"type":"LineString","coordinates":[[34.1506858,44.9841153],[34.1509733,44.9843029],[34.1511833,44.9844394]]}},
{"type":"Feature","properties":{"@id":"way/264416888","highway":"primary","oneway":null,"surface":"asphalt"},"geometry":{"type":"LineString","coordinates":[[34.1442433,44.9799967],[34.1445615,44.980197],[34.1450135,44.9804816]]}},
{"type":"Feature","properties":{"@id":"way/264416895","highway":"primary","oneway":"yes","surface":"asphalt"},"geometry":{"type":"LineString","coordinates":[[34.1364233,44.9744047],[34.1364918,44.9743936],[34.1367086,44.9743952],[34.136904,44.9744379],[34.1370858,44.9745112],[34.1371633,44.9745542],[34.1372192,44.9746112],[34.1372873,44.9747015],[34.1373251,44.9748123],[34.1373288,44.9748661],[34.1373261,44.9749232],[34.1373028,44.9750176],[34.1372705,44.9750805],[34.1372276,44.9751401]]}},
{"type":"Feature","properties":{"@id":"way/264416904","highway":"primary","oneway":"yes","surface":"asphalt"},"geometry":{"type":"LineString","coordinates":[[34.1021549,44.9519969],[34.102227,44.9519374],[34.1023198,44.9518944],[34.1024257,44.9518715],[34.1025365,44.9518704],[34.1026433,44.9518912]]}},
{"type":"Feature","properties":{"@id":"way/264416905","highway":"primary","oneway":"yes","surface":"asphalt"},"geometry":{"type":"LineString","coordinates":[[34.1100743,44.9587408],[34.109968,44.9587425],[34.1098633,44.9587292],[34.1097846,44.958712],[34.1097007,44.958673],[34.1095992,44.958608],[34.1095394,44.9585458],[34.109505,44.9584869]]}},
{"type":"Feature","properties":{"@id":"way/301402107","highway":"primary","oneway":"yes","surface":"asphalt"},"geometry":{"type":"LineString","coordinates":[[34.1321499,44.9713048],[34.1319164,44.9711204],[34.1316024,44.9708724],[34.1308939,44.9703127],[34.1301041,44.9696362],[34.1294704,44.9690934],[34.1287145,44.9685032],[34.1286112,44.9684148],[34.1282912,44.9681408],[34.1281138,44.9679956],[34.127882,44.9677866],[34.1275461,44.9674973],[34.1273097,44.9672761],[34.1271126,44.9670387],[34.1270225,44.9669168],[34.1268227,44.9666563],[34.1262781,44.9658609],[34.1261233,44.9656595],[34.1259067,44.9654391],[34.1255709,44.9651022],[34.1254541,44.964985]]}},
{"type":"Feature","properties":{"@id":"way/301402108","highway":"primary","oneway":null,"surface":"asphalt"},"geometry":{"type":"LineString","coordinates":[[34.1321499,44.9713048],[34.1323682,44.9711738]]}},
{"type":"Feature","properties":{"@id":"way/301402119","highway":"primary","oneway":"yes","surface":"asphalt"},"geometry":{"type":"LineString","coordinates":[[34.0980739,44.9473183],[34.098005,44.9472632],[34.0973764,44.94676],[34.0967168,44.9462319],[34.0966028,44.9461406]]}},
{"type":"Feature","properties":{"@id":"way/373323004","highway":"primary","oneway":null,"surface":"asphalt"},"geometry":{"type":"LineString","coordinates":[[34.10164,44.9505945],[34.101969,44.9512354],[34.1019899,44.9512774]]}},
{"type":"Feature","properties":{"@id":"way/386251934","highway":"primary","oneway":"yes","surface":"asphalt"},"geometry":{"type":"LineString","coordinates":[[34.1323682,44.9711738],[34.1325853,44.9713572],[34.1334313,44.9720723],[34.1345239,44.9730188],[34.1354217,44.9737681],[34.1356606,44.9739709],[34.1359554,44.9742113],[34.1361139,44.9743034],[34.136258,44.9743616],[34.1364233,44.9744047]]}},
{"type":"Feature","properties":{"@id":"way/401537444","highway":"primary","oneway":null,"surface":"asphalt"},"geometry":{"type":"LineString","coordinates":[[34.1495563,44.983382],[34.14981,44.9835469]]}},
{"type":"Feature","properties":{"@id":"way/401537446","highway":"primary","oneway":null,"surface":"asphalt"},"geometry":{"type":"LineString","coordinates":[[34.1474189,44.982007],[34.1477041,44.9821869]]}},
{"type":"Feature","properties":{"@id":"way/405462407","highway":"primary","oneway":null,"surface":"asphalt"},"geometry":{"type":"LineString","coordinates":[[34.0797465,44.921752],[34.0796641,44.9216878]]}},
{"type":"Feature","properties":{"@id":"way/411346162","highway":"primary","oneway":null,"surface":"asphalt"},"geometry":{"type":"LineString","coordinates":[[34.0945666,44.9401464],[34.0946348,44.9402215]]}},
{"type":"Feature","properties":{"@id":"way/411579413","highway":"primary","oneway":null,"surface":"asphalt"},"geometry":{"type":"LineString","coordinates":[[34.1038242,44.95496],[34.1037549,44.9548693]]}},
{"type":"Feature","properties":{"@id":"way/437250407","highway":"primary","oneway":null,"surface":"asphalt"},"geometry":{"type":"LineString","coordinates":[[34.1375364,44.9756094],[34.1378222,44.9758562]]}},
{"type":"Feature","properties":{"@id":"way/448494103","highway":"primary","oneway":null,"surface":"asphalt"},"geometry":{"type":"LineString","coordinates":[[34.104624,44.9557486],[34.1045481,44.955686],[34.1043135,44.9554977],[34.1040496,44.9552365],[34.1038242,44.95496]]}},
{"type":"Feature","properties":{"@id":"way/449029053","highway":"primary","oneway":null,"surface":"asphalt"},"geometry":{"type":"LineString","coordinates":[[34.1456855,44.9809104],[34.1458975,44.9810435],[34.1459917,44.9811026],[34.14613,44.9811895]]}},
{"type":"Feature","properties":{"@id":"way/455680980","highway":"primary","oneway":null,"surface":"asphalt"},"geometry":{"type":"LineString","coordinates":[[34.1074516,44.9571401],[34.1060811,44.9564669]]}},
{"type":"Feature","properties":{"@id":"way/456284467","highway":"primary","oneway":"no","surface":"asphalt"},"geometry":{"type":"LineString","coordinates":[[34.1373553,44.9754532],[34.1375012,44.9755815]]}},
{"type":"Feature","properties":{"@id":"way/456284468","highway":"primary","oneway":"yes","surface":"asphalt"},"geometry":{"type":"LineString","coordinates":[[34.1372276,44.9751401],[34.1372332,44.9752171],[34.1372469,44.9752792],[34.1372775,44.9753444],[34.137304,44.9753919],[34.1373553,44.9754532]]}},
{"type":"Feature","properties":{"@id":"way/471573487","highway":"primary","oneway":"yes","surface":"asphalt"},"geometry":{"type":"LineString","coordinates":[[34.1026006,44.9527437],[34.1025897,44.952729],[34.102498,44.952605],[34.102424,44.9525],[34.1023118,44.952396]]}},
{"type":"Feature","properties":{"@id":"way/471573493","highway":"primary","oneway":"yes","surface":"asphalt"},"geometry":{"type":"LineString","coordinates":[[34.1021332,44.9515655],[34.1022766,44.9516791],[34.1023944,44.9517496],[34.1026433,44.9518912]]}},
{"type":"Feature","properties":{"@id":"way/471573496","highway":"primary","oneway":"yes","surface":"asphalt"},"geometry":{"type":"LineString","coordinates":[[34.1021549,44.9519969],[34.1021829,44.951791],[34.1021332,44.9515655]]}},
{"type":"Feature","properties":{"@id":"way/471642075","highway":"primary","oneway":"yes","surface":"asphalt"},"geometry":{"type":"LineString","coordinates":[[34.1026985,44.9523812],[34.1026306,44.9524875],[34.1026105,44.9525795],[34.1026043,44.9526653],[34.1026006,44.9527437]]}},
{"type":"Feature","properties":{"@id":"way/473611577","highway":"primary","oneway":"yes","surface":"asphalt"},"geometry":{"type":"LineString","coordinates":[[34.1094904,44.9584449],[34.1094753,44.9583473],[34.1094954,44.9582611],[34.1095428,44.9581805],[34.1096152,44.9581097],[34.1097086,44.9580526],[34.109818,44.9580121],[34.1099229,44.9579886]]}},
{"type":"Feature","properties":{"@id":"way/473611579","highway":"primary","oneway":"yes","surface":"asphalt"},"geometry":{"type":"LineString","coordinates":[[34.1105483,44.9584096],[34.1105317,44.9585242],[34.11054,44.9585975],[34.1105745,44.9586448],[34.1106378,44.9586998],[34.1107987,44.9588054],[34.1111642,44.9589913],[34.1117307,44.9592794]]}},
{"type":"Feature","properties":{"@id":"way/473611580","highway":"primary","oneway":"yes","surface":"asphalt"},"geometry":{"type":"LineString","coordinates":[[34.1092003,44.9579772],[34.1093714,44.9580312],[34.1095877,44.9580493],[34.1099229,44.9579886]]}},
{"type":"Feature","properties":{"@id":"way/473611581","highway":"primary","oneway":null,"surface":"asphalt"},"geometry":{"type":"LineString","coordinates":[[34.1092003,44.9579772],[34.1078182,44.9573156],[34.1074516,44.9571401]]}},
{"type":"Feature","properties":{"@id":"way/473611582","highway":"primary","oneway":"yes","surface":"asphalt"},"geometry":{"type":"LineString","coordinates":[[34.1094904,44.9584449],[34.1094132,44.9582302],[34.1092746,44.9580449],[34.1092003,44.9579772]]}},
{"type":"Feature","properties":{"@id":"way/473611586","highway":"primary","oneway":"yes","surface":"asphalt"},"geometry":{"type":"LineString","coordinates":[[34.1105483,44.9584096],[34.110525,44.958478],[34.1105069,44.9585254],[34.110466,44.9585764],[34.1104098,44.9586158],[34.1103489,44.9586574],[34.1102795,44.9586917],[34.1102033,44.9587178]]}},
{"type":"Feature","properties":{"@id":"way/473615352","highway":"primary","oneway":"yes","surface":"asphalt"},"geometry":{"type":"LineString","coordinates":[[34.1026985,44.9523812],[34.1026071,44.9524116],[34.1025079,44.9524246],[34.1024073,44.9524193],[34.1023118,44.952396]]}},
{"type":"Feature","properties":{"@id":"way/502672753","highway":"primary","oneway":null,"surface":"asphalt"},"geometry":{"type":"LineString","coordinates":[[34.0930539,44.93844],[34.0931977,44.9385952]]}},
{"type":"Feature","properties":{"@id":"way/503826182","highway":"primary","oneway":"yes","surface":"asphalt"},"geometry":{"type":"LineString","coordinates":[[34.1323762,44.971483],[34.1321499,44.9713048]]}},
{"type":"Feature","properties":{"@id":"way/505215298","highway":"primary","oneway":null,"surface":"asphalt"},"geometry":{"type":"LineString","coordinates":[[34.1027401,44.9530088],[34.1026006,44.9527437]]}},
{"type":"Feature","properties":{"@id":"way/508518939","highway":"primary","oneway":"yes","surface":"asphalt"},"geometry":{"type":"LineString","coordinates":[[34.1022067,44.9523422],[34.1021482,44.9522885],[34.1021097,44.9522263],[34.1020937,44.9521594],[34.102101,44.9520917],[34.1021312,44.9520273]]}},
{"type":"Feature","properties":{"@id":"way/508518940","highway":"primary","oneway":"yes","surface":"asphalt"},"geometry":{"type":"LineString","coordinates":[[34.1100184,44.9579871],[34.1101413,44.9579988],[34.1102572,44.9580302],[34.1103596,44.9580797],[34.1104432,44.9581445],[34.1105129,44.9582222]]}},
{"type":"Feature","properties":{"@id":"way/627584058","highway":"primary","oneway":"yes","surface":"asphalt"},"geometry":{"type":"LineString","coordinates":[[34.1021312,44.9520273],[34.1021549,44.9519969]]}},
{"type":"Feature","properties":{"@id":"way/627584059","highway":"primary","oneway":"yes","surface":"asphalt"},"geometry":{"type":"LineString","coordinates":[[34.1102033,44.9587178],[34.110117,44.9587335],[34.1100743,44.9587408]]}},
{"type":"Feature","properties":{"@id":"way/627584060","highway":"primary","oneway":"yes","surface":"asphalt"},"geometry":{"type":"LineString","coordinates":[[34.1105129,44.9582222],[34.1105363,44.9582893],[34.1105492,44.9583491],[34.1105483,44.9584096]]}},
{"type":"Feature","properties":{"@id":"way/627584061","highway":"primary","oneway":"yes","surface":"asphalt"},"geometry":{"type":"LineString","coordinates":[[34.109505,44.9584869],[34.1094904,44.9584449]]}},
{"type":"Feature","properties":{"@id":"way/627584064","highway":"primary","oneway":"yes","surface":"asphalt"},"geometry":{"type":"LineString","coordinates":[[34.1023118,44.952396],[34.1022561,44.9523722],[34.1022067,44.9523422]]}},
{"type":"Feature","properties":{"@id":"way/627584065","highway":"primary","oneway":"yes","surface":"asphalt"},"geometry":{"type":"LineString","coordinates":[[34.1028138,44.9523012],[34.102762,44.9523455],[34.1026985,44.9523812]]}},
{"type":"Feature","properties":{"@id":"way/627584066","highway":"primary","oneway":"yes","surface":"asphalt"},"geometry":{"type":"LineString","coordinates":[[34.1026433,44.9518912],[34.1027081,44.9519164],[34.1027651,44.9519499]]}},
{"type":"Feature","properties":{"@id":"way/627584067","highway":"primary","oneway":"yes","surface":"asphalt"},"geometry":{"type":"LineString","coordinates":[[34.1028799,44.9521379],[34.1028741,44.9521952],[34.1028517,44.9522504],[34.1028138,44.9523012]]}},
{"type":"Feature","properties":{"@id":"way/627584068","highway":"primary","oneway":"yes","surface":"asphalt"},"geometry":{"type":"LineString","coordinates":[[34.1099229,44.9579886],[34.1100184,44.9579871]]}},
{"type":"Feature","properties":{"@id":"way/627584070","highway":"primary","oneway":"yes","surface":"asphalt"},"geometry":{"type":"LineString","coordinates":[[34.1368686,44.9753528],[34.1367346,44.9753734],[34.1366797,44.9753791],[34.1366059,44.9753829],[34.1365192,44.975379],[34.1363742,44.9753591],[34.1362943,44.9753384],[34.1362237,44.9753103],[34.1361249,44.9752593],[34.1360237,44.9751867]]}},
{"type":"Feature","properties":{"@id":"way/627584071","highway":"primary","oneway":"yes","surface":"asphalt"},"geometry":{"type":"LineString","coordinates":[[34.1372276,44.9751401],[34.1371491,44.9752094],[34.1370543,44.9752773],[34.1369432,44.9753312],[34.1368686,44.9753528]]}},
{"type":"Feature","properties":{"@id":"way/627584072","highway":"primary","oneway":"yes","surface":"asphalt"},"geometry":{"type":"LineString","coordinates":[[34.1360134,44.974607],[34.1361256,44.9745168],[34.1362649,44.9744481],[34.1364233,44.9744047]]}},
{"type":"Feature","properties":{"@id":"way/627584073","highway":"primary","oneway":"yes","surface":"asphalt"},"geometry":{"type":"LineString","coordinates":[[34.1358817,44.9749193],[34.1358917,44.9748391],[34.1359239,44.9747349],[34.1360134,44.974607]]}},
{"type":"Feature","properties":{"@id":"way/627584076","highway":"primary","oneway":"yes","surface":"asphalt"},"geometry":{"type":"LineString","coordinates":[[34.1027651,44.9519499],[34.1028122,44.9519902],[34.1028478,44.9520361],[34.1028707,44.952086],[34.1028799,44.9521379]]}},
{"type":"Feature","properties":{"@id":"way/679824596","highway":"primary_link","oneway":"yes","surface":"asphalt"},"geometry":{"type":"LineString","coordinates":[[34.1225649,44.9630476],[34.1224899,44.9629797],[34.1224615,44.9629523],[34.122464,44.9629193],[34.1224899,44.9628948],[34.1225551,44.9628829],[34.1226553,44.9628792]]}},
{"type":"Feature","properties":{"@id":"way/694638026","highway":"primary","oneway":"yes","surface":"asphalt"},"geometry":{"type":"LineString","coordinates":[[34.0951152,44.9450056],[34.0947931,44.9447598]]}},
{"type":"Feature","properties":{"@id":"way/694638274","highway":"primary","oneway":null,"surface":"asphalt"},"geometry":{"type":"LineString","coordinates":[[34.1060073,44.9564315],[34.104951,44.9559305],[34.1047194,44.9558067],[34.104624,44.9557486]]}},
{"type":"Feature","properties":{"@id":"way/694638347","highway":"primary","oneway":null,"surface":"asphalt"},"geometry":{"type":"LineString","coordinates":[[34.0869763,44.9305283],[34.0868525,44.9303527]]}},
{"type":"Feature","properties":{"@id":"way/694638348","highway":"primary","oneway":null,"surface":"asphalt"},"geometry":{"type":"LineString","coordinates":[[34.0868525,44.9303527],[34.0866772,44.9300922],[34.0865607,44.929919],[34.0865323,44.9298769],[34.0864898,44.9298172],[34.0863664,44.9296441],[34.0860401,44.9291861]]}},
{"type":"Feature","properties":{"@id":"way/694638359","highway":"primary","oneway":null,"surface":"asphalt"},"geometry":{"type":"LineString","coordinates":[[34.0815193,44.9232377],[34.0813343,44.9230841]]}},
{"type":"Feature","properties":{"@id":"way/700297771","highway":"primary","oneway":null,"surface":"asphalt"},"geometry":{"type":"LineString","coordinates":[[34.1035764,44.9546189],[34.1033617,44.9542096]]}},
{"type":"Feature","properties":{"@id":"way/708042817","highway":"primary","oneway":null,"surface":"asphalt"},"geometry":{"type":"LineString","coordinates":[[34.0725322,44.9157586],[34.0733812,44.916468],[34.0736547,44.9166965],[34.0737391,44.9167672],[34.0747159,44.9175794],[34.0748238,44.9176691],[34.0749261,44.917759],[34.0754328,44.9181824]]}},
{"type":"Feature","properties":{"@id":"way/708042818","highway":"primary","oneway":null,"surface":"asphalt"},"geometry":{"type":"LineString","coordinates":[[34.071837,44.9151778],[34.0721276,44.9154206],[34.0725322,44.9157586]]}},
{"type":"Feature","properties":{"@id":"way/718876209","highway":"primary","oneway":null,"surface":"asphalt"},"geometry":{"type":"LineString","coordinates":[[34.0888448,44.9331296],[34.0887336,44.933025]]}},
{"type":"Feature","properties":{"@id":"way/718876210","highway":"primary","oneway":null,"surface":"asphalt"},"geometry":{"type":"LineString","coordinates":[[34.0887336,44.933025],[34.087984,44.9319165]]}},
{"type":"Feature","properties":{"@id":"way/720117787","highway":"primary","oneway":null,"surface":"asphalt"},"geometry":{"type":"LineString","coordinates":[[34.0917344,44.9369458],[34.091763,44.9369714],[34.0923947,44.9376903],[34.0925534,44.9378752]]}},
{"type":"Feature","properties":{"@id":"way/721132316","highway":"primary","oneway":null,"surface":"asphalt"},"geometry":{"type":"LineString","coordinates":[[34.0925534,44.9378752],[34.0926835,44.938017]]}},
{"type":"Feature","properties":{"@id":"way/721132317","highway":"primary","oneway":null,"surface":"asphalt"},"geometry":{"type":"LineString","coordinates":[[34.0931977,44.9385952],[34.0934654,44.9388896],[34.0935057,44.9389325],[34.0935624,44.9389958]]}},
{"type":"Feature","properties":{"@id":"way/721132318","highway":"primary","oneway":null,"surface":"asphalt"},"geometry":{"type":"LineString","coordinates":[[34.093822,44.939301],[34.0940636,44.9395804]]}},
{"type":"Feature","properties":{"@id":"way/721132319","highway":"primary","oneway":null,"surface":"asphalt"},"geometry":{"type":"LineString","coordinates":[[34.0940636,44.9395804],[34.0945666,44.9401464]]}},
{"type":"Feature","properties":{"@id":"way/721132320","highway":"primary","oneway":null,"surface":"asphalt"},"geometry":{"type":"LineString","coordinates":[[34.0910862,44.9361858],[34.0901696,44.9350351]]}},
{"type":"Feature","properties":{"@id":"way/721132321","highway":"primary","oneway":null,"surface":"asphalt"},"geometry":{"type":"LineString","coordinates":[[34.0901696,44.9350351],[34.0901475,44.9350057],[34.0900413,44.934864],[34.0899336,44.9347136],[34.0897338,44.9344224],[34.08921,44.9336588]]}},
{"type":"Feature","properties":{"@id":"way/725101160","highway":"primary","oneway":null,"surface":"asphalt"},"geometry":{"type":"LineString","coordinates":[[34.0873936,44.9311307],[34.0869763,44.9305283]]}},
{"type":"Feature","properties":{"@id":"way/725286061","highway":"primary","oneway":"yes","surface":"asphalt"},"geometry":{"type":"LineString","coordinates":[[34.1019852,44.948873],[34.1019997,44.948908],[34.1019882,44.9489624],[34.1018871,44.949114]]}},
{"type":"Feature","properties":{"@id":"way/725286062","highway":"primary","oneway":"yes","surface":"asphalt"},"geometry":{"type":"LineString","coordinates":[[34.1018871,44.949114],[34.1013893,44.9497423],[34.1012811,44.9498605]]}},
{"type":"Feature","properties":{"@id":"way/734734050","highway":"primary","oneway":null,"surface":"asphalt"},"geometry":{"type":"LineString","coordinates":[[34.0809253,44.9227446],[34.079855,44.9218434],[34.0797465,44.921752]]}},
{"type":"Feature","properties":{"@id":"way/734737448","highway":"primary","oneway":null,"surface":"asphalt"},"geometry":{"type":"LineString","coordinates":[[34.1413994,44.9781651],[34.1414791,44.978211]]}},
{"type":"Feature","properties":{"@id":"way/734737449","highway":"primary","oneway":null,"surface":"asphalt"},"geometry":{"type":"LineString","coordinates":[[34.1414791,44.978211],[34.1421862,44.9786549]]}},
{"type":"Feature","properties":{"@id":"way/734737450","highway":"primary","oneway":null,"surface":"asphalt"},"geometry":{"type":"LineString","coordinates":[[34.1413446,44.9781313],[34.1413994,44.9781651]]}},
{"type":"Feature","properties":{"@id":"way/763101523","highway":"primary","oneway":null,"surface":"asphalt"},"geometry":{"type":"LineString","coordinates":[[34.081929,44.9236051],[34.0818837,44.9235645],[34.0815193,44.9232377]]}},
{"type":"Feature","properties":{"@id":"way/763101525","highway":"primary","oneway":null,"surface":"asphalt"},"geometry":{"type":"LineString","coordinates":[[34.078473,44.9207302],[34.0796641,44.9216878]]}},
{"type":"Feature","properties":{"@id":"way/782351344","highway":"primary","oneway":null,"surface":"asphalt"},"geometry":{"type":"LineString","coordinates":[[34.0754328,44.9181824],[34.0761208,44.9187573]]}},
{"type":"Feature","properties":{"@id":"way/782351345","highway":"primary","oneway":null,"surface":"asphalt"},"geometry":{"type":"LineString","coordinates":[[34.0762046,44.9188278],[34.0766417,44.9191927],[34.0768517,44.919368],[34.076994,44.9194869]]}},
{"type":"Feature","properties":{"@id":"way/782351346","highway":"primary","oneway":null,"surface":"asphalt"},"geometry":{"type":"LineString","coordinates":[[34.0761208,44.9187573],[34.0762046,44.9188278]]}},
{"type":"Feature","properties":{"@id":"way/782351349","highway":"primary","oneway":null,"surface":"asphalt"},"geometry":{"type":"LineString","coordinates":[[34.076994,44.9194869],[34.0773023,44.9197445],[34.0780487,44.920373],[34.0783416,44.9206196],[34.078473,44.9207302]]}},
{"type":"Feature","properties":{"@id":"way/808770630","highway":"primary","oneway":null,"surface":"asphalt"},"geometry":{"type":"LineString","coordinates":[[34.1060811,44.9564669],[34.1060073,44.9564315]]}},
{"type":"Feature","properties":{"@id":"way/810707802","highway":"primary","oneway":null,"surface":"asphalt"},"geometry":{"type":"LineString","coordinates":[[34.1381698,44.9761308],[34.1386344,44.9764452],[34.1392287,44.9768218],[34.1398366,44.977207],[34.1400792,44.9773607]]}},
{"type":"Feature","properties":{"@id":"way/810707803","highway":"primary","oneway":null,"surface":"asphalt"},"geometry":{"type":"LineString","coordinates":[[34.1380839,44.9760629],[34.1381698,44.9761308]]}},
{"type":"Feature","properties":{"@id":"way/810707804","highway":"primary","oneway":null,"surface":"asphalt"},"geometry":{"type":"LineString","coordinates":[[34.1410813,44.9779826],[34.1413446,44.9781313]]}},
{"type":"Feature","properties":{"@id":"way/816764106","highway":"primary","oneway":null,"surface":"asphalt"},"geometry":{"type":"LineString","coordinates":[[34.0813343,44.9230841],[34.0809253,44.9227446]]}},
{"type":"Feature","properties":{"@id":"way/817105372","highway":"primary","oneway":null,"surface":"asphalt"},"geometry":{"type":"LineString","coordinates":[[34.1037549,44.9548693],[34.1035764,44.9546189]]}},
{"type":"Feature","properties":{"@id":"way/820860947","highway":"primary","oneway":null,"surface":"asphalt"},"geometry":{"type":"LineString","coordinates":[[34.1029699,44.9534228],[34.1029213,44.9533352],[34.1027401,44.9530088]]}},
{"type":"Feature","properties":{"@id":"way/833889541","highway":"primary","oneway":null,"surface":"asphalt"},"geometry":{"type":"LineString","coordinates":[[34.1404487,44.9775921],[34.1407826,44.9778013]]}},
{"type":"Feature","properties":{"@id":"way/833889542","highway":"primary","oneway":"no","surface":"asphalt"},"geometry":{"type":"LineString","coordinates":[[34.1375012,44.9755815],[34.1375364,44.9756094]]}},
{"type":"Feature","properties":{"@id":"way/893877825","highway":"primary","oneway":null,"surface":"asphalt"},"geometry":{"type":"LineString","coordinates":[[34.1426873,44.9789684],[34.1433725,44.9794399],[34.1436989,44.9796441]]}},
{"type":"Feature","properties":{"@id":"way/905458582","highway":"primary","oneway":null,"surface":"asphalt"},"geometry":{"type":"LineString","coordinates":[[34.0926835,44.938017],[34.0930539,44.93844]]}},
{"type":"Feature","properties":{"@id":"way/916945972","highway":"primary","oneway":null,"surface":"asphalt"},"geometry":{"type":"LineString","coordinates":[[34.1463261,44.9813126],[34.1466201,44.981502],[34.1473349,44.9819539]]}},
{"type":"Feature","properties":{"@id":"way/916945973","highway":"primary","oneway":null,"surface":"asphalt"},"geometry":{"type":"LineString","coordinates":[[34.14613,44.9811895],[34.1463261,44.9813126]]}},
{"type":"Feature","properties":{"@id":"way/936526427","highway":"primary","oneway":"yes","surface":"asphalt"},"geometry":{"type":"LineString","coordinates":[[34.1203483,44.9623224],[34.1182798,44.9616538],[34.1173143,44.9613493]]}},
{"type":"Feature","properties":{"@id":"way/936527558","highway":"primary","oneway":"yes","surface":"asphalt"},"geometry":{"type":"LineString","coordinates":[[34.1117307,44.9592794],[34.1122072,44.9595002],[34.1124309,44.9595938],[34.112643,44.9596768],[34.1128383,44.95975],[34.1132825,44.9598879],[34.1141397,44.9601687],[34.1150028,44.9604535],[34.1153427,44.9605607]]}},
{"type":"Feature","properties":{"@id":"way/947193808","highway":"primary","oneway":null,"surface":"asphalt"},"geometry":{"type":"LineString","coordinates":[[34.1505257,44.9840116],[34.1506858,44.9841153]]}},
{"type":"Feature","properties":{"@id":"way/947193809","highway":"primary","oneway":null,"surface":"asphalt"},"geometry":{"type":"LineString","coordinates":[[34.14981,44.9835469],[34.1499767,44.9836551],[34.1503215,44.983879],[34.1505257,44.9840116]]}},
{"type":"Feature","properties":{"@id":"way/953792860","highway":"primary","oneway":null,"surface":"asphalt"},"geometry":{"type":"LineString","coordinates":[[34.1436989,44.9796441],[34.1442433,44.9799967]]}},
{"type":"Feature","properties":{"@id":"way/953792861","highway":"primary","oneway":null,"surface":"asphalt"},"geometry":{"type":"LineString","coordinates":[[34.1450135,44.9804816],[34.1456855,44.9809104]]}},
{"type":"Feature","properties":{"@id":"way/956289083","highway":"primary","oneway":"yes","surface":"asphalt"},"geometry":{"type":"LineString","coordinates":[[34.1226553,44.9628792],[34.1230085,44.9630008],[34.1233435,44.9631122],[34.1235692,44.9632065],[34.1237798,44.9633057],[34.1240015,44.9634343],[34.1242056,44.9635596],[34.1242833,44.9636143],[34.1243876,44.9636993],[34.1245036,44.9638024],[34.1246385,44.9639366],[34.1247793,44.9640898],[34.1250246,44.9643527],[34.1250934,44.9644202],[34.1251605,44.964486],[34.1253858,44.9647069]]}},
{"type":"Feature","properties":{"@id":"way/956289084","highway":"primary","oneway":"yes","surface":"asphalt"},"geometry":{"type":"LineString","coordinates":[[34.1225649,44.9630476],[34.1218906,44.9628188],[34.121652,44.9627417],[34.1210952,44.9625617],[34.1210271,44.9625409],[34.1203483,44.9623224]]}},
{"type":"Feature","properties":{"@id":"way/962814475","highway":"primary","oneway":null,"surface":"asphalt"},"geometry":{"type":"LineString","coordinates":[[34.0860401,44.9291861],[34.0857914,44.928837],[34.0855988,44.9285666],[34.0844837,44.9270013]]}},
{"type":"Feature","properties":{"@id":"way/963992921","highway":"primary","oneway":null,"surface":"asphalt"},"geometry":{"type":"LineString","coordinates":[[34.1533742,44.9858002],[34.1535797,44.9859272]]}},
{"type":"Feature","properties":{"@id":"way/963992922","highway":"primary","oneway":null,"surface":"asphalt"},"geometry":{"type":"LineString","coordinates":[[34.1535797,44.9859272],[34.1543138,44.9863857],[34.1549831,44.9867648]]}},
{"type":"Feature","properties":{"@id":"way/963992923","highway":"primary","oneway":null,"surface":"asphalt"},"geometry":{"type":"LineString","coordinates":[[34.1531552,44.9856641],[34.1531821,44.9856808],[34.1533742,44.9858002]]}},
{"type":"Feature","properties":{"@id":"way/1019932827","highway":"primary","oneway":null,"surface":"asphalt"},"geometry":{"type":"LineString","coordinates":[[34.0826072,44.9243673],[34.082507,44.9242384],[34.0821657,44.9238323],[34.0820507,44.9237224],[34.081929,44.9236051]]}},
{"type":"Feature","properties":{"@id":"way/1032915753","highway":"primary","oneway":"yes","surface":"asphalt"},"geometry":{"type":"LineString","coordinates":[[34.1152499,44.9606892],[34.1149205,44.9605829],[34.1130557,44.9599649],[34.1129029,44.9599142],[34.1124871,44.9597717],[34.1120799,44.959611],[34.111843,44.9594928],[34.1116107,44.9593532],[34.1108405,44.9589139]]}},
{"type":"Feature","properties":{"@id":"way/1032915754","highway":"primary","oneway":"yes","surface":"asphalt"},"geometry":{"type":"LineString","coordinates":[[34.1153427,44.9605607],[34.1168226,44.9610322],[34.1169668,44.9610781],[34.1174097,44.9612192]]}},
{"type":"Feature","properties":{"@id":"way/1051283275","highway":"primary","oneway":null,"surface":"asphalt"},"geometry":{"type":"LineString","coordinates":[[34.087984,44.9319165],[34.0879547,44.9318732],[34.0873936,44.9311307]]}},
{"type":"Feature","properties":{"@id":"way/1069531693","highway":"primary","oneway":"no","surface":"asphalt"},"geometry":{"type":"LineString","coordinates":[[34.0982116,44.9441659],[34.0986206,44.9446259],[34.098712,44.9447848]]}},
{"type":"Feature","properties":{"@id":"way/1069531694","highway":"primary","oneway":"no","surface":"asphalt"},"geometry":{"type":"LineString","coordinates":[[34.0981701,44.944121],[34.0982116,44.9441659]]}},
{"type":"Feature","properties":{"@id":"way/1069531695","highway":"primary","oneway":"no","surface":"asphalt"},"geometry":{"type":"LineString","coordinates":[[34.0978132,44.9437449],[34.0981701,44.944121]]}},
{"type":"Feature","properties":{"@id":"way/1069531696","highway":"primary","oneway":"no","surface":"asphalt"},"geometry":{"type":"LineString","coordinates":[[34.0977332,44.9436557],[34.0978132,44.9437449]]}},
{"type":"Feature","properties":{"@id":"way/1069531697","highway":"primary","oneway":"no","surface":"asphalt"},"geometry":{"type":"LineString","coordinates":[[34.0975985,44.9435056],[34.0977332,44.9436557]]}},
{"type":"Feature","properties":{"@id":"way/1070234500","highway":"primary","oneway":"yes","surface":"asphalt"},"geometry":{"type":"LineString","coordinates":[[34.1360237,44.9751867],[34.1359464,44.975115]]}},
{"type":"Feature","properties":{"@id":"way/1070234501","highway":"primary","oneway":"yes","surface":"asphalt"},"geometry":{"type":"LineString","coordinates":[[34.1359464,44.975115],[34.1359112,44.9750345],[34.1358918,44.9749815],[34.1358817,44.9749193]]}},
{"type":"Feature","properties":{"@id":"way/1072672300","highway":"primary","oneway":null,"surface":"asphalt"},"geometry":{"type":"LineString","coordinates":[[34.1421862,44.9786549],[34.1426873,44.9789684]]}},
{"type":"Feature","properties":{"@id":"way/1072672301","highway":"primary","oneway":null,"surface":"asphalt"},"geometry":{"type":"LineString","coordinates":[[34.1407826,44.9778013],[34.1410813,44.9779826]]}},
{"type":"Feature","properties":{"@id":"way/1078119895","highway":"primary","oneway":null,"surface":"asphalt"},"geometry":{"type":"LineString","coordinates":[[34.1019899,44.9512774],[34.1021332,44.9515655]]}},
{"type":"Feature","properties":{"@id":"way/1080507147","highway":"primary","oneway":null,"surface":"asphalt"},"geometry":{"type":"LineString","coordinates":[[34.1378222,44.9758562],[34.1380839,44.9760629]]}},
{"type":"Feature","properties":{"@id":"way/1127970773","highway":"primary","oneway":null,"surface":"asphalt"},"geometry":{"type":"LineString","coordinates":[[34.08921,44.9336588],[34.0888448,44.9331296]]}},
{"type":"Feature","properties":{"@id":"way/1128134459","highway":"primary","oneway":"yes","surface":"asphalt"},"geometry":{"type":"LineString","coordinates":[[34.0947552,44.9446721],[34.0947931,44.9447598]]}},
{"type":"Feature","properties":{"@id":"way/1132277535","highway":"primary","oneway":null,"surface":"asphalt"},"geometry":{"type":"LineString","coordinates":[[34.1549831,44.9867648],[34.1561865,44.9874389],[34.1573396,44.9880545]]}},
{"type":"Feature","properties":{"@id":"way/1194200797","highway":"primary","oneway":null,"surface":"asphalt"},"geometry":{"type":"LineString","coordinates":[[34.0844837,44.9270013],[34.0839304,44.9262247],[34.0838675,44.9261363],[34.0835844,44.925739],[34.0834776,44.9255892],[34.0829738,44.9248819],[34.0826072,44.9243673]]}},
{"type":"Feature","properties":{"@id":"way/1365004309","highway":"primary","oneway":null,"surface":"asphalt"},"geometry":{"type":"LineString","coordinates":[[34.1473349,44.9819539],[34.1474189,44.982007]]}},
{"type":"Feature","properties":{"@id":"way/1365004310","highway":"primary","oneway":null,"surface":"asphalt"},"geometry":{"type":"LineString","coordinates":[[34.1477041,44.9821869],[34.1481682,44.9824846]]}},
{"type":"Feature","properties":{"@id":"way/1365004311","highway":"primary","oneway":null,"surface":"asphalt"},"geometry":{"type":"LineString","coordinates":[[34.1490616,44.9830551],[34.1492671,44.983191],[34.1495563,44.983382]]}},
{"type":"Feature","properties":{"@id":"way/1445965468","highway":"primary","oneway":null,"surface":"asphalt"},"geometry":{"type":"LineString","coordinates":[[34.1481682,44.9824846],[34.1490616,44.9830551]]}},
{"type":"Feature","properties":{"@id":"way/1445965469","highway":"primary","oneway":null,"surface":"asphalt"},"geometry":{"type":"LineString","coordinates":[[34.1511833,44.9844394],[34.1512738,44.9844949]]}},
{"type":"Feature","properties":{"@id":"way/1445965471","highway":"primary","oneway":null,"surface":"asphalt"},"geometry":{"type":"LineString","coordinates":[[34.1512738,44.9844949],[34.1518551,44.9848566]]}},
{"type":"Feature","properties":{"@id":"way/1445965473","highway":"primary","oneway":null,"surface":"asphalt"},"geometry":{"type":"LineString","coordinates":[[34.1518551,44.9848566],[34.1519157,44.9848943]]}},
{"type":"Feature","properties":{"@id":"way/1445965474","highway":"primary","oneway":null,"surface":"asphalt"},"geometry":{"type":"LineString","coordinates":[[34.1519157,44.9848943],[34.1522817,44.9851189],[34.1529074,44.9855106]]}},
{"type":"Feature","properties":{"@id":"way/1445965475","highway":"primary","oneway":null,"surface":"asphalt"},"geometry":{"type":"LineString","coordinates":[[34.1529074,44.9855106],[34.1529921,44.9855631]]}},
{"type":"Feature","properties":{"@id":"way/1445965476","highway":"primary","oneway":null,"surface":"asphalt"},"geometry":{"type":"LineString","coordinates":[[34.1529921,44.9855631],[34.1531552,44.9856641]]}},
{"type":"Feature","properties":{"@id":"way/1445965477","highway":"primary","oneway":null,"surface":"asphalt"},"geometry":{"type":"LineString","coordinates":[[34.1573396,44.9880545],[34.158133,44.988481],[34.15906,44.9890265]]}},
{"type":"Feature","properties":{"@id":"way/1456459986","highway":"primary","oneway":null,"surface":"asphalt"},"geometry":{"type":"LineString","coordinates":[[34.1598128,44.9894958],[34.1601079,44.9896818],[34.1614868,44.9906087],[34.1619386,44.9909254]]}},
{"type":"Feature","properties":{"@id":"way/1456459987","highway":"primary","oneway":null,"surface":"asphalt"},"geometry":{"type":"LineString","coordinates":[[34.15906,44.9890265],[34.1598128,44.9894958]]}},
{"type":"Feature","properties":{"@id":"way/1481749612","highway":"primary","oneway":null,"surface":"asphalt"},"geometry":{"type":"LineString","coordinates":[[34.0946348,44.9402215],[34.0957687,44.9414727],[34.0959318,44.9416306]]}},
{"type":"Feature","properties":{"@id":"way/1519546052","highway":"primary","oneway":null,"surface":"asphalt"},"geometry":{"type":"LineString","coordinates":[[34.1619386,44.9909254],[34.1637443,44.9921912]]}}
]
}
