{"type": "FeatureCollection", "features": [{"type": "Feature", "properties": {"@id": "way/24444306", "highway": "primary", "oneway": "no", "surface": "asphalt"}, "geometry": {"type": "LineString", "coordinates": [[33.5319058, 44.550016], [33.5331294, 44.5502767]]}}, {"type": "Feature", "properties": {"@id": "way/27712737", "highway": "primary", "surface": "asphalt"}, "geometry": {"type": "LineString", "coordinates": [[33.6025134, 44.6056929], [33.6031457, 44.605647], [33.603451, 44.6056158], [33.603642, 44.6055963], [33.6044808, 44.605472], [33.6045795, 44.6054574], [33.605087, 44.6054128], [33.6052805, 44.6054386], [33.6056048, 44.605599], [33.6059055, 44.6058456], [33.6059196, 44.6058656], [33.6072053, 44.6076957], [33.6074018, 44.6079754], [33.6077282, 44.6085416], [33.6081281, 44.6094561], [33.6082582, 44.6101554], [33.6082829, 44.6103624], [33.6082878, 44.610403], [33.6083135, 44.6106179], [33.6083203, 44.6106751], [33.60833, 44.6107561], [33.608338, 44.6108229], [33.6083407, 44.6108454], [33.6084485, 44.6122388], [33.6085188, 44.613245]]}}, {"type": "Feature", "properties": {"@id": "way/27712740", "highway": "primary", "surface": "asphalt"}, "geometry": {"type": "LineString", "coordinates": [[33.6010627, 44.6058589], [33.6025134, 44.6056929]]}}, {"type": "Feature", "properties": {"@id": "way/27713205", "highway": "primary", "surface": "asphalt"}, "geometry": {"type": "LineString", "coordinates": [[33.6009298, 44.6058724], [33.6007364, 44.6059267], [33.6005851, 44.6059822], [33.6003129, 44.6060991], [33.5999942, 44.6062455], [33.599313, 44.6066414], [33.5987868, 44.6070229], [33.5983836, 44.6073491], [33.5980197, 44.607555], [33.597784, 44.6076823], [33.5965637, 44.6083621], [33.5959153, 44.6087076], [33.5955979, 44.6088743]]}}, {"type": "Feature", "properties": {"@id": "way/27804238", "highway": "primary", "surface": "asphalt"}, "geometry": {"type": "LineString", "coordinates": [[33.5929648, 44.6090428], [33.5927957, 44.6089694], [33.5925972, 44.6089179], [33.5924039, 44.6088919], [33.5922563, 44.6088905], [33.5920671, 44.6089017], [33.5917491, 44.6089318], [33.5913227, 44.6089392], [33.591083, 44.6089169], [33.5908991, 44.6088795], [33.5907323, 44.6088168], [33.5906215, 44.6087628], [33.5905057, 44.6086751], [33.59045, 44.6086021], [33.5904025, 44.6085197], [33.5903741, 44.6084205], [33.5903051, 44.6082308]]}}, {"type": "Feature", "properties": {"@id": "way/27804240", "highway": "primary", "surface": "asphalt"}, "geometry": {"type": "LineString", "coordinates": [[33.5935415, 44.6093204], [33.5929648, 44.6090428]]}}, {"type": "Feature", "properties": {"@id": "way/36716574", "highway": "secondary", "oneway": "no"}, "geometry": {"type": "LineString", "coordinates": [[33.4082346, 44.5663091], [33.4082111, 44.5661261], [33.407999, 44.5656012], [33.4079072, 44.5651764], [33.4078867, 44.5650601], [33.4078413, 44.5648526], [33.4078305, 44.5646666], [33.4078279, 44.5646215], [33.4078628, 44.5644475], [33.4082337, 44.5636151], [33.4084269, 44.5632173], [33.408496, 44.563075], [33.4086114, 44.5628346], [33.4087089, 44.5626405], [33.4091147, 44.5618332], [33.4091528, 44.5617461], [33.4091853, 44.5616716], [33.4092871, 44.5615227], [33.409425, 44.5613863], [33.4096109, 44.5612477], [33.4097557, 44.5611897], [33.4099226, 44.5611324], [33.410054, 44.5610961]]}}, {"type": "Feature", "properties": {"@id": "way/39895955", "highway": "primary", "oneway": "yes", "surface": "asphalt"}, "geometry": {"type": "LineString", "coordinates": [[33.5285611, 44.5493615], [33.5282976, 44.549449], [33.5280537, 44.5495445], [33.5275398, 44.5497175]]}}, {"type": "Feature", "properties": {"@id": "way/40812716", "highway": "secondary"}, "geometry": {"type": "LineString", "coordinates": [[33.4082346, 44.5663091], [33.4082247, 44.5664414], [33.4081844, 44.5665403], [33.4081101, 44.5666334], [33.4080023, 44.5667215], [33.4078843, 44.5667875], [33.4076527, 44.5669017], [33.4074844, 44.566985], [33.4064591, 44.5674928], [33.4063241, 44.5675596], [33.4061757, 44.5676313], [33.4060028, 44.5677149], [33.4052607, 44.5680736], [33.404625, 44.5683923], [33.4042625, 44.568574], [33.4041029, 44.568654], [33.4029543, 44.569284], [33.4027092, 44.5694359]]}}, {"type": "Feature", "properties": {"@id": "way/64713547", "highway": "primary", "oneway": "yes", "surface": "asphalt"}, "geometry": {"type": "LineString", "coordinates": [[33.4666701, 44.5665061], [33.4669559, 44.5665228], [33.4672085, 44.5665064]]}}, {"type": "Feature", "properties": {"@id": "way/108543588", "highway": "primary", "surface": "asphalt"}, "geometry": {"type": "LineString", "coordinates": [[33.5461087, 44.6368164], [33.5463295, 44.6367289], [33.5467118, 44.6365746], [33.5474326, 44.6364364], [33.5476557, 44.6363933], [33.5476863, 44.6363878], [33.5477834, 44.6363692], [33.5479721, 44.6363321], [33.5482529, 44.6362768], [33.5497691, 44.6359783], [33.5500279, 44.6359274], [33.5508386, 44.6356769], [33.5509717, 44.6356334], [33.5518415, 44.6353493], [33.5518748, 44.6353384], [33.5520011, 44.6352971], [33.5524084, 44.6351789]]}}, {"type": "Feature", "properties": {"@id": "way/111104062", "highway": "primary", "oneway": "yes", "surface": "asphalt"}, "geometry": {"type": "LineString", "coordinates": [[33.45973, 44.568147], [33.4599942, 44.5681346], [33.4605616, 44.5680907], [33.4607439, 44.568061], [33.4613207, 44.5679626], [33.4615414, 44.5679126], [33.4624488, 44.567706], [33.4641662, 44.5672755], [33.4649403, 44.567074], [33.465647, 44.5668916], [33.465856, 44.5668018], [33.4659816, 44.5667382], [33.466078, 44.5666899]]}}, {"type": "Feature", "properties": {"@id": "way/130002592", "highway": "primary", "surface": "asphalt"}, "geometry": {"type": "LineString", "coordinates": [[33.5960376, 44.6045435], [33.5959501, 44.604604], [33.5957959, 44.6047105], [33.5957539, 44.6047838], [33.5957436, 44.604863], [33.5957674, 44.604955], [33.5958225, 44.605149], [33.5959166, 44.6053269], [33.5960272, 44.6056159], [33.5960926, 44.6058529], [33.5961297, 44.6060573], [33.5961084, 44.6063053], [33.5960417, 44.6064875], [33.59593, 44.6066252], [33.5957571, 44.6067842], [33.5952766, 44.6071542], [33.595142, 44.6072579], [33.5950634, 44.6073088], [33.5946912, 44.6075944], [33.594078, 44.608065], [33.593766, 44.6082517], [33.5934681, 44.6084021], [33.5931786, 44.6084999], [33.5929741, 44.6085541], [33.592799, 44.6085884], [33.5925892, 44.608598], [33.5923505, 44.6086062], [33.5919411, 44.6085921], [33.5916636, 44.6085591], [33.591503, 44.6085408], [33.5913229, 44.6085158], [33.5911712, 44.6084932], [33.5910402, 44.6084699], [33.5909273, 44.6084304], [33.5908292, 44.608386], [33.5907622, 44.6083165], [33.5907074, 44.6082433], [33.5906605, 44.608145]]}}, {"type": "Feature", "properties": {"@id": "way/130003307", "highway": "primary", "surface": "asphalt"}, "geometry": {"type": "LineString", "coordinates": [[33.5929226, 44.5880994], [33.5930164, 44.5890411], [33.5930272, 44.5891887], [33.5930543, 44.5896755], [33.5930325, 44.5899756], [33.593003, 44.5902511], [33.5929544, 44.59052]]}}, {"type": "Feature", "properties": {"@id": "way/130003308", "highway": "primary", "surface": "asphalt"}, "geometry": {"type": "LineString", "coordinates": [[33.5924642, 44.5867844], [33.5926465, 44.5872012], [33.5927879, 44.5875665], [33.5929226, 44.5880994]]}}, {"type": "Feature", "properties": {"@id": "way/130004805", "highway": "primary", "oneway": "yes", "surface": "asphalt"}, "geometry": {"type": "LineString", "coordinates": [[33.5709639, 44.5722019], [33.5710323, 44.572238], [33.5710906, 44.5722701], [33.5711659, 44.5723068], [33.5712649, 44.5723409], [33.5713405, 44.5723599], [33.5714735, 44.5723788]]}}, {"type": "Feature", "properties": {"@id": "way/130043613", "highway": "primary", "surface": "asphalt"}, "geometry": {"type": "LineString", "coordinates": [[33.5858982, 44.6374058], [33.5859866, 44.6374677], [33.5861014, 44.6375391], [33.5862602, 44.6376436], [33.5865486, 44.6378333], [33.5871017, 44.6380664], [33.5878254, 44.6383082], [33.5894135, 44.6389773], [33.5895526, 44.6390248], [33.5896741, 44.6390494], [33.5898003, 44.6390566], [33.5898977, 44.6390535], [33.5900011, 44.6390357], [33.5901154, 44.6390033], [33.5902141, 44.6389664], [33.5903082, 44.63892], [33.5903605, 44.6388762], [33.5903905, 44.6388361], [33.5904089, 44.6387848], [33.5904135, 44.638752], [33.5904127, 44.6387055], [33.5904007, 44.6386388], [33.5903582, 44.6385117], [33.59028, 44.6382785], [33.5902157, 44.6381305], [33.5901358, 44.6379469], [33.5900967, 44.6378692], [33.5899839, 44.6376453], [33.5897172, 44.6371159], [33.589666, 44.6369174], [33.589648, 44.6366127], [33.5896378, 44.6364395], [33.5896677, 44.6357499], [33.589703, 44.6354443], [33.5898245, 44.6351441], [33.5899234, 44.6349672], [33.5900731, 44.6348023], [33.5902489, 44.634651], [33.5904332, 44.6345088], [33.5906846, 44.6343439], [33.5909825, 44.6341941], [33.5913351, 44.6340892], [33.5915317, 44.6341138], [33.5916946, 44.6341717], [33.59221, 44.6344252], [33.5927789, 44.6346969], [33.5947095, 44.6355775], [33.5949516, 44.6356684], [33.595172, 44.6356896], [33.5957421, 44.6356326], [33.5961231, 44.635589], [33.5964186, 44.6356145], [33.596566, 44.6356637], [33.5967075, 44.6357738], [33.5973014, 44.6365506], [33.5976548, 44.6370423], [33.5978187, 44.6372792], [33.597848, 44.6373215], [33.5978767, 44.6373633], [33.5981872, 44.6378155], [33.5982754, 44.637944], [33.5984843, 44.6382483], [33.5992084, 44.6393094], [33.5992689, 44.6393899], [33.5993294, 44.639453], [33.5993991, 44.6395128], [33.5994819, 44.6395698], [33.5995769, 44.6396195], [33.5996962, 44.6396697], [33.5998616, 44.6397198], [33.6000027, 44.6397483], [33.6001757, 44.6397698], [33.6003537, 44.6397801], [33.6005063, 44.6397761], [33.6006997, 44.6397561], [33.6009773, 44.6397144], [33.6025718, 44.6394341], [33.6027984, 44.6394009], [33.6031535, 44.6393312], [33.6038871, 44.6392023]]}}, {"type": "Feature", "properties": {"@id": "way/147520383", "highway": "tertiary", "oneway": "no", "surface": "asphalt"}, "geometry": {"type": "LineString", "coordinates": [[33.5381012, 44.6262004], [33.5381817, 44.6262649], [33.5382291, 44.6263053], [33.5383258, 44.6264552], [33.5383582, 44.6265101], [33.5384181, 44.6266687], [33.538534, 44.6270823], [33.5386355, 44.6273294], [33.5388269, 44.6277331], [33.5389, 44.6279016], [33.5390129, 44.6281667], [33.539298, 44.6288061], [33.5393246, 44.6288746]]}}, {"type": "Feature", "properties": {"@id": "way/147520399", "highway": "secondary", "oneway": "yes", "surface": "asphalt"}, "geometry": {"type": "LineString", "coordinates": [[33.5393246, 44.6288746], [33.5394618, 44.6289872], [33.5395922, 44.6291522], [33.539873, 44.6297358], [33.5400382, 44.6300125], [33.5402132, 44.6303056], [33.5404022, 44.630622], [33.5404982, 44.6308713], [33.5405686, 44.6310778], [33.5406637, 44.6314562], [33.5407399, 44.6317227], [33.5409924, 44.6324609]]}}, {"type": "Feature", "properties": {"@id": "way/229406891", "highway": "primary", "oneway": "no", "surface": "asphalt"}, "geometry": {"type": "LineString", "coordinates": [[33.5709133, 44.5718007], [33.5714567, 44.5711751], [33.5716887, 44.5709172]]}}, {"type": "Feature", "properties": {"@id": "way/268846397", "highway": "secondary"}, "geometry": {"type": "LineString", "coordinates": [[33.3978305, 44.5663709], [33.396236, 44.5668585], [33.3958639, 44.5669718], [33.3956788, 44.5670311], [33.3955117, 44.5671107], [33.395184, 44.5673429], [33.3939649, 44.5682903], [33.3933574, 44.5687642], [33.3930476, 44.5689973], [33.3927733, 44.5692422], [33.3926077, 44.5695582], [33.3924709, 44.5698782], [33.3922014, 44.5705193], [33.3919726, 44.5710678], [33.3913028, 44.5726736], [33.3912412, 44.5729066], [33.3915033, 44.574086], [33.39185, 44.5756465], [33.3921034, 44.5769956], [33.392325, 44.5781485], [33.3923342, 44.5782243], [33.3919782, 44.5789357], [33.3912177, 44.5803878], [33.3910531, 44.5805515], [33.3909032, 44.5806317], [33.3893992, 44.5810699], [33.3876955, 44.5815073], [33.3871977, 44.5816454], [33.3871502, 44.5816564], [33.3865639, 44.5818169], [33.385591, 44.5820796], [33.3847459, 44.5823176], [33.3843337, 44.5824276], [33.3838311, 44.5825642], [33.3836594, 44.5826109], [33.3822338, 44.5829476]]}}, {"type": "Feature", "properties": {"@id": "way/268846400", "highway": "secondary", "surface": "asphalt"}, "geometry": {"type": "LineString", "coordinates": [[33.4027092, 44.5694359], [33.4023583, 44.5691541], [33.402022, 44.5688311], [33.4016041, 44.5684287], [33.4014357, 44.5683001], [33.4011338, 44.5680085], [33.4008824, 44.5677679], [33.4007081, 44.5676091], [33.4006638, 44.5675673], [33.4004451, 44.5673702], [33.4002808, 44.567222], [33.4000978, 44.5670729], [33.3999201, 44.5669293], [33.3997365, 44.5667886], [33.3995634, 44.5666675], [33.3993482, 44.5665406], [33.3991999, 44.5664702], [33.399047, 44.5664132], [33.3989384, 44.5663785], [33.3988318, 44.5663536], [33.3986936, 44.5663221], [33.3985558, 44.5663017], [33.3984093, 44.5662906], [33.3982658, 44.5662896], [33.3981398, 44.5662963], [33.3980156, 44.5663156], [33.3978305, 44.5663709]]}}, {"type": "Feature", "properties": {"@id": "way/291536906", "highway": "primary", "surface": "asphalt"}, "geometry": {"type": "LineString", "coordinates": [[33.5973631, 44.6236813], [33.5974904, 44.6239181], [33.5975579, 44.6240436], [33.5976948, 44.6243157]]}}, {"type": "Feature", "properties": {"@id": "way/293490329", "highway": "primary", "surface": "asphalt"}, "geometry": {"type": "LineString", "coordinates": [[33.4411554, 44.5736878], [33.4411811, 44.5736696], [33.4412663, 44.5736094], [33.4418383, 44.5732046]]}}, {"type": "Feature", "properties": {"@id": "way/311811627", "highway": "primary", "surface": "asphalt"}, "geometry": {"type": "LineString", "coordinates": [[33.5811277, 44.5745714], [33.5815157, 44.5748052]]}}, {"type": "Feature", "properties": {"@id": "way/311811631", "highway": "primary", "surface": "asphalt"}, "geometry": {"type": "LineString", "coordinates": [[33.5807233, 44.5743131], [33.5810152, 44.5744959]]}}, {"type": "Feature", "properties": {"@id": "way/311813589", "highway": "primary", "surface": "asphalt"}, "geometry": {"type": "LineString", "coordinates": [[33.592514, 44.5925796], [33.5923995, 44.5928648]]}}, {"type": "Feature", "properties": {"@id": "way/311815289", "highway": "primary", "surface": "asphalt"}, "geometry": {"type": "LineString", "coordinates": [[33.5902637, 44.6080438], [33.5902608, 44.6079692], [33.5902857, 44.607908], [33.5903344, 44.6078775], [33.5904195, 44.6078645]]}}, {"type": "Feature", "properties": {"@id": "way/311815290", "highway": "primary", "surface": "asphalt"}, "geometry": {"type": "LineString", "coordinates": [[33.5904195, 44.6078645], [33.5905006, 44.6078783], [33.5905764, 44.6079449], [33.5906605, 44.608145]]}}, {"type": "Feature", "properties": {"@id": "way/312120312", "highway": "primary", "surface": "asphalt"}, "geometry": {"type": "LineString", "coordinates": [[33.5815157, 44.5748052], [33.5817579, 44.5749608], [33.5819361, 44.5750616], [33.5821308, 44.5751523]]}}, {"type": "Feature", "properties": {"@id": "way/326305381", "highway": "secondary", "oneway": "yes", "surface": "asphalt"}, "geometry": {"type": "LineString", "coordinates": [[33.5419878, 44.6337298], [33.5427838, 44.6343684], [33.5430547, 44.6345857], [33.5431691, 44.634681], [33.5443385, 44.6356125], [33.545451, 44.6364035], [33.5455723, 44.6364904], [33.5458893, 44.6366843], [33.5459439, 44.6367172], [33.5460542, 44.6367836], [33.5461087, 44.6368164]]}}, {"type": "Feature", "properties": {"@id": "way/326305385", "highway": "secondary", "oneway": "yes", "surface": "asphalt"}, "geometry": {"type": "LineString", "coordinates": [[33.5413886, 44.6332982], [33.5417779, 44.633566], [33.5418683, 44.6336362], [33.5419878, 44.6337298]]}}, {"type": "Feature", "properties": {"@id": "way/329033619", "highway": "primary", "surface": "asphalt"}, "geometry": {"type": "LineString", "coordinates": [[33.5810152, 44.5744959], [33.5811277, 44.5745714]]}}, {"type": "Feature", "properties": {"@id": "way/360057010", "highway": "primary", "surface": "asphalt"}, "geometry": {"type": "LineString", "coordinates": [[33.4418383, 44.5732046], [33.4429945, 44.5723822]]}}, {"type": "Feature", "properties": {"@id": "way/367724153", "highway": "primary", "oneway": "no", "surface": "asphalt"}, "geometry": {"type": "LineString", "coordinates": [[33.5319058, 44.550016], [33.5313862, 44.5498937], [33.5313664, 44.549889], [33.5305013, 44.5496945]]}}, {"type": "Feature", "properties": {"@id": "way/367898577", "highway": "primary", "surface": "asphalt"}, "geometry": {"type": "LineString", "coordinates": [[33.5929544, 44.59052], [33.592723, 44.591627], [33.5925733, 44.5923984], [33.59253, 44.5925308], [33.592514, 44.5925796]]}}, {"type": "Feature", "properties": {"@id": "way/368112022", "highway": "primary", "oneway": "yes", "surface": "asphalt"}, "geometry": {"type": "LineString", "coordinates": [[33.4660761, 44.5666538], [33.4661452, 44.5665859], [33.4662117, 44.5665344], [33.4662933, 44.5664954], [33.4663856, 44.5664713], [33.4664596, 44.5664637]]}}, {"type": "Feature", "properties": {"@id": "way/368126242", "highway": "secondary", "oneway": "no", "surface": "asphalt"}, "geometry": {"type": "LineString", "coordinates": [[33.4231493, 44.5627742], [33.4234801, 44.5630199], [33.4237948, 44.5632537], [33.4240671, 44.563456], [33.4243856, 44.5637023], [33.4247449, 44.5639801], [33.4250021, 44.5641666], [33.4252837, 44.5643347], [33.4255562, 44.5644779], [33.4257317, 44.5645621], [33.4259174, 44.5646353], [33.4262687, 44.5647222], [33.4265724, 44.5647885], [33.4268052, 44.5648393], [33.4274419, 44.5649784], [33.4277898, 44.5650544], [33.4280375, 44.5651081], [33.4287406, 44.5652606], [33.4291806, 44.565356], [33.4293526, 44.5654001], [33.4294745, 44.5654343], [33.4296343, 44.565487], [33.4297884, 44.5655467], [33.4299481, 44.5656361], [33.4301015, 44.5657345], [33.4302419, 44.5658622], [33.4303632, 44.5660379], [33.4304193, 44.5661475], [33.4305637, 44.5664209], [33.430617, 44.5665293], [33.4307148, 44.566631], [33.4309042, 44.566726], [33.4312918, 44.566735], [33.4314812, 44.566754], [33.4320657, 44.5668831], [33.4330468, 44.56713], [33.4335611, 44.5672619], [33.4340756, 44.5674284], [33.4345616, 44.5676918], [33.4347512, 44.5678076], [33.435075, 44.5680121], [33.4354492, 44.5682485], [33.4366819, 44.5690364], [33.4368652, 44.5691535], [33.4370778, 44.5692883], [33.4377412, 44.5697131], [33.438787, 44.5703827]]}}, {"type": "Feature", "properties": {"@id": "way/368126243", "highway": "secondary", "oneway": "no", "surface": "asphalt"}, "geometry": {"type": "LineString", "coordinates": [[33.4182292, 44.5596447], [33.4183803, 44.5596453], [33.41879, 44.5596855], [33.4190244, 44.5597665], [33.4192475, 44.5599026], [33.4201697, 44.5605813], [33.4215347, 44.5615859], [33.42298, 44.5626496], [33.4231493, 44.5627742]]}}, {"type": "Feature", "properties": {"@id": "way/406565599", "highway": "primary", "oneway": "no", "surface": "asphalt"}, "geometry": {"type": "LineString", "coordinates": [[33.5346035, 44.5503564], [33.5340352, 44.5503265], [33.5336165, 44.5503044], [33.5331294, 44.5502767]]}}, {"type": "Feature", "properties": {"@id": "way/406565688", "highway": "primary", "surface": "asphalt"}, "geometry": {"type": "LineString", "coordinates": [[33.534727, 44.5503629], [33.5346035, 44.5503564]]}}, {"type": "Feature", "properties": {"@id": "way/406566796", "highway": "primary", "oneway": "yes", "surface": "asphalt"}, "geometry": {"type": "LineString", "coordinates": [[33.5235301, 44.5499394], [33.5237797, 44.5499569], [33.5247211, 44.5500088], [33.5250434, 44.5500327], [33.5253181, 44.5500361], [33.5256199, 44.5500257]]}}, {"type": "Feature", "properties": {"@id": "way/406577794", "highway": "primary", "surface": "asphalt"}, "geometry": {"type": "LineString", "coordinates": [[33.5292334, 44.5494062], [33.5291525, 44.5493888]]}}, {"type": "Feature", "properties": {"@id": "way/414382873", "highway": "secondary", "oneway": "no", "surface": "asphalt"}, "geometry": {"type": "LineString", "coordinates": [[33.410054, 44.5610961], [33.4101837, 44.5610151], [33.4108163, 44.5608103], [33.4110589, 44.5607317], [33.4119293, 44.5604499], [33.4144994, 44.5596715], [33.4148562, 44.5596027], [33.4151857, 44.5595698], [33.4154788, 44.5595625], [33.4161738, 44.5595844], [33.4182292, 44.5596447]]}}, {"type": "Feature", "properties": {"@id": "way/442208868", "highway": "primary", "oneway": "yes", "surface": "asphalt"}, "geometry": {"type": "LineString", "coordinates": [[33.5269252, 44.5498112], [33.5266672, 44.5498156], [33.5263726, 44.5498365]]}}, {"type": "Feature", "properties": {"@id": "way/442208875", "highway": "primary", "oneway": "yes", "surface": "asphalt"}, "geometry": {"type": "LineString", "coordinates": [[33.5291525, 44.5493888], [33.528823, 44.5493491], [33.5286652, 44.5493456]]}}, {"type": "Feature", "properties": {"@id": "way/442231999", "highway": "primary", "oneway": "yes", "surface": "asphalt"}, "geometry": {"type": "LineString", "coordinates": [[33.5792642, 44.5623468], [33.5793202, 44.5622394], [33.5793477, 44.5621653], [33.579356, 44.5620945], [33.5793443, 44.5619797]]}}, {"type": "Feature", "properties": {"@id": "way/442232001", "highway": "primary", "oneway": "no", "surface": "asphalt"}, "geometry": {"type": "LineString", "coordinates": [[33.5791022, 44.561521], [33.5780965, 44.5609785], [33.5779236, 44.5608862], [33.5776897, 44.5607612], [33.5764977, 44.5601032], [33.5757511, 44.559727], [33.5752449, 44.559496], [33.5747555, 44.5593053], [33.5744049, 44.5591687]]}}, {"type": "Feature", "properties": {"@id": "way/442232002", "highway": "primary", "oneway": "yes", "surface": "asphalt"}, "geometry": {"type": "LineString", "coordinates": [[33.5793109, 44.5618094], [33.5792675, 44.5616884], [33.5792307, 44.5616342], [33.5791022, 44.561521]]}}, {"type": "Feature", "properties": {"@id": "way/442232004", "highway": "primary", "surface": "asphalt"}, "geometry": {"type": "LineString", "coordinates": [[33.5714735, 44.5723788], [33.5720285, 44.57239]]}}, {"type": "Feature", "properties": {"@id": "way/450927026", "highway": "primary", "surface": "asphalt"}, "geometry": {"type": "LineString", "coordinates": [[33.4429945, 44.5723822], [33.4433991, 44.5720944]]}}, {"type": "Feature", "properties": {"@id": "way/454335004", "highway": "primary", "oneway": "yes", "surface": "asphalt"}, "geometry": {"type": "LineString", "coordinates": [[33.4548969, 44.56848], [33.4553228, 44.5683419]]}}, {"type": "Feature", "properties": {"@id": "way/463644123", "highway": "primary", "oneway": "yes", "surface": "asphalt"}, "geometry": {"type": "LineString", "coordinates": [[33.5709133, 44.5718007], [33.5709088, 44.5719388], [33.5709088, 44.5720046], [33.5709122, 44.5720532], [33.5709237, 44.5721061], [33.5709639, 44.5722019]]}}, {"type": "Feature", "properties": {"@id": "way/472675147", "highway": "primary", "oneway": "no", "surface": "asphalt"}, "geometry": {"type": "LineString", "coordinates": [[33.5784013, 44.5633282], [33.5790975, 44.5625283], [33.5792642, 44.5623468]]}}, {"type": "Feature", "properties": {"@id": "way/472675148", "highway": "primary", "oneway": "no", "surface": "asphalt"}, "geometry": {"type": "LineString", "coordinates": [[33.5781418, 44.5636188], [33.5784013, 44.5633282]]}}, {"type": "Feature", "properties": {"@id": "way/472675149", "highway": "primary", "oneway": "no", "surface": "asphalt"}, "geometry": {"type": "LineString", "coordinates": [[33.5777027, 44.5641119], [33.5781418, 44.5636188]]}}, {"type": "Feature", "properties": {"@id": "way/472675150", "highway": "primary", "oneway": "no", "surface": "asphalt"}, "geometry": {"type": "LineString", "coordinates": [[33.5772738, 44.5645983], [33.5777027, 44.5641119]]}}, {"type": "Feature", "properties": {"@id": "way/472675151", "highway": "primary", "surface": "asphalt"}, "geometry": {"type": "LineString", "coordinates": [[33.5769014, 44.565017], [33.577, 44.5649053], [33.5772738, 44.5645983]]}}, {"type": "Feature", "properties": {"@id": "way/472675153", "highway": "primary", "surface": "asphalt"}, "geometry": {"type": "LineString", "coordinates": [[33.5761336, 44.5658942], [33.5762406, 44.5657722], [33.576341, 44.5656576], [33.5769014, 44.565017]]}}, {"type": "Feature", "properties": {"@id": "way/472675154", "highway": "primary", "oneway": "no", "surface": "asphalt"}, "geometry": {"type": "LineString", "coordinates": [[33.57562, 44.5664691], [33.5758396, 44.5662233], [33.5759457, 44.5661045], [33.5760789, 44.5659555], [33.5761336, 44.5658942]]}}, {"type": "Feature", "properties": {"@id": "way/472675156", "highway": "primary", "oneway": "no", "surface": "asphalt"}, "geometry": {"type": "LineString", "coordinates": [[33.5751144, 44.5670522], [33.57562, 44.5664691]]}}, {"type": "Feature", "properties": {"@id": "way/472675158", "highway": "primary", "oneway": "no", "surface": "asphalt"}, "geometry": {"type": "LineString", "coordinates": [[33.5748359, 44.567362], [33.5751144, 44.5670522]]}}, {"type": "Feature", "properties": {"@id": "way/472675166", "highway": "primary", "oneway": "no", "surface": "asphalt"}, "geometry": {"type": "LineString", "coordinates": [[33.5744005, 44.5678442], [33.5748359, 44.567362]]}}, {"type": "Feature", "properties": {"@id": "way/472675169", "highway": "primary", "oneway": "no", "surface": "asphalt"}, "geometry": {"type": "LineString", "coordinates": [[33.5739901, 44.5683019], [33.574321, 44.5679328]]}}, {"type": "Feature", "properties": {"@id": "way/472675172", "highway": "primary", "oneway": "no", "surface": "asphalt"}, "geometry": {"type": "LineString", "coordinates": [[33.5736027, 44.5687465], [33.5738268, 44.5684893], [33.5739901, 44.5683019]]}}, {"type": "Feature", "properties": {"@id": "way/472675174", "highway": "primary", "oneway": "no", "surface": "asphalt"}, "geometry": {"type": "LineString", "coordinates": [[33.5728986, 44.5695281], [33.5730011, 44.5694143], [33.5735853, 44.5687651], [33.5736027, 44.5687465]]}}, {"type": "Feature", "properties": {"@id": "way/482983941", "highway": "primary", "surface": "asphalt"}, "geometry": {"type": "LineString", "coordinates": [[33.59625, 44.6210881], [33.5963502, 44.6213461], [33.5965304, 44.6218867], [33.5966303, 44.6222348], [33.5967208, 44.6224878], [33.596828, 44.6227243], [33.5970068, 44.6230728], [33.5973631, 44.6236813]]}}, {"type": "Feature", "properties": {"@id": "way/489071635", "highway": "primary", "surface": "asphalt"}, "geometry": {"type": "LineString", "coordinates": [[33.5987659, 44.629783], [33.5993071, 44.631417], [33.5999079, 44.633115], [33.6004009, 44.6351195], [33.6005661, 44.6355742], [33.6006777, 44.6357963], [33.6007968, 44.6360132], [33.6009469, 44.6362272], [33.6012125, 44.63654], [33.6015156, 44.6368435], [33.6018648, 44.637146], [33.602434, 44.6375927], [33.6028649, 44.6379427], [33.6031195, 44.6381718], [33.6033386, 44.6384412], [33.6034106, 44.6385339], [33.6035896, 44.6387643], [33.6036734, 44.6388791], [33.6038871, 44.6392023]]}}, {"type": "Feature", "properties": {"@id": "way/489071637", "highway": "primary", "surface": "asphalt"}, "geometry": {"type": "LineString", "coordinates": [[33.5976948, 44.6243157], [33.597769, 44.6245412], [33.5978452, 44.6248576], [33.5978823, 44.6250993], [33.5979509, 44.62595], [33.5980797, 44.6269762], [33.5984694, 44.6287645], [33.5986719, 44.629499], [33.5987659, 44.629783]]}}, {"type": "Feature", "properties": {"@id": "way/489071638", "highway": "primary", "surface": "asphalt"}, "geometry": {"type": "LineString", "coordinates": [[33.5961138, 44.6176044], [33.5959731, 44.6178876], [33.5959001, 44.6180682], [33.5958611, 44.6182476], [33.5958424, 44.6184281], [33.5958637, 44.6190477], [33.595891, 44.6194378], [33.5959574, 44.6201762], [33.5959888, 44.6203254], [33.5960676, 44.6206044], [33.59625, 44.6210881]]}}, {"type": "Feature", "properties": {"@id": "way/509417983", "highway": "secondary", "oneway": "yes", "surface": "asphalt"}, "geometry": {"type": "LineString", "coordinates": [[33.5413159, 44.6332002], [33.541368, 44.633248], [33.5413886, 44.6332982]]}}, {"type": "Feature", "properties": {"@id": "way/513329391", "highway": "primary", "surface": "asphalt"}, "geometry": {"type": "LineString", "coordinates": [[33.6065629, 44.6157421], [33.6063778, 44.6157651], [33.606107, 44.6157727], [33.605954, 44.6157717], [33.6053941, 44.6157334], [33.6049934, 44.615706], [33.6046103, 44.6156798], [33.6037849, 44.6156234], [33.6035026, 44.6156041], [33.6025446, 44.6155386], [33.6018833, 44.6154986], [33.6002389, 44.6154016], [33.5998, 44.6153925], [33.5995272, 44.6154051]]}}, {"type": "Feature", "properties": {"@id": "way/614271446", "highway": "primary", "oneway": "no", "surface": "asphalt"}, "geometry": {"type": "LineString", "coordinates": [[33.5704797, 44.5576111], [33.5694426, 44.5572072], [33.5685498, 44.5568594], [33.5682663, 44.556749], [33.567956, 44.5566522], [33.5675598, 44.5565474], [33.5671665, 44.5564442], [33.566844, 44.5563664], [33.5665204, 44.5563018], [33.5661515, 44.5562328], [33.565869, 44.5561925], [33.5655791, 44.556157], [33.5650845, 44.5561131], [33.5645834, 44.556087], [33.5627156, 44.556037], [33.5594719, 44.5559613], [33.558631, 44.5559416], [33.5585505, 44.5559397], [33.5576757, 44.55592], [33.556808, 44.5558979], [33.5561616, 44.555875], [33.5555336, 44.5558191], [33.5544945, 44.5556694], [33.5540195, 44.5556087], [33.5523692, 44.5553572], [33.5514987, 44.5552064]]}}, {"type": "Feature", "properties": {"@id": "way/614271447", "highway": "primary", "oneway": "no", "surface": "asphalt"}, "geometry": {"type": "LineString", "coordinates": [[33.5744049, 44.5591687], [33.5742172, 44.5590927], [33.5704797, 44.5576111]]}}, {"type": "Feature", "properties": {"@id": "way/614271449", "highway": "primary", "oneway": "no", "surface": "asphalt"}, "geometry": {"type": "LineString", "coordinates": [[33.5460703, 44.5535263], [33.5456837, 44.5533676], [33.5445468, 44.5528625], [33.5443035, 44.5527544], [33.5439376, 44.55258], [33.5424449, 44.5518683], [33.5423333, 44.5518161], [33.5417583, 44.5515472], [33.5410528, 44.5512528], [33.5404896, 44.5510502], [33.5400095, 44.5509221], [33.5395562, 44.5507979], [33.5384323, 44.5506106], [33.5371154, 44.5505131], [33.5361702, 44.5504537], [33.534727, 44.5503629]]}}, {"type": "Feature", "properties": {"@id": "way/614271450", "highway": "primary", "oneway": "no", "surface": "asphalt"}, "geometry": {"type": "LineString", "coordinates": [[33.5514987, 44.5552064], [33.5502407, 44.5549448], [33.5490806, 44.5545996], [33.5485798, 44.5544344], [33.5480222, 44.5542533], [33.5475595, 44.5540999]]}}, {"type": "Feature", "properties": {"@id": "way/637453314", "highway": "primary", "oneway": "yes", "surface": "asphalt"}, "geometry": {"type": "LineString", "coordinates": [[33.523228, 44.5499038], [33.5235301, 44.5499394]]}}, {"type": "Feature", "properties": {"@id": "way/637453474", "highway": "primary", "oneway": "yes", "surface": "asphalt"}, "geometry": {"type": "LineString", "coordinates": [[33.5219956, 44.5497772], [33.5227711, 44.5498437], [33.523228, 44.5499038]]}}, {"type": "Feature", "properties": {"@id": "way/637453586", "highway": "primary", "oneway": "yes", "surface": "asphalt"}, "geometry": {"type": "LineString", "coordinates": [[33.5210729, 44.5497331], [33.5213886, 44.5497302]]}}, {"type": "Feature", "properties": {"@id": "way/637453736", "highway": "primary", "oneway": "no", "surface": "asphalt"}, "geometry": {"type": "LineString", "coordinates": [[33.5203206, 44.5497013], [33.5207071, 44.549719], [33.5210729, 44.5497331]]}}, {"type": "Feature", "properties": {"@id": "way/637453737", "highway": "primary", "oneway": "no", "surface": "asphalt"}, "geometry": {"type": "LineString", "coordinates": [[33.5201439, 44.5496935], [33.5203206, 44.5497013]]}}, {"type": "Feature", "properties": {"@id": "way/637453844", "highway": "primary", "oneway": "no", "surface": "asphalt"}, "geometry": {"type": "LineString", "coordinates": [[33.5191921, 44.54964], [33.519574, 44.5496676], [33.5199269, 44.5496855], [33.5201439, 44.5496935]]}}, {"type": "Feature", "properties": {"@id": "way/649109059", "highway": "primary", "surface": "asphalt"}, "geometry": {"type": "LineString", "coordinates": [[33.4433991, 44.5720944], [33.4439198, 44.571724], [33.4441092, 44.5715893], [33.4447726, 44.5711943]]}}, {"type": "Feature", "properties": {"@id": "way/659276230", "highway": "primary", "oneway": "no", "surface": "asphalt"}, "geometry": {"type": "LineString", "coordinates": [[33.5716887, 44.5709172], [33.5718566, 44.5707263], [33.5719405, 44.5706299], [33.5720306, 44.5705262], [33.5724119, 44.5700877], [33.5728986, 44.5695281]]}}, {"type": "Feature", "properties": {"@id": "way/692178812", "highway": "primary", "oneway": "yes", "surface": "asphalt"}, "geometry": {"type": "LineString", "coordinates": [[33.4664596, 44.5664637], [33.4665583, 44.5664684], [33.4666701, 44.5665061]]}}, {"type": "Feature", "properties": {"@id": "way/692178813", "highway": "primary", "surface": "asphalt"}, "geometry": {"type": "LineString", "coordinates": [[33.466078, 44.5666899], [33.4660761, 44.5666538]]}}, {"type": "Feature", "properties": {"@id": "way/700085967", "highway": "primary", "surface": "asphalt"}, "geometry": {"type": "LineString", "coordinates": [[33.5720285, 44.57239], [33.5722403, 44.5723943], [33.5725076, 44.572405], [33.572937, 44.5724221]]}}, {"type": "Feature", "properties": {"@id": "way/700086902", "highway": "primary", "surface": "asphalt"}, "geometry": {"type": "LineString", "coordinates": [[33.579508, 44.5734463], [33.5800241, 44.5738082]]}}, {"type": "Feature", "properties": {"@id": "way/700086903", "highway": "primary", "surface": "asphalt"}, "geometry": {"type": "LineString", "coordinates": [[33.5800241, 44.5738082], [33.5801596, 44.5739001], [33.5804133, 44.5740723], [33.5806872, 44.5742847], [33.5807233, 44.5743131]]}}, {"type": "Feature", "properties": {"@id": "way/710476037", "highway": "primary", "surface": "asphalt"}, "geometry": {"type": "LineString", "coordinates": [[33.5995272, 44.6154051], [33.5985625, 44.6155422], [33.5984554, 44.6155741], [33.5979338, 44.6157293], [33.5976372, 44.6158665], [33.5973214, 44.6160489], [33.5971216, 44.6162004], [33.5969553, 44.6163831], [33.5969199, 44.6164274], [33.5965398, 44.6169539], [33.5963385, 44.6172338], [33.5961893, 44.6174774], [33.5961138, 44.6176044]]}}, {"type": "Feature", "properties": {"@id": "way/710534919", "highway": "primary", "surface": "asphalt"}, "geometry": {"type": "LineString", "coordinates": [[33.5657528, 44.6350115], [33.5662924, 44.6349271], [33.5665193, 44.6348916], [33.5683986, 44.6345978], [33.568475, 44.6345884], [33.5696124, 44.634448], [33.5696639, 44.634445], [33.5702171, 44.6344128], [33.5715501, 44.6344845], [33.5716603, 44.6344903], [33.5718074, 44.6344982], [33.572176, 44.634518], [33.5733816, 44.6346975], [33.5735974, 44.6347139], [33.5737857, 44.6347282], [33.573974, 44.6347424], [33.5740569, 44.6347487], [33.5743657, 44.634735], [33.5746802, 44.6347161], [33.5747407, 44.6347125]]}}, {"type": "Feature", "properties": {"@id": "way/711686946", "highway": "primary", "oneway": "no", "surface": "asphalt"}, "geometry": {"type": "LineString", "coordinates": [[33.5475595, 44.5540999], [33.546879, 44.5538447], [33.5467657, 44.5538022], [33.5460703, 44.5535263]]}}, {"type": "Feature", "properties": {"@id": "way/711696675", "highway": "primary", "oneway": "yes", "surface": "asphalt"}, "geometry": {"type": "LineString", "coordinates": [[33.5286652, 44.5493456], [33.5285611, 44.5493615]]}}, {"type": "Feature", "properties": {"@id": "way/717302450", "highway": "secondary", "oneway": "no", "surface": "asphalt"}, "geometry": {"type": "LineString", "coordinates": [[33.4402964, 44.5731314], [33.4404029, 44.5732096], [33.4405813, 44.5733336], [33.4409832, 44.5735925], [33.4411235, 44.5736701], [33.4411554, 44.5736878]]}}, {"type": "Feature", "properties": {"@id": "way/743315972", "highway": "primary", "oneway": "yes", "surface": "asphalt"}, "geometry": {"type": "LineString", "coordinates": [[33.5793443, 44.5619797], [33.579322, 44.5619309], [33.5793114, 44.5618663], [33.5793109, 44.5618094]]}}, {"type": "Feature", "properties": {"@id": "way/744139502", "highway": "primary", "oneway": "yes", "surface": "asphalt"}, "geometry": {"type": "LineString", "coordinates": [[33.5275398, 44.5497175], [33.5271348, 44.5498146], [33.5270297, 44.5498228], [33.5269252, 44.5498112]]}}, {"type": "Feature", "properties": {"@id": "way/745633254", "highway": "primary", "surface": "asphalt"}, "geometry": {"type": "LineString", "coordinates": [[33.6085188, 44.613245], [33.6085454, 44.6136259], [33.6085521, 44.6140501], [33.6085477, 44.6141173]]}}, {"type": "Feature", "properties": {"@id": "way/745633255", "highway": "primary", "surface": "asphalt"}, "geometry": {"type": "LineString", "coordinates": [[33.6085477, 44.6141173], [33.6085419, 44.6142048], [33.6085332, 44.6143364], [33.6085314, 44.6143639], [33.6083253, 44.6148269]]}}, {"type": "Feature", "properties": {"@id": "way/745633256", "highway": "primary", "surface": "asphalt"}, "geometry": {"type": "LineString", "coordinates": [[33.6083253, 44.6148269], [33.608063, 44.6150729], [33.6078298, 44.6152767], [33.607662, 44.6153931], [33.6072439, 44.6155633], [33.6069483, 44.6156491], [33.6065629, 44.6157421]]}}, {"type": "Feature", "properties": {"@id": "way/784790282", "highway": "secondary", "oneway": "yes", "surface": "asphalt"}, "geometry": {"type": "LineString", "coordinates": [[33.5409924, 44.6324609], [33.5410882, 44.6326377], [33.5411235, 44.6327007], [33.5411781, 44.6328094], [33.5412131, 44.6328839], [33.5412687, 44.6330137], [33.541298, 44.6331043], [33.5413159, 44.6332002]]}}, {"type": "Feature", "properties": {"@id": "way/809071998", "highway": "primary", "surface": "asphalt"}, "geometry": {"type": "LineString", "coordinates": [[33.5903051, 44.6082308], [33.5902873, 44.6081888], [33.5902637, 44.6080438]]}}, {"type": "Feature", "properties": {"@id": "way/826188985", "highway": "primary", "surface": "asphalt"}, "geometry": {"type": "LineString", "coordinates": [[33.5121, 44.5547815], [33.5126614, 44.5542016]]}}, {"type": "Feature", "properties": {"@id": "way/826188987", "highway": "primary", "oneway": "yes", "surface": "asphalt"}, "geometry": {"type": "LineString", "coordinates": [[33.5107721, 44.5556617], [33.5112591, 44.5554817]]}}, {"type": "Feature", "properties": {"@id": "way/833155894", "highway": "primary", "surface": "asphalt"}, "geometry": {"type": "LineString", "coordinates": [[33.5923995, 44.5928648], [33.5923201, 44.5929626], [33.5921183, 44.593211], [33.592065, 44.5932713], [33.5915772, 44.5938224], [33.5915476, 44.5938558], [33.591041, 44.595012], [33.5908283, 44.5953158], [33.5905728, 44.5956455]]}}, {"type": "Feature", "properties": {"@id": "way/833155895", "highway": "primary", "surface": "asphalt"}, "geometry": {"type": "LineString", "coordinates": [[33.5905728, 44.5956455], [33.5905178, 44.5958382], [33.5905409, 44.5960363], [33.590663, 44.596445], [33.5907019, 44.5968074], [33.5906993, 44.597093], [33.5907129, 44.5972468], [33.5908174, 44.597378], [33.591045, 44.597478], [33.591301, 44.5975432], [33.591514, 44.597657], [33.5917642, 44.5978924], [33.5919485, 44.5981608], [33.5919567, 44.5982759], [33.59194, 44.5984215], [33.5918987, 44.5985887], [33.5918369, 44.5987333], [33.5917518, 44.5989278], [33.5917294, 44.5990259], [33.5917294, 44.599076], [33.5917478, 44.5991328], [33.5917825, 44.5991709], [33.5918387, 44.5992046], [33.5919155, 44.5992298], [33.5919955, 44.5992485], [33.5924084, 44.5992505], [33.5926533, 44.5992572], [33.5928452, 44.5992778], [33.5936024, 44.5994651], [33.5939552, 44.5995523], [33.594308, 44.5996658], [33.5945675, 44.5997826], [33.5948269, 44.5999169], [33.595438, 44.6003109], [33.5961402, 44.6006839], [33.5963073, 44.6008051], [33.596456, 44.600935], [33.5967074, 44.6011667], [33.5969418, 44.6014885], [33.5974097, 44.6028096], [33.5974356, 44.6030728], [33.5974168, 44.6032452], [33.5973407, 44.6034079], [33.5972548, 44.6035424], [33.5971636, 44.6036521], [33.5970053, 44.6038425], [33.5966203, 44.604175], [33.5960376, 44.6045435]]}}, {"type": "Feature", "properties": {"@id": "way/901591839", "highway": "primary", "surface": "asphalt"}, "geometry": {"type": "LineString", "coordinates": [[33.4499993, 44.5697638], [33.4535826, 44.568806], [33.4536401, 44.5687906]]}}, {"type": "Feature", "properties": {"@id": "way/935368194", "highway": "primary", "surface": "asphalt"}, "geometry": {"type": "LineString", "coordinates": [[33.4536401, 44.5687906], [33.4543048, 44.5686273], [33.4548135, 44.5685025], [33.4548969, 44.56848]]}}, {"type": "Feature", "properties": {"@id": "way/978650894", "highway": "primary", "surface": "asphalt"}, "geometry": {"type": "LineString", "coordinates": [[33.5167808, 44.5498238], [33.517027, 44.5497451], [33.5173109, 44.5496713], [33.5178768, 44.5496264]]}}, {"type": "Feature", "properties": {"@id": "way/980117369", "highway": "primary", "surface": "asphalt"}, "geometry": {"type": "LineString", "coordinates": [[33.5178768, 44.5496264], [33.5183157, 44.5496188], [33.518587, 44.5496305], [33.5191921, 44.54964]]}}, {"type": "Feature", "properties": {"@id": "way/989734783", "highway": "primary", "oneway": "yes", "surface": "asphalt"}, "geometry": {"type": "LineString", "coordinates": [[33.4672085, 44.5665064], [33.4678048, 44.5663561], [33.468751, 44.566114], [33.4689263, 44.5660703], [33.4702188, 44.5657479], [33.4709832, 44.5655692], [33.4717047, 44.5653667], [33.4722425, 44.5651803], [33.472669, 44.5650179], [33.4732108, 44.5647427], [33.4740047, 44.5642937], [33.474973, 44.5637806], [33.4758179, 44.563321], [33.4764428, 44.5630639], [33.4770316, 44.56289], [33.4775332, 44.5628002], [33.4780307, 44.5627276], [33.4790272, 44.5626683], [33.4806029, 44.5625757], [33.4814197, 44.5625298], [33.4820421, 44.5624576]]}}, {"type": "Feature", "properties": {"@id": "way/989734784", "highway": "primary", "oneway": "yes", "surface": "asphalt"}, "geometry": {"type": "LineString", "coordinates": [[33.5112591, 44.5554817], [33.5115142, 44.5553383], [33.5115819, 44.5552864], [33.5121, 44.5547815]]}}, {"type": "Feature", "properties": {"@id": "way/992398398", "highway": "primary", "surface": "asphalt"}, "geometry": {"type": "LineString", "coordinates": [[33.4447726, 44.5711943], [33.4452026, 44.571069], [33.445348, 44.5710231], [33.4459405, 44.5708447], [33.4492047, 44.5699754], [33.4499993, 44.5697638]]}}, {"type": "Feature", "properties": {"@id": "way/1002086968", "highway": "primary", "surface": "asphalt"}, "geometry": {"type": "LineString", "coordinates": [[33.5651779, 44.6351177], [33.5654012, 44.6350765], [33.5655226, 44.6350541], [33.5657528, 44.6350115]]}}, {"type": "Feature", "properties": {"@id": "way/1002086969", "highway": "primary", "surface": "asphalt"}, "geometry": {"type": "LineString", "coordinates": [[33.5565309, 44.6341578], [33.5567522, 44.6341632], [33.5573191, 44.6342749], [33.5591397, 44.6347249], [33.559298, 44.6347653], [33.5614023, 44.6352642], [33.5616193, 44.6353156], [33.5618663, 44.6353587], [33.5625542, 44.6354609], [33.5630274, 44.6354828], [33.5636617, 44.6354072], [33.5651779, 44.6351177]]}}, {"type": "Feature", "properties": {"@id": "way/1004261294", "highway": "primary", "oneway": "no", "surface": "asphalt"}, "geometry": {"type": "LineString", "coordinates": [[33.5256199, 44.5500257], [33.5258023, 44.5499858], [33.5259216, 44.5499636]]}}, {"type": "Feature", "properties": {"@id": "way/1004261295", "highway": "primary", "oneway": "no", "surface": "asphalt"}, "geometry": {"type": "LineString", "coordinates": [[33.5259216, 44.5499636], [33.5263726, 44.5498365]]}}, {"type": "Feature", "properties": {"@id": "way/1028967312", "highway": "primary", "oneway": "yes", "surface": "asphalt"}, "geometry": {"type": "LineString", "coordinates": [[33.4568193, 44.5678598], [33.4569995, 44.567805], [33.4572436, 44.5677872], [33.4574042, 44.5677755], [33.4575265, 44.5677749], [33.4578109, 44.5677816], [33.4579952, 44.5678385]]}}, {"type": "Feature", "properties": {"@id": "way/1028967313", "highway": "primary", "oneway": "yes", "surface": "asphalt"}, "geometry": {"type": "LineString", "coordinates": [[33.4579952, 44.5678385], [33.4583283, 44.5679573], [33.4586075, 44.56804], [33.4590983, 44.5681212], [33.4596107, 44.5681468], [33.45973, 44.568147]]}}, {"type": "Feature", "properties": {"@id": "way/1029391016", "highway": "primary", "oneway": "yes", "surface": "asphalt"}, "geometry": {"type": "LineString", "coordinates": [[33.4553228, 44.5683419], [33.4560822, 44.5681964], [33.4568193, 44.5678598]]}}, {"type": "Feature", "properties": {"@id": "way/1031081875", "highway": "primary", "surface": "asphalt"}, "geometry": {"type": "LineString", "coordinates": [[33.5155563, 44.5505383], [33.5157265, 44.5503801], [33.515927, 44.550225], [33.5159889, 44.5501905], [33.5160638, 44.5501464], [33.5161709, 44.5500827], [33.5163219, 44.550003], [33.5165436, 44.5499094], [33.5167808, 44.5498238]]}}, {"type": "Feature", "properties": {"@id": "way/1051972793", "highway": "primary", "surface": "asphalt"}, "geometry": {"type": "LineString", "coordinates": [[33.5126614, 44.5542016], [33.5127326, 44.55412]]}}, {"type": "Feature", "properties": {"@id": "way/1051972794", "highway": "primary", "surface": "asphalt"}, "geometry": {"type": "LineString", "coordinates": [[33.5127326, 44.55412], [33.5131824, 44.5536189], [33.5135852, 44.5531385]]}}, {"type": "Feature", "properties": {"@id": "way/1051972795", "highway": "primary", "surface": "asphalt"}, "geometry": {"type": "LineString", "coordinates": [[33.5135852, 44.5531385], [33.5137385, 44.5529362], [33.5138075, 44.5528424], [33.5141057, 44.5524339], [33.5143852, 44.5520528], [33.5145613, 44.5518245], [33.5146795, 44.5516676], [33.5148128, 44.5515093], [33.5152193, 44.5509239], [33.5153121, 44.5507945], [33.5155563, 44.5505383]]}}, {"type": "Feature", "properties": {"@id": "way/1062100695", "highway": "primary", "surface": "asphalt"}, "geometry": {"type": "LineString", "coordinates": [[33.5955979, 44.6088743], [33.5946901, 44.6093519], [33.5945422, 44.6094189], [33.5943112, 44.6094923], [33.5941649, 44.6095169], [33.5939392, 44.6094876], [33.5935415, 44.6093204]]}}, {"type": "Feature", "properties": {"@id": "way/1077490941", "highway": "primary", "surface": "asphalt"}, "geometry": {"type": "LineString", "coordinates": [[33.5747407, 44.6347125], [33.5754168, 44.6346318], [33.5764253, 44.6345115], [33.5765126, 44.6345011], [33.5770087, 44.6344803], [33.5776173, 44.6345229], [33.5787045, 44.6346084], [33.5794543, 44.6346601], [33.5801243, 44.6347069], [33.5803414, 44.6347227], [33.5804731, 44.6347375], [33.5806106, 44.6347525], [33.5812009, 44.6348114], [33.5813912, 44.634842], [33.5816198, 44.6348836], [33.5819952, 44.6349872], [33.5821438, 44.6350515], [33.5822748, 44.6351082], [33.5842199, 44.6361537], [33.5844098, 44.6362689], [33.5846012, 44.6363986], [33.5858982, 44.6374058]]}}, {"type": "Feature", "properties": {"@id": "way/1160112412", "highway": "primary", "surface": "asphalt"}, "geometry": {"type": "LineString", "coordinates": [[33.5821308, 44.5751523], [33.5823427, 44.5752216], [33.5823905, 44.5752326]]}}, {"type": "Feature", "properties": {"@id": "way/1221936300", "highway": "primary", "surface": "asphalt"}, "geometry": {"type": "LineString", "coordinates": [[33.5823905, 44.5752326], [33.5829321, 44.5752944]]}}, {"type": "Feature", "properties": {"@id": "way/1221936301", "highway": "primary", "surface": "asphalt"}, "geometry": {"type": "LineString", "coordinates": [[33.5829321, 44.5752944], [33.5829794, 44.5752993], [33.5831121, 44.575313], [33.5838021, 44.5753844], [33.5842245, 44.575443]]}}, {"type": "Feature", "properties": {"@id": "way/1308884340", "highway": "primary", "oneway": "yes", "surface": "asphalt"}, "geometry": {"type": "LineString", "coordinates": [[33.5001898, 44.5544341], [33.5011809, 44.5539935], [33.5028251, 44.5532137], [33.503041, 44.5531258], [33.5033011, 44.5530264], [33.5034393, 44.5529958], [33.5036351, 44.5529576], [33.5038604, 44.5529404], [33.5041219, 44.5529328], [33.5044263, 44.5529633], [33.5048327, 44.5530579], [33.5051572, 44.5531956], [33.5056253, 44.5534307], [33.5062864, 44.5537814], [33.5065721, 44.5539305], [33.507299, 44.5543414], [33.5085449, 44.5550725], [33.5091363, 44.5554194], [33.5094595, 44.5555558], [33.5098119, 44.5556459], [33.5101202, 44.5556909], [33.5104821, 44.5556971], [33.5107721, 44.5556617]]}}, {"type": "Feature", "properties": {"@id": "way/1308884341", "highway": "primary", "oneway": "yes", "surface": "asphalt"}, "geometry": {"type": "LineString", "coordinates": [[33.4989224, 44.5550486], [33.5001898, 44.5544341]]}}, {"type": "Feature", "properties": {"@id": "way/1310783938", "highway": "secondary", "oneway": "no", "surface": "asphalt"}, "geometry": {"type": "LineString", "coordinates": [[33.438787, 44.5703827], [33.4393235, 44.5707451], [33.4396468, 44.5710394], [33.4398101, 44.5714076], [33.4400039, 44.5723959], [33.4400931, 44.5728148], [33.4401638, 44.5729847], [33.4402964, 44.5731314]]}}, {"type": "Feature", "properties": {"@id": "way/1373258623", "highway": "primary", "oneway": "no", "surface": "asphalt"}, "geometry": {"type": "LineString", "coordinates": [[33.574321, 44.5679328], [33.5743596, 44.5678898]]}}, {"type": "Feature", "properties": {"@id": "way/1373259000", "highway": "primary", "oneway": "no", "surface": "asphalt"}, "geometry": {"type": "LineString", "coordinates": [[33.5743596, 44.5678898], [33.5744005, 44.5678442]]}}, {"type": "Feature", "properties": {"@id": "way/1394088618", "highway": "primary", "surface": "asphalt"}, "geometry": {"type": "LineString", "coordinates": [[33.5842245, 44.575443], [33.5848606, 44.5756072], [33.5853776, 44.5757721]]}}, {"type": "Feature", "properties": {"@id": "way/1394088619", "highway": "primary", "surface": "asphalt"}, "geometry": {"type": "LineString", "coordinates": [[33.5853776, 44.5757721], [33.5855605, 44.5758895], [33.5857548, 44.5760317], [33.5861381, 44.5764061], [33.586833, 44.5771812], [33.5869191, 44.5772798], [33.5871297, 44.5775208], [33.5873571, 44.5777812], [33.5875541, 44.5780067], [33.5875785, 44.5780345], [33.5877387, 44.5782179], [33.5880997, 44.5786312], [33.5884174, 44.5789883], [33.5885913, 44.5791799], [33.5886068, 44.579197], [33.5886939, 44.5792993], [33.5890675, 44.5797385], [33.589108, 44.579784], [33.589423, 44.580266], [33.5899274, 44.5812584], [33.5899834, 44.5814124], [33.5902396, 44.5819313], [33.5903369, 44.5821409], [33.5912596, 44.5841276], [33.5913533, 44.5843293], [33.5914781, 44.5845979], [33.5916731, 44.5850178], [33.5917354, 44.5851519], [33.5920274, 44.5857472], [33.5924256, 44.586696], [33.5924642, 44.5867844]]}}, {"type": "Feature", "properties": {"@id": "way/1409392471", "highway": "primary", "oneway": "yes", "surface": "asphalt"}, "geometry": {"type": "LineString", "coordinates": [[33.4820421, 44.5624576], [33.4825794, 44.5623703], [33.4831025, 44.5622659], [33.4834229, 44.5621753], [33.483839, 44.5620473], [33.4841642, 44.5619172], [33.4845536, 44.5617513], [33.4846254, 44.561723], [33.4850098, 44.5615418], [33.4856227, 44.561258], [33.4860894, 44.5610191], [33.486371, 44.5608471], [33.4866272, 44.5606866], [33.4868778, 44.5604841], [33.487625, 44.5598056], [33.4880421, 44.5595046], [33.4883103, 44.5593345], [33.4886429, 44.5591653], [33.4890273, 44.5590044], [33.489761, 44.5587458], [33.490368, 44.5585469], [33.4909566, 44.5583641], [33.4921466, 44.5579691], [33.4928622, 44.5577483], [33.4930909, 44.5576754], [33.494297, 44.5572542], [33.4953396, 44.5567975], [33.4957946, 44.5565852], [33.4960924, 44.5564397], [33.497078, 44.5559581], [33.4978619, 44.5555839], [33.4989224, 44.5550486]]}}, {"type": "Feature", "properties": {"@id": "way/1445710740", "highway": "primary", "oneway": "yes", "surface": "asphalt"}, "geometry": {"type": "LineString", "coordinates": [[33.5213886, 44.5497302], [33.5218283, 44.5497673], [33.5219956, 44.5497772]]}}, {"type": "Feature", "properties": {"@id": "way/1465118907", "highway": "primary", "oneway": "yes"}, "geometry": {"type": "LineString", "coordinates": [[33.6042671, 44.6398362], [33.6039416, 44.6394598], [33.6038631, 44.639393], [33.6037783, 44.6393502], [33.6036104, 44.6393086], [33.6035103, 44.6393075], [33.6031535, 44.6393312], [33.6034502, 44.6392494], [33.6035426, 44.6392012], [33.603595, 44.6391277], [33.603615, 44.639028], [33.6035888, 44.6389337], [33.6035318, 44.6388318], [33.6034106, 44.6385339]]}}, {"type": "Feature", "properties": {"@id": "way/1465119110", "highway": "primary", "surface": "asphalt"}, "geometry": {"type": "LineString", "coordinates": [[33.6009298, 44.6058724], [33.6010627, 44.6058589]]}}, {"type": "Feature", "properties": {"@id": "way/1466172374", "highway": "primary", "surface": "asphalt"}, "geometry": {"type": "LineString", "coordinates": [[33.5524084, 44.6351789], [33.5524502, 44.6351666], [33.5540031, 44.6347096], [33.5541571, 44.6346618], [33.5549513, 44.634423], [33.5552425, 44.634364], [33.5554977, 44.6343109], [33.5559054, 44.6342476], [33.5563047, 44.6341903], [33.5565309, 44.6341578]]}}, {"type": "Feature", "properties": {"@id": "way/1494149315", "highway": "primary", "surface": "asphalt"}, "geometry": {"type": "LineString", "coordinates": [[33.572937, 44.5724221], [33.5730667, 44.5724279], [33.5744852, 44.5724813], [33.5745437, 44.5724835], [33.5745665, 44.5724844], [33.5750326, 44.572502], [33.5759013, 44.5725634], [33.5767519, 44.5726566], [33.57764, 44.5727756], [33.5780589, 44.5728316], [33.578339, 44.5728902], [33.5784987, 44.5729356], [33.5786099, 44.5729673], [33.5788436, 44.5730671], [33.579064, 44.5731782], [33.579508, 44.5734463]]}}, {"type": "Feature", "properties": {"@id": "way/1500807621", "highway": "primary", "oneway": "no", "surface": "asphalt"}, "geometry": {"type": "LineString", "coordinates": [[33.5305013, 44.5496945], [33.5292334, 44.5494062]]}}]}