{"type": "FeatureCollection", "features": [{"type": "Feature", "properties": {"@id": "way/24444268", "highway": "primary", "oneway": "yes", "surface": "asphalt"}, "geometry": {"type": "LineString", "coordinates": [[33.4876174, 44.5915139], [33.4876553, 44.5915151], [33.4878509, 44.5915188]]}}, {"type": "Feature", "properties": {"@id": "way/24444319", "highway": "primary", "oneway": "yes", "surface": "asphalt"}, "geometry": {"type": "LineString", "coordinates": [[33.5086988, 44.5878994], [33.5087492, 44.5878694], [33.5090495, 44.5876908], [33.5107902, 44.5868295], [33.5109822, 44.5867345], [33.5115369, 44.5864784], [33.5116871, 44.5864133], [33.514037, 44.586527]]}}, {"type": "Feature", "properties": {"@id": "way/24733766", "highway": "primary", "oneway": "yes", "surface": "asphalt"}, "geometry": {"type": "LineString", "coordinates": [[33.5169677, 44.5866452], [33.517188, 44.5866799]]}}, {"type": "Feature", "properties": {"@id": "way/24816311", "highway": "trunk", "oneway": "yes", "surface": "asphalt"}, "geometry": {"type": "LineString", "coordinates": [[33.6130827, 44.5795754], [33.6129919, 44.5791063], [33.6129038, 44.5785783], [33.6126922, 44.5776018]]}}, {"type": "Feature", "properties": {"@id": "way/27792983", "highway": "primary", "oneway": "yes", "surface": "asphalt"}, "geometry": {"type": "LineString", "coordinates": [[33.517188, 44.5866799], [33.5173474, 44.5870249]]}}, {"type": "Feature", "properties": {"@id": "way/27792984", "highway": "primary", "surface": "asphalt"}, "geometry": {"type": "LineString", "coordinates": [[33.5178734, 44.5872337], [33.5184642, 44.5872682], [33.5188051, 44.5873007]]}}, {"type": "Feature", "properties": {"@id": "way/27803551", "highway": "primary", "oneway": "yes", "surface": "asphalt"}, "geometry": {"type": "LineString", "coordinates": [[33.5298139, 44.5939857], [33.5295947, 44.594257]]}}, {"type": "Feature", "properties": {"@id": "way/27803554", "highway": "primary", "oneway": "no", "surface": "asphalt"}, "geometry": {"type": "LineString", "coordinates": [[33.5319885, 44.5955146], [33.5320017, 44.5954207], [33.53201, 44.5953614], [33.5320481, 44.5950909]]}}, {"type": "Feature", "properties": {"@id": "way/27872501", "highway": "primary", "oneway": "yes", "surface": "asphalt"}, "geometry": {"type": "LineString", "coordinates": [[33.4871381, 44.59152], [33.4876174, 44.5915139]]}}, {"type": "Feature", "properties": {"@id": "way/27872502", "highway": "primary", "oneway": "yes", "surface": "asphalt"}, "geometry": {"type": "LineString", "coordinates": [[33.4844454, 44.591002], [33.485359, 44.5912789]]}}, {"type": "Feature", "properties": {"@id": "way/129767277", "highway": "trunk", "oneway": "yes", "surface": "asphalt"}, "geometry": {"type": "LineString", "coordinates": [[33.6105894, 44.5705032], [33.6103036, 44.5698846], [33.6101303, 44.5695093], [33.609792, 44.5689291], [33.6096668, 44.5687144], [33.609165, 44.5680832], [33.6090015, 44.5678776], [33.6088993, 44.5677713], [33.6080767, 44.5669157]]}}, {"type": "Feature", "properties": {"@id": "way/129767279", "highway": "trunk", "oneway": "yes", "surface": "asphalt"}, "geometry": {"type": "LineString", "coordinates": [[33.6131056, 44.579702], [33.6130827, 44.5795754]]}}, {"type": "Feature", "properties": {"@id": "way/201624530", "highway": "primary_link", "oneway": "yes", "surface": "asphalt"}, "geometry": {"type": "LineString", "coordinates": [[33.5154882, 44.5850221], [33.5153906, 44.5849753], [33.5152745, 44.5849614], [33.5151608, 44.5849829], [33.5150697, 44.585036], [33.5150175, 44.5851111]]}}, {"type": "Feature", "properties": {"@id": "way/201626455", "highway": "primary", "surface": "asphalt"}, "geometry": {"type": "LineString", "coordinates": [[33.5162079, 44.5864577], [33.5154964, 44.5850385], [33.5154882, 44.5850221]]}}, {"type": "Feature", "properties": {"@id": "way/201627133", "highway": "primary", "surface": "asphalt"}, "geometry": {"type": "LineString", "coordinates": [[33.5169677, 44.5866452], [33.5166666, 44.5866182]]}}, {"type": "Feature", "properties": {"@id": "way/218815158", "highway": "primary", "oneway": "yes", "surface": "asphalt"}, "geometry": {"type": "LineString", "coordinates": [[33.5795291, 44.5615827], [33.5796255, 44.5615644], [33.5797405, 44.5615573], [33.5798413, 44.5615678], [33.5799271, 44.5615953], [33.5800042, 44.5616325], [33.5800687, 44.5616937], [33.5801037, 44.5617471], [33.5801217, 44.5618103], [33.5801204, 44.5618725], [33.5800995, 44.5619405], [33.5800474, 44.5620099], [33.5799839, 44.5620656], [33.579896, 44.562108], [33.5798026, 44.5621293], [33.5797071, 44.5621366]]}}, {"type": "Feature", "properties": {"@id": "way/229398515", "highway": "secondary", "oneway": "yes", "surface": "asphalt"}, "geometry": {"type": "LineString", "coordinates": [[33.5564927, 44.5806366], [33.5566029, 44.5805191], [33.5569594, 44.5801531], [33.557106, 44.5799262], [33.5571649, 44.5796243], [33.5571822, 44.579506], [33.5572643, 44.5793175], [33.5574164, 44.5791694], [33.5585715, 44.5787051], [33.5594396, 44.5783634], [33.559638, 44.5783405], [33.5599184, 44.5783884], [33.5601785, 44.5784286], [33.5604736, 44.57844], [33.5608289, 44.5784398], [33.5611133, 44.5784092], [33.5613763, 44.5783634], [33.5615263, 44.5782965], [33.5616444, 44.5782239], [33.5617975, 44.5780969], [33.5625348, 44.5775075], [33.5627172, 44.5773393], [33.5630927, 44.5770413], [33.5635863, 44.5768158], [33.5638896, 44.5767037], [33.5644982, 44.5764681], [33.5648201, 44.5762923], [33.5656516, 44.5756848], [33.5659976, 44.5753861], [33.5662141, 44.5751039], [33.5663167, 44.5749702], [33.5665528, 44.5745919], [33.566729, 44.5742424], [33.5668532, 44.5739958], [33.567088, 44.5735478], [33.56731, 44.5731956], [33.5675559, 44.5728723], [33.5678324, 44.5725265], [33.5679759, 44.5723803], [33.5680872, 44.5722944], [33.568161, 44.5722495], [33.5682361, 44.5722246], [33.5683259, 44.5722179], [33.5684265, 44.5722122], [33.5686626, 44.5722256]]}}, {"type": "Feature", "properties": {"@id": "way/229398534", "highway": "secondary", "surface": "asphalt"}, "geometry": {"type": "LineString", "coordinates": [[33.5322891, 44.595821], [33.5323639, 44.5958456], [33.5324492, 44.5958736], [33.5325337, 44.5958902], [33.5326337, 44.5959098], [33.5328235, 44.595915], [33.5335938, 44.5958725], [33.5337014, 44.5958572], [33.5342912, 44.5957732], [33.5348598, 44.5957121], [33.5359702, 44.5955364], [33.5367105, 44.5953683], [33.537526, 44.5950345], [33.5387724, 44.594471], [33.5389143, 44.5944068], [33.5395874, 44.5940858], [33.5400544, 44.5938365], [33.540943, 44.5933437], [33.5415708, 44.5929257], [33.5420836, 44.5926057], [33.5427669, 44.5922321], [33.5431239, 44.5920071], [33.5432337, 44.5919379], [33.5436521, 44.5916056], [33.5437158, 44.5915498], [33.5439096, 44.5913802], [33.544222, 44.5909888], [33.5444192, 44.5905626], [33.5446177, 44.5901271], [33.5448644, 44.5897871], [33.5451293, 44.589548], [33.5452707, 44.5893479], [33.5453848, 44.5890995], [33.5455417, 44.5887425], [33.5458188, 44.5883504], [33.5461124, 44.5881688], [33.5465059, 44.5879823], [33.5468752, 44.5877572], [33.5472887, 44.5874383], [33.5477049, 44.5870545], [33.5479543, 44.586792]]}}, {"type": "Feature", "properties": {"@id": "way/229406891", "highway": "primary", "oneway": "no", "surface": "asphalt"}, "geometry": {"type": "LineString", "coordinates": [[33.5709133, 44.5718007], [33.5714567, 44.5711751], [33.5716887, 44.5709172]]}}, {"type": "Feature", "properties": {"@id": "way/233485308", "highway": "primary", "oneway": "yes", "surface": "asphalt"}, "geometry": {"type": "LineString", "coordinates": [[33.5312302, 44.5938095], [33.5308517, 44.5937211], [33.5307025, 44.593704], [33.5305584, 44.5936979], [33.5302959, 44.5937149]]}}, {"type": "Feature", "properties": {"@id": "way/265714006", "highway": "primary", "surface": "asphalt"}, "geometry": {"type": "LineString", "coordinates": [[33.4891121, 44.5915821], [33.4908452, 44.5916555]]}}, {"type": "Feature", "properties": {"@id": "way/291536895", "highway": "primary", "oneway": "no", "surface": "asphalt"}, "geometry": {"type": "LineString", "coordinates": [[33.5829703, 44.5582205], [33.5805854, 44.5608973], [33.5805169, 44.5609742], [33.580122, 44.5613824]]}}, {"type": "Feature", "properties": {"@id": "way/301445398", "highway": "primary", "oneway": "no", "surface": "asphalt"}, "geometry": {"type": "LineString", "coordinates": [[33.5320481, 44.5950909], [33.5320514, 44.595017]]}}, {"type": "Feature", "properties": {"@id": "way/318559008", "highway": "primary", "oneway": "yes", "surface": "asphalt"}, "geometry": {"type": "LineString", "coordinates": [[33.5290728, 44.5944632], [33.5285866, 44.5945243]]}}, {"type": "Feature", "properties": {"@id": "way/318559011", "highway": "primary", "oneway": "yes", "surface": "asphalt"}, "geometry": {"type": "LineString", "coordinates": [[33.5295947, 44.594257], [33.5294926, 44.5943355], [33.5294072, 44.5943819], [33.5292803, 44.5944297], [33.5292479, 44.5944419]]}}, {"type": "Feature", "properties": {"@id": "way/349459660", "highway": "primary", "surface": "asphalt"}, "geometry": {"type": "LineString", "coordinates": [[33.4829134, 44.5901362], [33.4837293, 44.5906064]]}}, {"type": "Feature", "properties": {"@id": "way/367713590", "highway": "primary", "surface": "concrete"}, "geometry": {"type": "LineString", "coordinates": [[33.5279252, 44.594362], [33.5277656, 44.5942267], [33.5276352, 44.5941187]]}}, {"type": "Feature", "properties": {"@id": "way/367898573", "highway": "primary", "oneway": "yes", "surface": "asphalt"}, "geometry": {"type": "LineString", "coordinates": [[33.530234, 44.5937294], [33.5300098, 44.5938512], [33.5298139, 44.5939857]]}}, {"type": "Feature", "properties": {"@id": "way/368112011", "highway": "primary", "surface": "asphalt"}, "geometry": {"type": "LineString", "coordinates": [[33.4779474, 44.5863474], [33.4779306, 44.5860683]]}}, {"type": "Feature", "properties": {"@id": "way/368112053", "highway": "primary", "oneway": "yes", "surface": "asphalt"}, "geometry": {"type": "LineString", "coordinates": [[33.4861947, 44.5914548], [33.4862644, 44.5914702], [33.4867517, 44.5915059], [33.4868188, 44.5915108], [33.4870297, 44.5915162], [33.4871381, 44.59152]]}}, {"type": "Feature", "properties": {"@id": "way/403624517", "highway": "primary", "surface": "asphalt"}, "geometry": {"type": "LineString", "coordinates": [[33.4965896, 44.591861], [33.4975937, 44.5919027]]}}, {"type": "Feature", "properties": {"@id": "way/403858157", "highway": "primary", "surface": "asphalt"}, "geometry": {"type": "LineString", "coordinates": [[33.4975937, 44.5919027], [33.4977237, 44.5919082]]}}, {"type": "Feature", "properties": {"@id": "way/406120137", "highway": "primary", "surface": "asphalt"}, "geometry": {"type": "LineString", "coordinates": [[33.4803785, 44.5886861], [33.4797365, 44.5883316], [33.479372, 44.5881304], [33.4792294, 44.5880517]]}}, {"type": "Feature", "properties": {"@id": "way/406120248", "highway": "primary", "surface": "asphalt"}, "geometry": {"type": "LineString", "coordinates": [[33.4778481, 44.5857042], [33.477886, 44.5858581], [33.4779306, 44.5860683]]}}, {"type": "Feature", "properties": {"@id": "way/406120249", "highway": "primary", "surface": "asphalt"}, "geometry": {"type": "LineString", "coordinates": [[33.4759067, 44.584469], [33.4763723, 44.584635], [33.4765887, 44.5847321], [33.4767183, 44.5847902]]}}, {"type": "Feature", "properties": {"@id": "way/406120871", "highway": "primary", "surface": "asphalt"}, "geometry": {"type": "LineString", "coordinates": [[33.5009543, 44.5916275], [33.5012195, 44.5915542], [33.501493, 44.5914727], [33.5018088, 44.5913671]]}}, {"type": "Feature", "properties": {"@id": "way/406121489", "highway": "primary", "surface": "asphalt"}, "geometry": {"type": "LineString", "coordinates": [[33.5041591, 44.5902286], [33.5053074, 44.5896563], [33.5054204, 44.5896005]]}}, {"type": "Feature", "properties": {"@id": "way/406553021", "highway": "primary", "oneway": "no", "surface": "asphalt"}, "geometry": {"type": "LineString", "coordinates": [[33.5320419, 44.5948354], [33.5320144, 44.5947471], [33.5319514, 44.5946172], [33.5318442, 44.5944468], [33.5316995, 44.5942166]]}}, {"type": "Feature", "properties": {"@id": "way/406563312", "highway": "primary", "oneway": "no", "surface": "asphalt"}, "geometry": {"type": "LineString", "coordinates": [[33.4779474, 44.5863474], [33.4781001, 44.5869035], [33.4782303, 44.5872193], [33.4784468, 44.5875382], [33.4785803, 44.5876621], [33.4787223, 44.5877584], [33.4788036, 44.587808], [33.4789314, 44.587886], [33.4791299, 44.5879963], [33.4792294, 44.5880517]]}}, {"type": "Feature", "properties": {"@id": "way/406569924", "highway": "primary", "surface": "asphalt"}, "geometry": {"type": "LineString", "coordinates": [[33.4803785, 44.5886861], [33.4819854, 44.5896028], [33.4829134, 44.5901362]]}}, {"type": "Feature", "properties": {"@id": "way/406642312", "highway": "primary", "surface": "asphalt"}, "geometry": {"type": "LineString", "coordinates": [[33.5018088, 44.5913671], [33.5023235, 44.5911593]]}}, {"type": "Feature", "properties": {"@id": "way/409183969", "highway": "primary", "surface": "asphalt"}, "geometry": {"type": "LineString", "coordinates": [[33.4767183, 44.5847902], [33.477068, 44.5849852]]}}, {"type": "Feature", "properties": {"@id": "way/414683979", "highway": "primary", "surface": "asphalt"}, "geometry": {"type": "LineString", "coordinates": [[33.5054204, 44.5896005], [33.5055151, 44.5895494], [33.5057065, 44.5894512], [33.5059543, 44.589325], [33.5061156, 44.5892429]]}}, {"type": "Feature", "properties": {"@id": "way/414684191", "highway": "primary", "surface": "asphalt"}, "geometry": {"type": "LineString", "coordinates": [[33.5061156, 44.5892429], [33.5067438, 44.5889209]]}}, {"type": "Feature", "properties": {"@id": "way/414684511", "highway": "primary", "surface": "asphalt"}, "geometry": {"type": "LineString", "coordinates": [[33.5067438, 44.5889209], [33.5074236, 44.5885785], [33.5082673, 44.5881292]]}}, {"type": "Feature", "properties": {"@id": "way/429350736", "highway": "primary", "surface": "concrete"}, "geometry": {"type": "LineString", "coordinates": [[33.5216534, 44.5879638], [33.5214476, 44.5877634], [33.5212571, 44.58751], [33.5212176, 44.5874708]]}}, {"type": "Feature", "properties": {"@id": "way/442231998", "highway": "primary", "oneway": "yes", "surface": "asphalt"}, "geometry": {"type": "LineString", "coordinates": [[33.5797405, 44.5615573], [33.5799173, 44.5615026], [33.5799876, 44.5614714], [33.580122, 44.5613824]]}}, {"type": "Feature", "properties": {"@id": "way/442231999", "highway": "primary", "oneway": "yes", "surface": "asphalt"}, "geometry": {"type": "LineString", "coordinates": [[33.5792642, 44.5623468], [33.5793202, 44.5622394], [33.5793477, 44.5621653], [33.579356, 44.5620945], [33.5793443, 44.5619797]]}}, {"type": "Feature", "properties": {"@id": "way/462789118", "highway": "primary", "oneway": "yes", "surface": "asphalt"}, "geometry": {"type": "LineString", "coordinates": [[33.5145553, 44.5865697], [33.5146309, 44.5865548], [33.5147194, 44.586526]]}}, {"type": "Feature", "properties": {"@id": "way/462789121", "highway": "primary", "oneway": "no", "surface": "asphalt"}, "geometry": {"type": "LineString", "coordinates": [[33.5147194, 44.586526], [33.5149429, 44.5854158], [33.5150109, 44.5851381], [33.5150175, 44.5851111]]}}, {"type": "Feature", "properties": {"@id": "way/472675147", "highway": "primary", "oneway": "no", "surface": "asphalt"}, "geometry": {"type": "LineString", "coordinates": [[33.5784013, 44.5633282], [33.5790975, 44.5625283], [33.5792642, 44.5623468]]}}, {"type": "Feature", "properties": {"@id": "way/472675148", "highway": "primary", "oneway": "no", "surface": "asphalt"}, "geometry": {"type": "LineString", "coordinates": [[33.5781418, 44.5636188], [33.5784013, 44.5633282]]}}, {"type": "Feature", "properties": {"@id": "way/472675149", "highway": "primary", "oneway": "no", "surface": "asphalt"}, "geometry": {"type": "LineString", "coordinates": [[33.5777027, 44.5641119], [33.5781418, 44.5636188]]}}, {"type": "Feature", "properties": {"@id": "way/472675150", "highway": "primary", "oneway": "no", "surface": "asphalt"}, "geometry": {"type": "LineString", "coordinates": [[33.5772738, 44.5645983], [33.5777027, 44.5641119]]}}, {"type": "Feature", "properties": {"@id": "way/472675151", "highway": "primary", "surface": "asphalt"}, "geometry": {"type": "LineString", "coordinates": [[33.5769014, 44.565017], [33.577, 44.5649053], [33.5772738, 44.5645983]]}}, {"type": "Feature", "properties": {"@id": "way/472675153", "highway": "primary", "surface": "asphalt"}, "geometry": {"type": "LineString", "coordinates": [[33.5761336, 44.5658942], [33.5762406, 44.5657722], [33.576341, 44.5656576], [33.5769014, 44.565017]]}}, {"type": "Feature", "properties": {"@id": "way/472675154", "highway": "primary", "oneway": "no", "surface": "asphalt"}, "geometry": {"type": "LineString", "coordinates": [[33.57562, 44.5664691], [33.5758396, 44.5662233], [33.5759457, 44.5661045], [33.5760789, 44.5659555], [33.5761336, 44.5658942]]}}, {"type": "Feature", "properties": {"@id": "way/472675156", "highway": "primary", "oneway": "no", "surface": "asphalt"}, "geometry": {"type": "LineString", "coordinates": [[33.5751144, 44.5670522], [33.57562, 44.5664691]]}}, {"type": "Feature", "properties": {"@id": "way/472675158", "highway": "primary", "oneway": "no", "surface": "asphalt"}, "geometry": {"type": "LineString", "coordinates": [[33.5748359, 44.567362], [33.5751144, 44.5670522]]}}, {"type": "Feature", "properties": {"@id": "way/472675166", "highway": "primary", "oneway": "no", "surface": "asphalt"}, "geometry": {"type": "LineString", "coordinates": [[33.5744005, 44.5678442], [33.5748359, 44.567362]]}}, {"type": "Feature", "properties": {"@id": "way/472675169", "highway": "primary", "oneway": "no", "surface": "asphalt"}, "geometry": {"type": "LineString", "coordinates": [[33.5739901, 44.5683019], [33.574321, 44.5679328]]}}, {"type": "Feature", "properties": {"@id": "way/472675172", "highway": "primary", "oneway": "no", "surface": "asphalt"}, "geometry": {"type": "LineString", "coordinates": [[33.5736027, 44.5687465], [33.5738268, 44.5684893], [33.5739901, 44.5683019]]}}, {"type": "Feature", "properties": {"@id": "way/472675174", "highway": "primary", "oneway": "no", "surface": "asphalt"}, "geometry": {"type": "LineString", "coordinates": [[33.5728986, 44.5695281], [33.5730011, 44.5694143], [33.5735853, 44.5687651], [33.5736027, 44.5687465]]}}, {"type": "Feature", "properties": {"@id": "way/482565672", "highway": "primary", "oneway": "yes", "surface": "asphalt"}, "geometry": {"type": "LineString", "coordinates": [[33.5705299, 44.5720884], [33.5706667, 44.5720149], [33.5707433, 44.5719618], [33.570811, 44.5719047], [33.5709133, 44.5718007]]}}, {"type": "Feature", "properties": {"@id": "way/502501486", "highway": "secondary", "oneway": "yes", "surface": "asphalt"}, "geometry": {"type": "LineString", "coordinates": [[33.5697319, 44.5723009], [33.5699029, 44.5723006], [33.5700102, 44.5722952], [33.5701062, 44.5722815], [33.570176, 44.5722606], [33.5702328, 44.5722318], [33.5703705, 44.5721743]]}}, {"type": "Feature", "properties": {"@id": "way/502501487", "highway": "secondary", "oneway": "no", "surface": "asphalt"}, "geometry": {"type": "LineString", "coordinates": [[33.5692456, 44.5722633], [33.5696943, 44.5722981], [33.5697319, 44.5723009]]}}, {"type": "Feature", "properties": {"@id": "way/519541670", "highway": "primary", "oneway": "no", "surface": "asphalt"}, "geometry": {"type": "LineString", "coordinates": [[33.4741541, 44.5838806], [33.47454, 44.5839993], [33.4752291, 44.5842357]]}}, {"type": "Feature", "properties": {"@id": "way/529473978", "highway": "primary", "oneway": "yes", "surface": "asphalt"}, "geometry": {"type": "LineString", "coordinates": [[33.5292479, 44.5944419], [33.5290728, 44.5944632]]}}, {"type": "Feature", "properties": {"@id": "way/529473981", "highway": "primary", "oneway": "yes", "surface": "asphalt"}, "geometry": {"type": "LineString", "coordinates": [[33.5285866, 44.5945243], [33.528362, 44.5945349], [33.5283194, 44.5945344], [33.528292, 44.5945325]]}}, {"type": "Feature", "properties": {"@id": "way/529502368", "highway": "trunk", "oneway": "yes", "surface": "asphalt"}, "geometry": {"type": "LineString", "coordinates": [[33.5942454, 44.542469], [33.5941198, 44.5424634], [33.5939894, 44.5424511], [33.5938185, 44.5423799], [33.5936875, 44.5422822], [33.5936584, 44.5422354], [33.5936242, 44.5421641], [33.5936001, 44.5420408]]}}, {"type": "Feature", "properties": {"@id": "way/530198295", "highway": "primary", "surface": "asphalt"}, "geometry": {"type": "LineString", "coordinates": [[33.4708279, 44.5848348], [33.4709803, 44.5845105]]}}, {"type": "Feature", "properties": {"@id": "way/530198296", "highway": "primary", "surface": "asphalt"}, "geometry": {"type": "LineString", "coordinates": [[33.4752291, 44.5842357], [33.4759067, 44.584469]]}}, {"type": "Feature", "properties": {"@id": "way/530198297", "highway": "primary", "surface": "asphalt"}, "geometry": {"type": "LineString", "coordinates": [[33.477068, 44.5849852], [33.4773847, 44.5852025]]}}, {"type": "Feature", "properties": {"@id": "way/530198298", "highway": "primary", "surface": "asphalt"}, "geometry": {"type": "LineString", "coordinates": [[33.4773847, 44.5852025], [33.4775656, 44.5853435], [33.4776941, 44.5854732], [33.4778481, 44.5857042]]}}, {"type": "Feature", "properties": {"@id": "way/530198299", "highway": "primary", "surface": "asphalt"}, "geometry": {"type": "LineString", "coordinates": [[33.4909176, 44.5916586], [33.4909434, 44.5916593]]}}, {"type": "Feature", "properties": {"@id": "way/530198300", "highway": "primary", "surface": "asphalt"}, "geometry": {"type": "LineString", "coordinates": [[33.491913, 44.5916834], [33.492303, 44.5916932]]}}, {"type": "Feature", "properties": {"@id": "way/530198311", "highway": "primary", "surface": "asphalt"}, "geometry": {"type": "LineString", "coordinates": [[33.4696959, 44.5862424], [33.4699048, 44.5860687], [33.470074, 44.5859212], [33.4702349, 44.5857437], [33.470408, 44.5855224], [33.4705295, 44.5853578], [33.4706287, 44.5852102]]}}, {"type": "Feature", "properties": {"@id": "way/530198312", "highway": "primary", "surface": "asphalt"}, "geometry": {"type": "LineString", "coordinates": [[33.4691613, 44.5866047], [33.4694728, 44.5863953]]}}, {"type": "Feature", "properties": {"@id": "way/543524756", "highway": "primary", "surface": "asphalt"}, "geometry": {"type": "LineString", "coordinates": [[33.4694728, 44.5863953], [33.4696959, 44.5862424]]}}, {"type": "Feature", "properties": {"@id": "way/545456252", "highway": "primary", "surface": "asphalt"}, "geometry": {"type": "LineString", "coordinates": [[33.4977237, 44.5919082], [33.4985774, 44.5919056], [33.4986512, 44.5919057], [33.4990189, 44.5918961], [33.4993643, 44.5918761], [33.4993911, 44.5918736], [33.4994677, 44.5918663], [33.4995311, 44.5918603], [33.4997072, 44.5918436], [33.5000703, 44.5917995], [33.5003951, 44.5917498], [33.5009543, 44.5916275]]}}, {"type": "Feature", "properties": {"@id": "way/547818708", "highway": "primary", "surface": "asphalt"}, "geometry": {"type": "LineString", "coordinates": [[33.4909434, 44.5916593], [33.4913543, 44.5916696], [33.4916306, 44.5916764], [33.4917285, 44.5916788], [33.491913, 44.5916834]]}}, {"type": "Feature", "properties": {"@id": "way/551912145", "highway": "primary", "surface": "asphalt"}, "geometry": {"type": "LineString", "coordinates": [[33.5166666, 44.5866182], [33.5164466, 44.5865828], [33.5163519, 44.5865573], [33.5162703, 44.5865146], [33.5162079, 44.5864577]]}}, {"type": "Feature", "properties": {"@id": "way/551916675", "highway": "primary", "surface": "asphalt"}, "geometry": {"type": "LineString", "coordinates": [[33.5188051, 44.5873007], [33.5189415, 44.5873098], [33.5190657, 44.5873176], [33.5193342, 44.5873324]]}}, {"type": "Feature", "properties": {"@id": "way/553905939", "highway": "primary", "oneway": "no", "surface": "asphalt"}, "geometry": {"type": "LineString", "coordinates": [[33.5316995, 44.5942166], [33.5315573, 44.5940336], [33.5313888, 44.5938911], [33.5312302, 44.5938095]]}}, {"type": "Feature", "properties": {"@id": "way/582459793", "highway": "primary", "surface": "asphalt"}, "geometry": {"type": "LineString", "coordinates": [[33.5023235, 44.5911593], [33.5027998, 44.5909334], [33.5031675, 44.5907403]]}}, {"type": "Feature", "properties": {"@id": "way/582459803", "highway": "primary", "surface": "asphalt"}, "geometry": {"type": "LineString", "coordinates": [[33.5031675, 44.5907403], [33.50345, 44.590596]]}}, {"type": "Feature", "properties": {"@id": "way/582459804", "highway": "primary", "surface": "asphalt"}, "geometry": {"type": "LineString", "coordinates": [[33.50345, 44.590596], [33.5041591, 44.5902286]]}}, {"type": "Feature", "properties": {"@id": "way/583423350", "highway": "primary", "surface": "asphalt"}, "geometry": {"type": "LineString", "coordinates": [[33.5193342, 44.5873324], [33.520342, 44.5873655]]}}, {"type": "Feature", "properties": {"@id": "way/645906088", "highway": "primary", "surface": "asphalt"}, "geometry": {"type": "LineString", "coordinates": [[33.5082673, 44.5881292], [33.5084269, 44.5880442]]}}, {"type": "Feature", "properties": {"@id": "way/648723590", "highway": "tertiary", "surface": "asphalt"}, "geometry": {"type": "LineString", "coordinates": [[33.4643551, 44.5836072], [33.4644155, 44.5836373], [33.4645871, 44.5837355], [33.4647229, 44.583848], [33.4650889, 44.5841823], [33.4651631, 44.58425], [33.4652265, 44.584318], [33.4654507, 44.5845587], [33.4656598, 44.5848898], [33.4657834, 44.5851533], [33.4658169, 44.5852519], [33.4658332, 44.5852998], [33.4658761, 44.5854259], [33.4658939, 44.5854895], [33.4659771, 44.5857078], [33.466, 44.5858682], [33.4659975, 44.5860277], [33.4659724, 44.5861558], [33.4659461, 44.5862896], [33.4659096, 44.5864226], [33.4658983, 44.5865286]]}}, {"type": "Feature", "properties": {"@id": "way/659276230", "highway": "primary", "oneway": "no", "surface": "asphalt"}, "geometry": {"type": "LineString", "coordinates": [[33.5716887, 44.5709172], [33.5718566, 44.5707263], [33.5719405, 44.5706299], [33.5720306, 44.5705262], [33.5724119, 44.5700877], [33.5728986, 44.5695281]]}}, {"type": "Feature", "properties": {"@id": "way/671221696", "highway": "primary", "oneway": "no", "surface": "asphalt"}, "geometry": {"type": "LineString", "coordinates": [[33.5084269, 44.5880442], [33.5086988, 44.5878994]]}}, {"type": "Feature", "properties": {"@id": "way/683899416", "highway": "primary", "oneway": "no", "surface": "asphalt"}, "geometry": {"type": "LineString", "coordinates": [[33.5852179, 44.5557767], [33.5850951, 44.5559075], [33.5850489, 44.5559566], [33.5845442, 44.5564942], [33.5841717, 44.5568908], [33.5841378, 44.5569269], [33.5840946, 44.556973], [33.5840439, 44.5570292], [33.5837537, 44.5573512], [33.5831106, 44.5580648], [33.5829703, 44.5582205]]}}, {"type": "Feature", "properties": {"@id": "way/683899417", "highway": "primary", "surface": "asphalt"}, "geometry": {"type": "LineString", "coordinates": [[33.5853332, 44.5557036], [33.5852179, 44.5557767]]}}, {"type": "Feature", "properties": {"@id": "way/694239799", "highway": "primary", "surface": "asphalt"}, "geometry": {"type": "LineString", "coordinates": [[33.4908452, 44.5916555], [33.4909176, 44.5916586]]}}, {"type": "Feature", "properties": {"@id": "way/694240252", "highway": "primary", "surface": "asphalt"}, "geometry": {"type": "LineString", "coordinates": [[33.492303, 44.5916932], [33.4925684, 44.591704], [33.4927183, 44.5917098], [33.4965896, 44.591861]]}}, {"type": "Feature", "properties": {"@id": "way/703485899", "highway": "primary", "oneway": "no", "surface": "asphalt"}, "geometry": {"type": "LineString", "coordinates": [[33.5875484, 44.5563291], [33.5862704, 44.5557627], [33.5859545, 44.5556372], [33.5858589, 44.55562], [33.5857646, 44.5556156], [33.5856704, 44.5556172], [33.585578, 44.5556283], [33.5854681, 44.5556495], [33.5853933, 44.5556759], [33.5853332, 44.5557036]]}}, {"type": "Feature", "properties": {"@id": "way/711061248", "highway": "primary", "oneway": "yes", "surface": "asphalt"}, "geometry": {"type": "LineString", "coordinates": [[33.5302959, 44.5937149], [33.530234, 44.5937294]]}}, {"type": "Feature", "properties": {"@id": "way/719899721", "highway": "primary", "oneway": "yes", "surface": "asphalt"}, "geometry": {"type": "LineString", "coordinates": [[33.514037, 44.586527], [33.5145553, 44.5865697]]}}, {"type": "Feature", "properties": {"@id": "way/721808644", "highway": "trunk", "oneway": "yes", "surface": "asphalt"}, "geometry": {"type": "LineString", "coordinates": [[33.6038213, 44.562376], [33.6034548, 44.5618323], [33.6032013, 44.5613616], [33.6028857, 44.5607032], [33.6028077, 44.56052], [33.602685, 44.5602241], [33.6021489, 44.5589127], [33.6017528, 44.5581554]]}}, {"type": "Feature", "properties": {"@id": "way/721808645", "highway": "trunk", "oneway": "yes", "surface": "asphalt"}, "geometry": {"type": "LineString", "coordinates": [[33.6017528, 44.5581554], [33.6015223, 44.5578137], [33.6012702, 44.5574835], [33.6010931, 44.5572618]]}}, {"type": "Feature", "properties": {"@id": "way/721808646", "highway": "trunk", "oneway": "yes", "surface": "asphalt"}, "geometry": {"type": "LineString", "coordinates": [[33.6080767, 44.5669157], [33.6050749, 44.563857], [33.6046353, 44.5634072], [33.6042934, 44.5630224], [33.6040068, 44.5626395], [33.6038213, 44.562376]]}}, {"type": "Feature", "properties": {"@id": "way/743128045", "highway": "primary", "oneway": "yes", "surface": "asphalt"}, "geometry": {"type": "LineString", "coordinates": [[33.5173474, 44.5870249], [33.5175142, 44.5871225], [33.5176483, 44.587174], [33.5178734, 44.5872337]]}}, {"type": "Feature", "properties": {"@id": "way/743315971", "highway": "primary", "oneway": "yes", "surface": "asphalt"}, "geometry": {"type": "LineString", "coordinates": [[33.5793109, 44.5618094], [33.5793256, 44.5617474], [33.5793547, 44.5616982], [33.5794059, 44.561649], [33.5794566, 44.5616162], [33.5795291, 44.5615827]]}}, {"type": "Feature", "properties": {"@id": "way/743315972", "highway": "primary", "oneway": "yes", "surface": "asphalt"}, "geometry": {"type": "LineString", "coordinates": [[33.5793443, 44.5619797], [33.579322, 44.5619309], [33.5793114, 44.5618663], [33.5793109, 44.5618094]]}}, {"type": "Feature", "properties": {"@id": "way/743552286", "highway": "primary", "oneway": "yes", "surface": "asphalt"}, "geometry": {"type": "LineString", "coordinates": [[33.5702998, 44.5722776], [33.5703317, 44.5722219], [33.5703705, 44.5721743], [33.5704034, 44.572147], [33.5704415, 44.5721232], [33.5704839, 44.5721035], [33.5705299, 44.5720884]]}}, {"type": "Feature", "properties": {"@id": "way/744829603", "highway": "primary", "surface": "asphalt"}, "geometry": {"type": "LineString", "coordinates": [[33.4837293, 44.5906064], [33.4839556, 44.5907368], [33.4844454, 44.591002]]}}, {"type": "Feature", "properties": {"@id": "way/749348853", "highway": "primary", "oneway": "no", "surface": "asphalt"}, "geometry": {"type": "LineString", "coordinates": [[33.5320514, 44.595017], [33.5320552, 44.5949321], [33.5320419, 44.5948354]]}}, {"type": "Feature", "properties": {"@id": "way/799747502", "highway": "secondary", "oneway": "yes", "surface": "asphalt"}, "geometry": {"type": "LineString", "coordinates": [[33.5319885, 44.5955146], [33.5320744, 44.5956442], [33.5321136, 44.5956896], [33.5321798, 44.5957546], [33.5322328, 44.5957938], [33.5322891, 44.595821]]}}, {"type": "Feature", "properties": {"@id": "way/821158540", "highway": "primary", "oneway": "no", "surface": "asphalt"}, "geometry": {"type": "LineString", "coordinates": [[33.5872094, 44.5494052], [33.5870397, 44.5498214], [33.586798, 44.5503452], [33.586259, 44.5511134], [33.5860868, 44.5513668], [33.5860203, 44.5516046], [33.5860049, 44.5517606], [33.5860385, 44.5519059], [33.5861743, 44.5521853], [33.5865721, 44.5526402], [33.5869475, 44.55306], [33.5870974, 44.5532277], [33.5872275, 44.5533946], [33.587282, 44.5534908], [33.587331, 44.5536029], [33.5873798, 44.5537574], [33.5874457, 44.5546949], [33.5874979, 44.5549344], [33.587553, 44.5551], [33.5876253, 44.5552086], [33.587714, 44.5553115], [33.587862, 44.5554218], [33.587999, 44.5555068], [33.588808, 44.555852], [33.5889464, 44.5559295], [33.5890636, 44.5560275], [33.58915, 44.556144], [33.5891864, 44.5562545], [33.5891726, 44.5563668], [33.5891331, 44.5564745], [33.5890556, 44.5565632], [33.5889487, 44.5566241], [33.5887956, 44.5566744], [33.5886358, 44.5566932], [33.5884757, 44.5566855], [33.5883186, 44.5566539], [33.5879563, 44.5565099], [33.5875484, 44.5563291]]}}, {"type": "Feature", "properties": {"@id": "way/823848350", "highway": "trunk", "oneway": "yes", "surface": "asphalt"}, "geometry": {"type": "LineString", "coordinates": [[33.6125407, 44.5770121], [33.6123791, 44.5763808], [33.6121267, 44.5754777], [33.6118002, 44.5744211], [33.610609, 44.5705666], [33.6105894, 44.5705032]]}}, {"type": "Feature", "properties": {"@id": "way/833149055", "highway": "tertiary", "surface": "asphalt"}, "geometry": {"type": "LineString", "coordinates": [[33.4658983, 44.5865286], [33.4659237, 44.586727], [33.4659509, 44.5869156], [33.465981, 44.5870888]]}}, {"type": "Feature", "properties": {"@id": "way/864665569", "highway": "primary", "surface": "asphalt"}, "geometry": {"type": "LineString", "coordinates": [[33.5212176, 44.5874708], [33.5211618, 44.5874435], [33.5210962, 44.5874314], [33.5204813, 44.5873777], [33.520342, 44.5873655]]}}, {"type": "Feature", "properties": {"@id": "way/905313208", "highway": "primary", "oneway": "yes", "surface": "asphalt"}, "geometry": {"type": "LineString", "coordinates": [[33.485359, 44.5912789], [33.4861947, 44.5914548]]}}, {"type": "Feature", "properties": {"@id": "way/913851697", "highway": "primary", "surface": "concrete"}, "geometry": {"type": "LineString", "coordinates": [[33.5276352, 44.5941187], [33.5275949, 44.5940853], [33.527423, 44.593886], [33.5272397, 44.593293], [33.5271881, 44.5931261], [33.5270249, 44.5928306], [33.5267246, 44.5925736], [33.5265465, 44.5924656], [33.5264592, 44.5924127], [33.5263716, 44.592387], [33.5258947, 44.592247], [33.5258489, 44.5922336], [33.5254873, 44.5921046], [33.5253189, 44.5920349], [33.525085, 44.5918462], [33.5250552, 44.5918082], [33.5248188, 44.591507], [33.5245921, 44.5911494], [33.5243754, 44.590713], [33.5242548, 44.5904308], [33.5241402, 44.5900631], [33.5240555, 44.5898368], [33.5238646, 44.5895084], [33.5236401, 44.5892841], [33.523231, 44.5890039], [33.522298, 44.5883747], [33.5216534, 44.5879638]]}}, {"type": "Feature", "properties": {"@id": "way/974048618", "highway": "trunk", "oneway": "yes", "surface": "asphalt"}, "geometry": {"type": "LineString", "coordinates": [[33.5967232, 44.5475807], [33.5966478, 44.5470934], [33.5966365, 44.5470429], [33.596573, 44.5467577], [33.5965046, 44.546508]]}}, {"type": "Feature", "properties": {"@id": "way/974048619", "highway": "trunk", "oneway": "yes", "surface": "asphalt"}, "geometry": {"type": "LineString", "coordinates": [[33.6004695, 44.5565489], [33.6001945, 44.5562162], [33.5997497, 44.5556364], [33.5994891, 44.5552945], [33.5990362, 44.5546591], [33.5987891, 44.5542716], [33.5985709, 44.5538628], [33.5983553, 44.553433], [33.5981687, 44.5530096], [33.5976733, 44.551936], [33.5974819, 44.5515109], [33.5973313, 44.5510844], [33.5972028, 44.5506673], [33.5971101, 44.5502482], [33.5970373, 44.5498846], [33.5970198, 44.5497529], [33.5969813, 44.5494773], [33.5968543, 44.5484277]]}}, {"type": "Feature", "properties": {"@id": "way/974056770", "highway": "trunk", "oneway": "yes", "surface": "asphalt"}, "geometry": {"type": "LineString", "coordinates": [[33.6126922, 44.5776018], [33.6125407, 44.5770121]]}}, {"type": "Feature", "properties": {"@id": "way/996123755", "highway": "primary", "surface": "asphalt"}, "geometry": {"type": "LineString", "coordinates": [[33.468574, 44.5868972], [33.4687533, 44.586823], [33.4689685, 44.586722], [33.4691613, 44.5866047]]}}, {"type": "Feature", "properties": {"@id": "way/1002614395", "highway": "primary", "surface": "asphalt"}, "geometry": {"type": "LineString", "coordinates": [[33.4660042, 44.5872271], [33.4664253, 44.5871828], [33.4667416, 44.5871589], [33.4667701, 44.5871567], [33.4669115, 44.587146], [33.4674314, 44.5871037], [33.46774, 44.5870769], [33.4680847, 44.587028], [33.4683879, 44.5869587], [33.468574, 44.5868972]]}}, {"type": "Feature", "properties": {"@id": "way/1002614396", "highway": "tertiary", "surface": "asphalt"}, "geometry": {"type": "LineString", "coordinates": [[33.465981, 44.5870888], [33.4660042, 44.5872271]]}}, {"type": "Feature", "properties": {"@id": "way/1005976103", "highway": "trunk", "oneway": "yes", "surface": "asphalt"}, "geometry": {"type": "LineString", "coordinates": [[33.5963006, 44.5458252], [33.5960063, 44.5453117], [33.5958883, 44.5451244], [33.5957452, 44.5448126], [33.5955973, 44.5443368], [33.5953973, 44.5438606], [33.5952379, 44.5435253], [33.5950346, 44.5431891], [33.5948251, 44.5429003], [33.5945723, 44.5426193], [33.5945056, 44.542557], [33.5944214, 44.5424941], [33.5942454, 44.542469]]}}, {"type": "Feature", "properties": {"@id": "way/1005976104", "highway": "primary", "oneway": "yes"}, "geometry": {"type": "LineString", "coordinates": [[33.5939894, 44.5424511], [33.5938061, 44.5424573], [33.5936728, 44.5424968], [33.593559, 44.5425563], [33.5923562, 44.54336], [33.5916449, 44.5438477]]}}, {"type": "Feature", "properties": {"@id": "way/1010070544", "highway": "trunk", "oneway": "yes", "surface": "asphalt"}, "geometry": {"type": "LineString", "coordinates": [[33.6176416, 44.5885648], [33.6173916, 44.5882743], [33.6172224, 44.588052], [33.6170724, 44.5878369], [33.6168379, 44.5874569], [33.6166352, 44.5870638], [33.61645, 44.5866342], [33.6163263, 44.586294], [33.6162213, 44.5859488], [33.6160666, 44.5854084], [33.6159201, 44.5848605], [33.6157814, 44.5844087], [33.6155999, 44.583927], [33.6155053, 44.5837175], [33.6153531, 44.5834019], [33.6151184, 44.5830195]]}}, {"type": "Feature", "properties": {"@id": "way/1010070547", "highway": "trunk", "oneway": "yes", "surface": "asphalt"}, "geometry": {"type": "LineString", "coordinates": [[33.6138554, 44.5813544], [33.6137323, 44.5811598], [33.6135996, 44.5809511], [33.6132939, 44.580345]]}}, {"type": "Feature", "properties": {"@id": "way/1010070548", "highway": "trunk", "oneway": "yes", "surface": "asphalt"}, "geometry": {"type": "LineString", "coordinates": [[33.6151184, 44.5830195], [33.6138554, 44.5813544]]}}, {"type": "Feature", "properties": {"@id": "way/1019677971", "highway": "trunk", "oneway": "yes", "surface": "asphalt"}, "geometry": {"type": "LineString", "coordinates": [[33.6132939, 44.580345], [33.6132096, 44.5801013], [33.6131461, 44.5798586], [33.6131056, 44.579702]]}}, {"type": "Feature", "properties": {"@id": "way/1085013034", "highway": "primary", "oneway": "yes", "surface": "asphalt"}, "geometry": {"type": "LineString", "coordinates": [[33.5281611, 44.5945064], [33.5281415, 44.594499], [33.5280955, 44.5944804], [33.5280351, 44.594448], [33.5279889, 44.5944138], [33.5279252, 44.594362]]}}, {"type": "Feature", "properties": {"@id": "way/1104957597", "highway": "secondary", "oneway": "yes", "surface": "asphalt"}, "geometry": {"type": "LineString", "coordinates": [[33.5479543, 44.586792], [33.5483475, 44.5864043], [33.5487651, 44.5860741], [33.5491385, 44.5858975], [33.5495025, 44.5858396], [33.5500068, 44.58582], [33.550422, 44.5857627], [33.5505855, 44.5857196], [33.5507337, 44.5856447], [33.5509048, 44.5855044], [33.5509262, 44.5852332], [33.5509155, 44.5850116], [33.5510228, 44.5847327], [33.5511784, 44.5845493], [33.551436, 44.5844129], [33.5518811, 44.5843277], [33.552262, 44.5843583], [33.5525516, 44.5845378], [33.5527287, 44.5847976], [33.5528909, 44.5850557], [33.5531055, 44.5851436], [33.5533992, 44.5850842], [33.5536299, 44.5848779], [33.5538445, 44.5846028], [33.5539357, 44.5842895], [33.5538874, 44.5839724], [33.5538579, 44.5837205], [33.5538445, 44.5836056], [33.5538445, 44.5834298], [33.5538713, 44.5833381], [33.5540805, 44.5831815], [33.5543487, 44.5830401], [33.5547672, 44.5828873], [33.555148, 44.5827536], [33.5554484, 44.5825396], [33.5556416, 44.5823218], [33.5557167, 44.5821079], [33.5557757, 44.5818863], [33.5557327, 44.5815386], [33.5557542, 44.5813513], [33.5559044, 44.5811221], [33.5561382, 44.5809351], [33.5563805, 44.5807324], [33.5564927, 44.5806366]]}}, {"type": "Feature", "properties": {"@id": "way/1134705243", "highway": "primary", "oneway": "yes", "surface": "asphalt"}, "geometry": {"type": "LineString", "coordinates": [[33.528292, 44.5945325], [33.5282376, 44.5945246], [33.5281611, 44.5945064]]}}, {"type": "Feature", "properties": {"@id": "way/1308594735", "highway": "primary", "surface": "asphalt"}, "geometry": {"type": "LineString", "coordinates": [[33.5911359, 44.5441606], [33.5908121, 44.5443929], [33.5899773, 44.5449719], [33.5890389, 44.5456227], [33.588835, 44.5458045], [33.5887155, 44.5459111], [33.5885955, 44.5460487], [33.5884978, 44.5462207], [33.5879242, 44.5475778], [33.5876526, 44.5482203], [33.5873793, 44.5489583], [33.5872581, 44.5492858], [33.5872094, 44.5494052]]}}, {"type": "Feature", "properties": {"@id": "way/1308827566", "highway": "primary", "oneway": "yes"}, "geometry": {"type": "LineString", "coordinates": [[33.5916449, 44.5438477], [33.5911359, 44.5441606]]}}, {"type": "Feature", "properties": {"@id": "way/1329369251", "highway": "primary", "oneway": "yes", "surface": "asphalt"}, "geometry": {"type": "LineString", "coordinates": [[33.4878509, 44.5915188], [33.4891121, 44.5915821]]}}, {"type": "Feature", "properties": {"@id": "way/1329391335", "highway": "primary", "oneway": "yes"}, "geometry": {"type": "LineString", "coordinates": [[33.4741541, 44.5838806], [33.4735402, 44.5838126], [33.4735011, 44.5838123], [33.4734565, 44.5838119], [33.4733488, 44.5838111]]}}, {"type": "Feature", "properties": {"@id": "way/1329391338", "highway": "primary", "surface": "asphalt"}, "geometry": {"type": "LineString", "coordinates": [[33.4709803, 44.5845105], [33.4710305, 44.5844137]]}}, {"type": "Feature", "properties": {"@id": "way/1329391343", "highway": "primary", "oneway": "yes"}, "geometry": {"type": "LineString", "coordinates": [[33.4733488, 44.5838111], [33.4727489, 44.5838298], [33.4721508, 44.5839005], [33.4717163, 44.5839884], [33.4714223, 44.5841209], [33.4710305, 44.5844137]]}}, {"type": "Feature", "properties": {"@id": "way/1333719805", "highway": "primary", "surface": "asphalt"}, "geometry": {"type": "LineString", "coordinates": [[33.4706287, 44.5852102], [33.4708279, 44.5848348]]}}, {"type": "Feature", "properties": {"@id": "way/1373258623", "highway": "primary", "oneway": "no", "surface": "asphalt"}, "geometry": {"type": "LineString", "coordinates": [[33.574321, 44.5679328], [33.5743596, 44.5678898]]}}, {"type": "Feature", "properties": {"@id": "way/1373259000", "highway": "primary", "oneway": "no", "surface": "asphalt"}, "geometry": {"type": "LineString", "coordinates": [[33.5743596, 44.5678898], [33.5744005, 44.5678442]]}}, {"type": "Feature", "properties": {"@id": "way/1465115587", "highway": "secondary", "oneway": "no", "surface": "asphalt"}, "geometry": {"type": "LineString", "coordinates": [[33.5686626, 44.5722256], [33.5692456, 44.5722633]]}}, {"type": "Feature", "properties": {"@id": "way/1500807651", "highway": "trunk", "oneway": "yes", "surface": "asphalt"}, "geometry": {"type": "LineString", "coordinates": [[33.6010931, 44.5572618], [33.6008905, 44.5570414], [33.6004695, 44.5565489]]}}, {"type": "Feature", "properties": {"@id": "way/1500807653", "highway": "trunk", "oneway": "yes", "surface": "asphalt"}, "geometry": {"type": "LineString", "coordinates": [[33.5968543, 44.5484277], [33.5967232, 44.5475807]]}}, {"type": "Feature", "properties": {"@id": "way/1500807657", "highway": "trunk", "oneway": "yes", "surface": "asphalt"}, "geometry": {"type": "LineString", "coordinates": [[33.5965046, 44.546508], [33.5963006, 44.5458252]]}}]}