{"type": "FeatureCollection", "features": [{"type": "Feature", "properties": {"@id": "way/24447189", "highway": "secondary", "oneway": "yes", "surface": "asphalt"}, "geometry": {"type": "LineString", "coordinates": [[33.6130792, 44.5841034], [33.6133702, 44.5836295], [33.6135426, 44.5832428], [33.6136485, 44.5828753], [33.6137301, 44.5824207], [33.6137511, 44.5820119], [33.6137133, 44.5816628], [33.6136461, 44.5813566], [33.613403, 44.5807679], [33.6133536, 44.5806481], [33.6132939, 44.580345]]}}, {"type": "Feature", "properties": {"@id": "way/24447197", "highway": "primary", "oneway": "no", "surface": "asphalt"}, "geometry": {"type": "LineString", "coordinates": [[33.607005, 44.6481326], [33.6064825, 44.6507397], [33.6061392, 44.652201]]}}, {"type": "Feature", "properties": {"@id": "way/24506098", "highway": "primary", "oneway": "yes", "surface": "asphalt"}, "geometry": {"type": "LineString", "coordinates": [[33.6144986, 44.6815469], [33.6140562, 44.6815276], [33.6135623, 44.6814701], [33.6132121, 44.6814294], [33.61293, 44.6813257], [33.6126566, 44.6812086], [33.6124231, 44.6810719], [33.6121873, 44.6808909], [33.6120679, 44.6807773], [33.6119456, 44.6806287], [33.6117638, 44.6802444], [33.6117567, 44.6801401], [33.611748, 44.6800133], [33.6117865, 44.6798299], [33.6118986, 44.6794526], [33.6120369, 44.6792397], [33.6121368, 44.6790266], [33.6122563, 44.6785291], [33.6122277, 44.6780252]]}}, {"type": "Feature", "properties": {"@id": "way/24816311", "highway": "trunk", "oneway": "yes", "surface": "asphalt"}, "geometry": {"type": "LineString", "coordinates": [[33.6130827, 44.5795754], [33.6129919, 44.5791063], [33.6129038, 44.5785783], [33.6126922, 44.5776018]]}}, {"type": "Feature", "properties": {"@id": "way/27712737", "highway": "primary", "surface": "asphalt"}, "geometry": {"type": "LineString", "coordinates": [[33.6025134, 44.6056929], [33.6031457, 44.605647], [33.603451, 44.6056158], [33.603642, 44.6055963], [33.6044808, 44.605472], [33.6045795, 44.6054574], [33.605087, 44.6054128], [33.6052805, 44.6054386], [33.6056048, 44.605599], [33.6059055, 44.6058456], [33.6059196, 44.6058656], [33.6072053, 44.6076957], [33.6074018, 44.6079754], [33.6077282, 44.6085416], [33.6081281, 44.6094561], [33.6082582, 44.6101554], [33.6082829, 44.6103624], [33.6082878, 44.610403], [33.6083135, 44.6106179], [33.6083203, 44.6106751], [33.60833, 44.6107561], [33.608338, 44.6108229], [33.6083407, 44.6108454], [33.6084485, 44.6122388], [33.6085188, 44.613245]]}}, {"type": "Feature", "properties": {"@id": "way/27712740", "highway": "primary", "surface": "asphalt"}, "geometry": {"type": "LineString", "coordinates": [[33.6010627, 44.6058589], [33.6025134, 44.6056929]]}}, {"type": "Feature", "properties": {"@id": "way/36725113", "highway": "primary", "oneway": "yes", "surface": "asphalt"}, "geometry": {"type": "LineString", "coordinates": [[33.6072418, 44.6467792], [33.6072386, 44.6466823], [33.6072877, 44.6460689]]}}, {"type": "Feature", "properties": {"@id": "way/37139749", "highway": "primary", "oneway": "yes", "surface": "asphalt"}, "geometry": {"type": "LineString", "coordinates": [[33.6110435, 44.6802348], [33.6112776, 44.6799973], [33.6116383, 44.6796571], [33.6118986, 44.6794526]]}}, {"type": "Feature", "properties": {"@id": "way/37139750", "highway": "primary", "oneway": "yes", "surface": "asphalt"}, "geometry": {"type": "LineString", "coordinates": [[33.6094145, 44.6814813], [33.6096268, 44.6813353], [33.6097855, 44.6811957], [33.6103045, 44.6806496], [33.6107118, 44.6802881], [33.6108614, 44.6801951], [33.6112776, 44.6799973]]}}, {"type": "Feature", "properties": {"@id": "way/37295071", "highway": "primary", "oneway": "no", "surface": "asphalt"}, "geometry": {"type": "LineString", "coordinates": [[33.6048778, 44.6622481], [33.6049148, 44.6628429]]}}, {"type": "Feature", "properties": {"@id": "way/37295072", "highway": "primary", "oneway": "no", "surface": "asphalt"}, "geometry": {"type": "LineString", "coordinates": [[33.6121642, 44.6775078], [33.612107, 44.6771737]]}}, {"type": "Feature", "properties": {"@id": "way/45838564", "highway": "primary", "oneway": "yes", "surface": "asphalt"}, "geometry": {"type": "LineString", "coordinates": [[33.607005, 44.6481326], [33.6071459, 44.6471922], [33.607213, 44.6468588], [33.6072418, 44.6467792]]}}, {"type": "Feature", "properties": {"@id": "way/126822823", "highway": "primary", "oneway": "no", "surface": "asphalt"}, "geometry": {"type": "LineString", "coordinates": [[33.6122086, 44.677847], [33.6122277, 44.6780252]]}}, {"type": "Feature", "properties": {"@id": "way/126822824", "highway": "primary", "oneway": "no", "surface": "asphalt"}, "geometry": {"type": "LineString", "coordinates": [[33.6121642, 44.6775078], [33.6122086, 44.677847]]}}, {"type": "Feature", "properties": {"@id": "way/126823388", "highway": "primary", "surface": "asphalt"}, "geometry": {"type": "LineString", "coordinates": [[33.6094145, 44.6814813], [33.6092751, 44.6815097]]}}, {"type": "Feature", "properties": {"@id": "way/129767277", "highway": "trunk", "oneway": "yes", "surface": "asphalt"}, "geometry": {"type": "LineString", "coordinates": [[33.6105894, 44.5705032], [33.6103036, 44.5698846], [33.6101303, 44.5695093], [33.609792, 44.5689291], [33.6096668, 44.5687144], [33.609165, 44.5680832], [33.6090015, 44.5678776], [33.6088993, 44.5677713], [33.6080767, 44.5669157]]}}, {"type": "Feature", "properties": {"@id": "way/129767279", "highway": "trunk", "oneway": "yes", "surface": "asphalt"}, "geometry": {"type": "LineString", "coordinates": [[33.6131056, 44.579702], [33.6130827, 44.5795754]]}}, {"type": "Feature", "properties": {"@id": "way/129767280", "highway": "secondary", "oneway": "no", "surface": "asphalt"}, "geometry": {"type": "LineString", "coordinates": [[33.6074916, 44.5885349], [33.6076389, 44.5882824], [33.6080873, 44.5879774], [33.609011, 44.5876243], [33.6096732, 44.5874089], [33.6100362, 44.5872908], [33.6102866, 44.5872094], [33.6105072, 44.5871359], [33.6106452, 44.5870756], [33.6107646, 44.587002], [33.610982, 44.5868521], [33.6111041, 44.5867363]]}}, {"type": "Feature", "properties": {"@id": "way/129778642", "highway": "primary", "oneway": "no", "surface": "asphalt"}, "geometry": {"type": "LineString", "coordinates": [[33.6055927, 44.6641775], [33.6054397, 44.6639968], [33.6051485, 44.6635765], [33.6050068, 44.6632807], [33.6049148, 44.6628429]]}}, {"type": "Feature", "properties": {"@id": "way/129778644", "highway": "primary", "oneway": "no", "surface": "asphalt"}, "geometry": {"type": "LineString", "coordinates": [[33.604853, 44.6605179], [33.6048405, 44.6610401], [33.6048326, 44.6613682], [33.6048586, 44.6618637], [33.6048778, 44.6622481]]}}, {"type": "Feature", "properties": {"@id": "way/129778649", "highway": "primary", "oneway": "no", "surface": "asphalt"}, "geometry": {"type": "LineString", "coordinates": [[33.6061392, 44.652201], [33.6057526, 44.6545438], [33.6050509, 44.6580084], [33.604916, 44.6592303], [33.604853, 44.6605179]]}}, {"type": "Feature", "properties": {"@id": "way/291536906", "highway": "primary", "surface": "asphalt"}, "geometry": {"type": "LineString", "coordinates": [[33.5973631, 44.6236813], [33.5974904, 44.6239181], [33.5975579, 44.6240436], [33.5976948, 44.6243157]]}}, {"type": "Feature", "properties": {"@id": "way/366070017", "highway": "primary", "surface": "asphalt"}, "geometry": {"type": "LineString", "coordinates": [[33.5943368, 44.6789139], [33.5936436, 44.6787177], [33.592916, 44.6785117], [33.5924644, 44.6783839], [33.5913409, 44.6780659], [33.590753, 44.6778995], [33.589527, 44.6774409], [33.5882749, 44.6769726], [33.5869593, 44.6764805], [33.5868004, 44.6764211], [33.586149, 44.6761774], [33.5853538, 44.6759372], [33.5835467, 44.6754955], [33.5823265, 44.6751973], [33.5822057, 44.6751678], [33.5814782, 44.6750109], [33.5807207, 44.6748476], [33.5798674, 44.6747237], [33.5787015, 44.6746517], [33.5786636, 44.6746494], [33.5781936, 44.6746204], [33.5771914, 44.674512], [33.5758829, 44.6743149], [33.5755284, 44.6742615], [33.5743445, 44.6742271], [33.5736658, 44.6742073], [33.5733644, 44.6741737], [33.5723529, 44.6739626], [33.5722776, 44.6739469], [33.5718878, 44.6738656], [33.5712683, 44.6737801], [33.569846, 44.6737064], [33.5686827, 44.6737213], [33.5684299, 44.6737245], [33.5680305, 44.6737451], [33.5676218, 44.6738963], [33.567302, 44.6740904], [33.5672403, 44.6741278], [33.5671902, 44.6741582], [33.5669575, 44.6743393], [33.5668515, 44.6744723], [33.5667985, 44.6746674], [33.5668185, 44.6748984]]}}, {"type": "Feature", "properties": {"@id": "way/366070020", "highway": "primary", "oneway": "no", "surface": "asphalt"}, "geometry": {"type": "LineString", "coordinates": [[33.6092751, 44.6815097], [33.6091855, 44.6815272], [33.6090599, 44.6815574], [33.6089153, 44.6815556], [33.6088022, 44.6815513], [33.6086834, 44.6815251], [33.6085603, 44.6814939], [33.6080541, 44.6813658], [33.607799, 44.681308], [33.6074564, 44.6812303], [33.6072738, 44.6812043], [33.6066576, 44.6811506], [33.6056217, 44.6810596], [33.6042351, 44.6809208], [33.6037659, 44.6808738], [33.603262, 44.6808233], [33.6029332, 44.6807904], [33.6026044, 44.6807575], [33.6019559, 44.6806555], [33.6018664, 44.6806414], [33.6016711, 44.6806107], [33.6009103, 44.6804944], [33.6006789, 44.6804582], [33.6003499, 44.6804068], [33.5996877, 44.6803033], [33.5994302, 44.6802631], [33.5992402, 44.6802288], [33.5992154, 44.6802243], [33.5985866, 44.6800577], [33.598079, 44.6799232], [33.5975713, 44.6797886], [33.5970371, 44.6796471], [33.5968503, 44.6796014], [33.5965007, 44.6795158], [33.5962537, 44.6794461], [33.5960113, 44.6793771], [33.595759, 44.6793073], [33.5948536, 44.6790568], [33.5946738, 44.6790071], [33.5945087, 44.6789614], [33.5943368, 44.6789139]]}}, {"type": "Feature", "properties": {"@id": "way/482983941", "highway": "primary", "surface": "asphalt"}, "geometry": {"type": "LineString", "coordinates": [[33.59625, 44.6210881], [33.5963502, 44.6213461], [33.5965304, 44.6218867], [33.5966303, 44.6222348], [33.5967208, 44.6224878], [33.596828, 44.6227243], [33.5970068, 44.6230728], [33.5973631, 44.6236813]]}}, {"type": "Feature", "properties": {"@id": "way/489063522", "highway": "primary", "oneway": "no", "surface": "asphalt"}, "geometry": {"type": "LineString", "coordinates": [[33.612107, 44.6771737], [33.6120347, 44.6766149], [33.6119954, 44.6763328], [33.6119686, 44.6762095]]}}, {"type": "Feature", "properties": {"@id": "way/489069462", "highway": "primary", "surface": "asphalt"}, "geometry": {"type": "LineString", "coordinates": [[33.6069892, 44.6444577], [33.6069916, 44.6444664], [33.6070852, 44.6448013], [33.6072084, 44.6452835], [33.607254, 44.6455861], [33.6072645, 44.6457118]]}}, {"type": "Feature", "properties": {"@id": "way/489069463", "highway": "primary", "surface": "asphalt"}, "geometry": {"type": "LineString", "coordinates": [[33.6062838, 44.6431127], [33.6065478, 44.6435658], [33.6065722, 44.643614], [33.6066384, 44.6437447], [33.6068269, 44.6440938]]}}, {"type": "Feature", "properties": {"@id": "way/489069465", "highway": "primary", "surface": "asphalt"}, "geometry": {"type": "LineString", "coordinates": [[33.6061774, 44.6429232], [33.6062838, 44.6431127]]}}, {"type": "Feature", "properties": {"@id": "way/489069466", "highway": "primary", "surface": "asphalt"}, "geometry": {"type": "LineString", "coordinates": [[33.6068269, 44.6440938], [33.6069158, 44.6442684], [33.6069892, 44.6444577]]}}, {"type": "Feature", "properties": {"@id": "way/489069469", "highway": "primary", "surface": "asphalt"}, "geometry": {"type": "LineString", "coordinates": [[33.6072645, 44.6457118], [33.6072877, 44.6460689]]}}, {"type": "Feature", "properties": {"@id": "way/489071635", "highway": "primary", "surface": "asphalt"}, "geometry": {"type": "LineString", "coordinates": [[33.5987659, 44.629783], [33.5993071, 44.631417], [33.5999079, 44.633115], [33.6004009, 44.6351195], [33.6005661, 44.6355742], [33.6006777, 44.6357963], [33.6007968, 44.6360132], [33.6009469, 44.6362272], [33.6012125, 44.63654], [33.6015156, 44.6368435], [33.6018648, 44.637146], [33.602434, 44.6375927], [33.6028649, 44.6379427], [33.6031195, 44.6381718], [33.6033386, 44.6384412], [33.6034106, 44.6385339], [33.6035896, 44.6387643], [33.6036734, 44.6388791], [33.6038871, 44.6392023]]}}, {"type": "Feature", "properties": {"@id": "way/489071637", "highway": "primary", "surface": "asphalt"}, "geometry": {"type": "LineString", "coordinates": [[33.5976948, 44.6243157], [33.597769, 44.6245412], [33.5978452, 44.6248576], [33.5978823, 44.6250993], [33.5979509, 44.62595], [33.5980797, 44.6269762], [33.5984694, 44.6287645], [33.5986719, 44.629499], [33.5987659, 44.629783]]}}, {"type": "Feature", "properties": {"@id": "way/489071638", "highway": "primary", "surface": "asphalt"}, "geometry": {"type": "LineString", "coordinates": [[33.5961138, 44.6176044], [33.5959731, 44.6178876], [33.5959001, 44.6180682], [33.5958611, 44.6182476], [33.5958424, 44.6184281], [33.5958637, 44.6190477], [33.595891, 44.6194378], [33.5959574, 44.6201762], [33.5959888, 44.6203254], [33.5960676, 44.6206044], [33.59625, 44.6210881]]}}, {"type": "Feature", "properties": {"@id": "way/489380304", "highway": "primary", "oneway": "no", "surface": "asphalt"}, "geometry": {"type": "LineString", "coordinates": [[33.61147, 44.6733021], [33.6111946, 44.671881], [33.6109923, 44.671569], [33.6108685, 44.6713255], [33.6088686, 44.6688046], [33.6084859, 44.6681219]]}}, {"type": "Feature", "properties": {"@id": "way/508288594", "highway": "primary", "surface": "asphalt"}, "geometry": {"type": "LineString", "coordinates": [[33.6038871, 44.6392023], [33.6040496, 44.6394758], [33.6042671, 44.6398362], [33.6043828, 44.6400279], [33.6045512, 44.6402877], [33.6051873, 44.6412926]]}}, {"type": "Feature", "properties": {"@id": "way/513329391", "highway": "primary", "surface": "asphalt"}, "geometry": {"type": "LineString", "coordinates": [[33.6065629, 44.6157421], [33.6063778, 44.6157651], [33.606107, 44.6157727], [33.605954, 44.6157717], [33.6053941, 44.6157334], [33.6049934, 44.615706], [33.6046103, 44.6156798], [33.6037849, 44.6156234], [33.6035026, 44.6156041], [33.6025446, 44.6155386], [33.6018833, 44.6154986], [33.6002389, 44.6154016], [33.5998, 44.6153925], [33.5995272, 44.6154051]]}}, {"type": "Feature", "properties": {"@id": "way/529502368", "highway": "trunk", "oneway": "yes", "surface": "asphalt"}, "geometry": {"type": "LineString", "coordinates": [[33.5942454, 44.542469], [33.5941198, 44.5424634], [33.5939894, 44.5424511], [33.5938185, 44.5423799], [33.5936875, 44.5422822], [33.5936584, 44.5422354], [33.5936242, 44.5421641], [33.5936001, 44.5420408]]}}, {"type": "Feature", "properties": {"@id": "way/623326440", "highway": "primary", "surface": "asphalt"}, "geometry": {"type": "LineString", "coordinates": [[33.6051873, 44.6412926], [33.6060524, 44.642703], [33.6061517, 44.6428774], [33.6061774, 44.6429232]]}}, {"type": "Feature", "properties": {"@id": "way/703484399", "highway": "secondary", "oneway": "no", "surface": "asphalt"}, "geometry": {"type": "LineString", "coordinates": [[33.6011254, 44.6045393], [33.6011351, 44.6044844], [33.6011787, 44.6043621], [33.6012753, 44.6041501], [33.6014278, 44.603847], [33.6015858, 44.6035649], [33.601968, 44.6028824], [33.6021068, 44.6025828], [33.6023151, 44.6018598], [33.6023719, 44.6016699], [33.6024049, 44.6013082], [33.602386, 44.6008807], [33.602367, 44.6005615], [33.6021791, 44.6000306], [33.6021611, 44.5996839], [33.6021905, 44.5994789], [33.6022101, 44.5993886], [33.6023567, 44.5987115], [33.6023936, 44.5985552], [33.6024386, 44.5984522], [33.6026522, 44.5979627], [33.6027191, 44.5978403], [33.6028238, 44.5976485], [33.603203, 44.5969543], [33.6032497, 44.596872], [33.6036854, 44.5961051], [33.6037196, 44.5960449], [33.6043286, 44.5945562], [33.6045739, 44.5939774], [33.6046006, 44.5939146], [33.6046399, 44.5938155], [33.6049599, 44.593013], [33.6053531, 44.592129], [33.6054995, 44.5918789], [33.605841, 44.591521], [33.6062788, 44.5910348], [33.6065581, 44.5907246]]}}, {"type": "Feature", "properties": {"@id": "way/703484400", "highway": "secondary", "oneway": "no", "surface": "asphalt"}, "geometry": {"type": "LineString", "coordinates": [[33.6065581, 44.5907246], [33.6066299, 44.5906394], [33.6067705, 44.5904867], [33.6069729, 44.5902668], [33.607276, 44.5899464], [33.6075095, 44.589631], [33.6075661, 44.5893003], [33.6075666, 44.5891173], [33.6075207, 44.5888801], [33.6074794, 44.5887149], [33.6074916, 44.5885349]]}}, {"type": "Feature", "properties": {"@id": "way/710476037", "highway": "primary", "surface": "asphalt"}, "geometry": {"type": "LineString", "coordinates": [[33.5995272, 44.6154051], [33.5985625, 44.6155422], [33.5984554, 44.6155741], [33.5979338, 44.6157293], [33.5976372, 44.6158665], [33.5973214, 44.6160489], [33.5971216, 44.6162004], [33.5969553, 44.6163831], [33.5969199, 44.6164274], [33.5965398, 44.6169539], [33.5963385, 44.6172338], [33.5961893, 44.6174774], [33.5961138, 44.6176044]]}}, {"type": "Feature", "properties": {"@id": "way/721808644", "highway": "trunk", "oneway": "yes", "surface": "asphalt"}, "geometry": {"type": "LineString", "coordinates": [[33.6038213, 44.562376], [33.6034548, 44.5618323], [33.6032013, 44.5613616], [33.6028857, 44.5607032], [33.6028077, 44.56052], [33.602685, 44.5602241], [33.6021489, 44.5589127], [33.6017528, 44.5581554]]}}, {"type": "Feature", "properties": {"@id": "way/721808645", "highway": "trunk", "oneway": "yes", "surface": "asphalt"}, "geometry": {"type": "LineString", "coordinates": [[33.6017528, 44.5581554], [33.6015223, 44.5578137], [33.6012702, 44.5574835], [33.6010931, 44.5572618]]}}, {"type": "Feature", "properties": {"@id": "way/721808646", "highway": "trunk", "oneway": "yes", "surface": "asphalt"}, "geometry": {"type": "LineString", "coordinates": [[33.6080767, 44.5669157], [33.6050749, 44.563857], [33.6046353, 44.5634072], [33.6042934, 44.5630224], [33.6040068, 44.5626395], [33.6038213, 44.562376]]}}, {"type": "Feature", "properties": {"@id": "way/745633254", "highway": "primary", "surface": "asphalt"}, "geometry": {"type": "LineString", "coordinates": [[33.6085188, 44.613245], [33.6085454, 44.6136259], [33.6085521, 44.6140501], [33.6085477, 44.6141173]]}}, {"type": "Feature", "properties": {"@id": "way/745633255", "highway": "primary", "surface": "asphalt"}, "geometry": {"type": "LineString", "coordinates": [[33.6085477, 44.6141173], [33.6085419, 44.6142048], [33.6085332, 44.6143364], [33.6085314, 44.6143639], [33.6083253, 44.6148269]]}}, {"type": "Feature", "properties": {"@id": "way/745633256", "highway": "primary", "surface": "asphalt"}, "geometry": {"type": "LineString", "coordinates": [[33.6083253, 44.6148269], [33.608063, 44.6150729], [33.6078298, 44.6152767], [33.607662, 44.6153931], [33.6072439, 44.6155633], [33.6069483, 44.6156491], [33.6065629, 44.6157421]]}}, {"type": "Feature", "properties": {"@id": "way/821158540", "highway": "primary", "oneway": "no", "surface": "asphalt"}, "geometry": {"type": "LineString", "coordinates": [[33.5872094, 44.5494052], [33.5870397, 44.5498214], [33.586798, 44.5503452], [33.586259, 44.5511134], [33.5860868, 44.5513668], [33.5860203, 44.5516046], [33.5860049, 44.5517606], [33.5860385, 44.5519059], [33.5861743, 44.5521853], [33.5865721, 44.5526402], [33.5869475, 44.55306], [33.5870974, 44.5532277], [33.5872275, 44.5533946], [33.587282, 44.5534908], [33.587331, 44.5536029], [33.5873798, 44.5537574], [33.5874457, 44.5546949], [33.5874979, 44.5549344], [33.587553, 44.5551], [33.5876253, 44.5552086], [33.587714, 44.5553115], [33.587862, 44.5554218], [33.587999, 44.5555068], [33.588808, 44.555852], [33.5889464, 44.5559295], [33.5890636, 44.5560275], [33.58915, 44.556144], [33.5891864, 44.5562545], [33.5891726, 44.5563668], [33.5891331, 44.5564745], [33.5890556, 44.5565632], [33.5889487, 44.5566241], [33.5887956, 44.5566744], [33.5886358, 44.5566932], [33.5884757, 44.5566855], [33.5883186, 44.5566539], [33.5879563, 44.5565099], [33.5875484, 44.5563291]]}}, {"type": "Feature", "properties": {"@id": "way/823848350", "highway": "trunk", "oneway": "yes", "surface": "asphalt"}, "geometry": {"type": "LineString", "coordinates": [[33.6125407, 44.5770121], [33.6123791, 44.5763808], [33.6121267, 44.5754777], [33.6118002, 44.5744211], [33.610609, 44.5705666], [33.6105894, 44.5705032]]}}, {"type": "Feature", "properties": {"@id": "way/974048618", "highway": "trunk", "oneway": "yes", "surface": "asphalt"}, "geometry": {"type": "LineString", "coordinates": [[33.5967232, 44.5475807], [33.5966478, 44.5470934], [33.5966365, 44.5470429], [33.596573, 44.5467577], [33.5965046, 44.546508]]}}, {"type": "Feature", "properties": {"@id": "way/974048619", "highway": "trunk", "oneway": "yes", "surface": "asphalt"}, "geometry": {"type": "LineString", "coordinates": [[33.6004695, 44.5565489], [33.6001945, 44.5562162], [33.5997497, 44.5556364], [33.5994891, 44.5552945], [33.5990362, 44.5546591], [33.5987891, 44.5542716], [33.5985709, 44.5538628], [33.5983553, 44.553433], [33.5981687, 44.5530096], [33.5976733, 44.551936], [33.5974819, 44.5515109], [33.5973313, 44.5510844], [33.5972028, 44.5506673], [33.5971101, 44.5502482], [33.5970373, 44.5498846], [33.5970198, 44.5497529], [33.5969813, 44.5494773], [33.5968543, 44.5484277]]}}, {"type": "Feature", "properties": {"@id": "way/974056770", "highway": "trunk", "oneway": "yes", "surface": "asphalt"}, "geometry": {"type": "LineString", "coordinates": [[33.6126922, 44.5776018], [33.6125407, 44.5770121]]}}, {"type": "Feature", "properties": {"@id": "way/988833915", "highway": "secondary", "oneway": "no", "surface": "asphalt"}, "geometry": {"type": "LineString", "coordinates": [[33.6130792, 44.5841034], [33.6125609, 44.5849646], [33.6122995, 44.5854104], [33.6121554, 44.5856184], [33.6119405, 44.5858618], [33.6112262, 44.5866205], [33.6111041, 44.5867363]]}}, {"type": "Feature", "properties": {"@id": "way/988833916", "highway": "secondary", "oneway": "no", "surface": "asphalt"}, "geometry": {"type": "LineString", "coordinates": [[33.6009298, 44.6058724], [33.6008842, 44.605805], [33.6008632, 44.6057501], [33.6008631, 44.6056989], [33.6008732, 44.6056521], [33.6009632, 44.6055376], [33.6013133, 44.6051737], [33.601446, 44.6050257], [33.6014758, 44.6049747], [33.6014895, 44.6049238], [33.6014888, 44.6048875], [33.601474, 44.6048574], [33.6014389, 44.6048137], [33.6013463, 44.6047565], [33.6012445, 44.6046969], [33.6011862, 44.604655], [33.6011498, 44.6046134], [33.6011301, 44.6045731], [33.6011254, 44.6045393]]}}, {"type": "Feature", "properties": {"@id": "way/1005976103", "highway": "trunk", "oneway": "yes", "surface": "asphalt"}, "geometry": {"type": "LineString", "coordinates": [[33.5963006, 44.5458252], [33.5960063, 44.5453117], [33.5958883, 44.5451244], [33.5957452, 44.5448126], [33.5955973, 44.5443368], [33.5953973, 44.5438606], [33.5952379, 44.5435253], [33.5950346, 44.5431891], [33.5948251, 44.5429003], [33.5945723, 44.5426193], [33.5945056, 44.542557], [33.5944214, 44.5424941], [33.5942454, 44.542469]]}}, {"type": "Feature", "properties": {"@id": "way/1005976104", "highway": "primary", "oneway": "yes"}, "geometry": {"type": "LineString", "coordinates": [[33.5939894, 44.5424511], [33.5938061, 44.5424573], [33.5936728, 44.5424968], [33.593559, 44.5425563], [33.5923562, 44.54336], [33.5916449, 44.5438477]]}}, {"type": "Feature", "properties": {"@id": "way/1019677971", "highway": "trunk", "oneway": "yes", "surface": "asphalt"}, "geometry": {"type": "LineString", "coordinates": [[33.6132939, 44.580345], [33.6132096, 44.5801013], [33.6131461, 44.5798586], [33.6131056, 44.579702]]}}, {"type": "Feature", "properties": {"@id": "way/1308594735", "highway": "primary", "surface": "asphalt"}, "geometry": {"type": "LineString", "coordinates": [[33.5911359, 44.5441606], [33.5908121, 44.5443929], [33.5899773, 44.5449719], [33.5890389, 44.5456227], [33.588835, 44.5458045], [33.5887155, 44.5459111], [33.5885955, 44.5460487], [33.5884978, 44.5462207], [33.5879242, 44.5475778], [33.5876526, 44.5482203], [33.5873793, 44.5489583], [33.5872581, 44.5492858], [33.5872094, 44.5494052]]}}, {"type": "Feature", "properties": {"@id": "way/1308827566", "highway": "primary", "oneway": "yes"}, "geometry": {"type": "LineString", "coordinates": [[33.5916449, 44.5438477], [33.5911359, 44.5441606]]}}, {"type": "Feature", "properties": {"@id": "way/1313186652", "highway": "primary", "oneway": "no", "surface": "asphalt"}, "geometry": {"type": "LineString", "coordinates": [[33.6084859, 44.6681219], [33.6081461, 44.6673214], [33.6077462, 44.6666569], [33.607685, 44.6665819], [33.6073681, 44.6661935], [33.6055927, 44.6641775]]}}, {"type": "Feature", "properties": {"@id": "way/1391771432", "highway": "primary", "oneway": "no", "surface": "asphalt"}, "geometry": {"type": "LineString", "coordinates": [[33.6119686, 44.6762095], [33.6115202, 44.6735915], [33.61147, 44.6733021]]}}, {"type": "Feature", "properties": {"@id": "way/1465119110", "highway": "primary", "surface": "asphalt"}, "geometry": {"type": "LineString", "coordinates": [[33.6009298, 44.6058724], [33.6010627, 44.6058589]]}}, {"type": "Feature", "properties": {"@id": "way/1500807651", "highway": "trunk", "oneway": "yes", "surface": "asphalt"}, "geometry": {"type": "LineString", "coordinates": [[33.6010931, 44.5572618], [33.6008905, 44.5570414], [33.6004695, 44.5565489]]}}, {"type": "Feature", "properties": {"@id": "way/1500807653", "highway": "trunk", "oneway": "yes", "surface": "asphalt"}, "geometry": {"type": "LineString", "coordinates": [[33.5968543, 44.5484277], [33.5967232, 44.5475807]]}}, {"type": "Feature", "properties": {"@id": "way/1500807657", "highway": "trunk", "oneway": "yes", "surface": "asphalt"}, "geometry": {"type": "LineString", "coordinates": [[33.5965046, 44.546508], [33.5963006, 44.5458252]]}}]}